PK;NOMBRE;DESCRIPCION-ENTIDAD;HORARIO;EQUIPAMIENTO;TRANSPORTE;DESCRIPCION;ACCESIBILIDAD;CONTENT-URL;NOMBRE-VIA;CLASE-VIAL;TIPO-NUM;NUM;PLANTA;PUERTA;ESCALERAS;ORIENTACION;LOCALIDAD;PROVINCIA;CODIGO-POSTAL;BARRIO;DISTRITO;COORDENADA-X;COORDENADA-Y;LATITUD;LONGITUD;TELEFONO;FAX;EMAIL;TIPO;
13470;"Aparcamiento mixto. Arquitecto Ribera";"";"";"";"";"Plazas: 318 públicas y 298 para residentes Abierto 24 horas Admite Tarjeta BonoRed  Titularidad: Ayuntamiento de Madrid";"0";"http://www.madrid.es/sites/v/index.jsp?vgnextchannel=bfa48ab43d6bb410VgnVCM100000171f5a0aRCRD&vgnextoid=a50e15cbed51c010VgnVCM2000000c205a0aRCRD";"BARCELO";"CALLE";"V";"2";"";"";"";"";"MADRID";"MADRID";"28004";"JUSTICIA";"CENTRO";"440764";"4475560";"40.426687899755734";"-3.6996173701222492";"";"";"";"/contenido/entidadesYorganismos/AparcamientosResidentes"; 
59060;"Aparcamiento mixto. Avenida de América (intercambiador)";"";"";"";"";"Información sobre accesibilidad:  Tiene escaleras adaptadas Ascensor de salida a la calle Avenida de América, 9 Tiene aseos accesibles Plazas para minusválidos    Plazas: 269 públicas y 392 para residentes  Abierto 24 horas   Titularidad: Ayuntamiento de Madrid";"0";"http://www.madrid.es/sites/v/index.jsp?vgnextchannel=bfa48ab43d6bb410VgnVCM100000171f5a0aRCRD&vgnextoid=3f3bc2c6e051c010VgnVCM2000000c205a0aRCRD";"PRADENA DEL RINCON";"CALLE";"V";"4";"";"";"";"c/v avenida de América";"MADRID";"MADRID";"28002";"PROSPERIDAD";"CHAMARTIN";"442725";"4476896";"40.43886083125741";"-3.6766217383743345";"917 376 257";"";"intercambiador@intercambiador.net";"/contenido/entidadesYorganismos/AparcamientosResidentes"; 
5898885;"Aparcamiento mixto. Avenida de Portugal";"";"Horario de apertura de 6:00 h a 22:00 h los días laborables.";"";"";"Plazas: 432 públicas y 437 para residentes  Informacion sobre accesibilidad:  No tiene escalera adaptada Tiene ascensor de salida a Avenida de Portugal, s/n 1 aseo accesible (nivel-3) Plazas para minusválidos residentes: 20   Abierto 24 horas  Titularidad: Ayuntamiento de Madrid  Gestión: Empresa Municipal de Transportes (EMT) (más información)";"0";"http://www.madrid.es/sites/v/index.jsp?vgnextchannel=bfa48ab43d6bb410VgnVCM100000171f5a0aRCRD&vgnextoid=c313e26f2b3fc210VgnVCM2000000c205a0aRCRD";"PORTUGAL";"AVENIDA";"V";"155";"";"";"";"";"MADRID";"MADRID";"28011";"PUERTA DEL ANGEL";"LATINA";"437399";"4473658";"40.411180021966345";"-3.7378318857463158";"917 877 292 (grúa municipal)";"";"aparcamientos@madridmovilidad.es";"/contenido/entidadesYorganismos/AparcamientosResidentes"; 
13475;"Aparcamiento mixto. Brasil";"";"";"";"";"Plazas: 226 públicas y 400 para residentes Abierto 24 horas  Titularidad: Ayuntamiento de Madrid";"0";"http://www.madrid.es/sites/v/index.jsp?vgnextchannel=bfa48ab43d6bb410VgnVCM100000171f5a0aRCRD&vgnextoid=fb2e15cbed51c010VgnVCM2000000c205a0aRCRD";"GENERAL YAG&amp;Uuml;E";"CALLE";"V";"11";"";"";"";"";"MADRID";"MADRID";"28020";"CUATRO CAMINOS";"TETUAN";"441255";"4478822";"40.45610834965894";"-3.694131675088486";"";"";"";"/contenido/entidadesYorganismos/AparcamientosResidentes"; 
183747;"Aparcamiento mixto. Casino de la Reina";"";"";"";"";"Plazas: 135 públicas y 449 para residentes Abierto 24 horas  Titularidad: Ayuntamiento de Madrid";"0";"http://www.madrid.es/sites/v/index.jsp?vgnextchannel=bfa48ab43d6bb410VgnVCM100000171f5a0aRCRD&vgnextoid=c5f4bdc85c01c010VgnVCM2000000c205a0aRCRD";"CASINO";"CALLE";"V";"3";"";"";"";"";"MADRID";"MADRID";"28005";"EMBAJADORES";"CENTRO";"440213";"4473147";"40.406792648617134";"-3.7046086019457167";"";"";"";"/contenido/entidadesYorganismos/AparcamientosResidentes"; 
13477;"Aparcamiento mixto. Condesa de Gavia";"";"";"";"";"Plazas: 73 públicas y 79 para residentes  El horario de apertura para la parte del aparcamiento rotacional es de lunes a viernes de 9:00h a 20:40h. Sábados de 9:00 a 14:30h.  Titularidad: Ayuntamiento de Madrid";"0";"http://www.madrid.es/sites/v/index.jsp?vgnextchannel=bfa48ab43d6bb410VgnVCM100000171f5a0aRCRD&vgnextoid=7e5f15cbed51c010VgnVCM2000000c205a0aRCRD";"CONDESA DE GAVIA";"PLAZA";"V";"0";"";"";"";"";"MADRID";"MADRID";"28020";"CUATRO CAMINOS";"TETUAN";"440479";"4477874";"40.44938567948415";"-3.7019164121880888";"";"";"";"/contenido/entidadesYorganismos/AparcamientosResidentes"; 
81736;"Aparcamiento mixto. Corona Boreal";"";"";"";"";"Plazas: 120 públicas y 125 para residentes  Información sobre accesibilidad:  No tiene escaleras adaptadas Ascensor de salida a la calle Pérez de Victoria 2 aseos accesibles (1&amp;ordf; planta) Plazas para minusválidos residentes: 3    Abierto 24 horas   Titularidad: Ayuntamiento de Madrid";"1";"http://www.madrid.es/sites/v/index.jsp?vgnextchannel=bfa48ab43d6bb410VgnVCM100000171f5a0aRCRD&vgnextoid=db8bc2c6e051c010VgnVCM2000000c205a0aRCRD";"PEREZ DE VICTORIA";"CALLE";"V";"";"";"";"";"";"MADRID";"MADRID";"28023";"ARAVACA";"MONCLOA-ARAVACA";"433707";"4479153";"40.45852127134047";"-3.78317943069732";"913 573 714";"";"parkingcoronaboreal@hotmail.com";"/contenido/entidadesYorganismos/AparcamientosResidentes"; 
183748;"Aparcamiento mixto. Daoíz y Velarde";"";"";"";"";"Plazas: 312 públicas y 174 para residentes Abierto 24 horas  Titularidad: Ayuntamiento de Madrid";"0";"http://www.madrid.es/sites/v/index.jsp?vgnextchannel=bfa48ab43d6bb410VgnVCM100000171f5a0aRCRD&vgnextoid=0f85bdc85c01c010VgnVCM2000000c205a0aRCRD";"CIUDAD DE BARCELONA";"AVENIDA";"V";"3";"";"";"";"";"MADRID";"MADRID";"28007";"PACIFICO";"RETIRO";"441999";"4472969";"40.40532154127827";"-3.683544138638221";"S/T";"";"";"/contenido/entidadesYorganismos/AparcamientosResidentes"; 
44724;"Aparcamiento mixto. Díaz Porlier";"";"";"";"";"Plazas: 203 públicas y 421 para residentes Abierto 24 horas  Titularidad: Ayuntamiento de Madrid";"0";"http://www.madrid.es/sites/v/index.jsp?vgnextchannel=bfa48ab43d6bb410VgnVCM100000171f5a0aRCRD&vgnextoid=9e69946be351c010VgnVCM2000000c205a0aRCRD";"DIEGO DE LEON";"CALLE";"V";"62";"";"";"";"";"MADRID";"MADRID";"28006";"LISTA";"SALAMANCA";"442797";"4476402";"40.434415601006386";"-3.675728293375598";"91 401 73 74";"";"";"/contenido/entidadesYorganismos/AparcamientosResidentes"; 
36269;"Aparcamiento mixto. Encuentro";"";"";"";"";"Plazas: 104 públicas y 550 para residentes Abierto 24 horas  Titularidad: Ayuntamiento de Madrid";"0";"http://www.madrid.es/sites/v/index.jsp?vgnextchannel=bfa48ab43d6bb410VgnVCM100000171f5a0aRCRD&vgnextoid=c3e12c798651c010VgnVCM2000000c205a0aRCRD";"ENCUENTRO";"PLAZA";"V";"1";"";"";"";"";"MADRID";"MADRID";"28030";"MEDIA LEGUA";"MORATALAZ";"444782";"4473212";"40.40581270738191";"-3.652048809515808";"91 328 36 80";"";"";"/contenido/entidadesYorganismos/AparcamientosResidentes"; 
13464;"Aparcamiento mixto. Felipe II";"";"";"";"";"Plazas: 1175 públicas rotacionales y 615 para residentes  Información sobre accesibilidad:   No tiene escaleras adaptadas Ascensor de salida a la plaza de Felipe II Aseo accesible (1&amp;ordf; planta) Plazas para minusválidos residentes:23   Abierto 24 horas   Admite tarjeta BonoRed   Titularidad: Ayuntamiento de Madrid";"0";"http://www.madrid.es/sites/v/index.jsp?vgnextchannel=bfa48ab43d6bb410VgnVCM100000171f5a0aRCRD&vgnextoid=425e15cbed51c010VgnVCM2000000c205a0aRCRD";"ANTONIA MERCE";"CALLE";"V";"5";"";"";"";"";"MADRID";"MADRID";"28009";"GOYA";"SALAMANCA";"442874";"4475061";"40.42422175692137";"-3.673433652213169";"";"";"";"/contenido/entidadesYorganismos/AparcamientosResidentes"; 
24809;"Aparcamiento mixto. Fernández Shaw";"";"";"";"";"Plazas: 245 Abierto 24 horas  Titularidad: Ayuntamiento de Madrid";"0";"http://www.madrid.es/sites/v/index.jsp?vgnextchannel=bfa48ab43d6bb410VgnVCM100000171f5a0aRCRD&vgnextoid=0e6e6545f951c010VgnVCM2000000c205a0aRCRD";"CARLOS Y GUILLERMO FERNANDEZ SHAW";"CALLE";"V";"";"";"";"";"";"MADRID";"MADRID";"28007";"ADELFAS";"RETIRO";"443210";"4473036";"40.406002468696784";"-3.669292239090564";"";"";"";"/contenido/entidadesYorganismos/AparcamientosResidentes"; 
13462;"Aparcamiento mixto. Fuencarral";"";"";"";"";"Plazas: 410 públicas y 111 para residentes  Información sobre accesibilidad:   No tiene escalera adaptada 1 ascensor con salida a la calle Fuencarral, 117 1 aseo accesible en la 1&amp;ordf; planta Plazas para minusválidos residentes: 7   Abierto 24 horas   Admite Tarjeta BonoRed   Titularidad: Ayuntamiento de Madrid";"0";"http://www.madrid.es/sites/v/index.jsp?vgnextchannel=bfa48ab43d6bb410VgnVCM100000171f5a0aRCRD&vgnextoid=987e15cbed51c010VgnVCM2000000c205a0aRCRD";"FUENCARRAL";"CALLE";"V";"111";"";"";"";"";"MADRID";"MADRID";"28010";"TRAFALGAR";"CHAMBERI";"440387";"4475666";"40.42948845687032";"-3.7027941027177986";"Centralita EMT 914 068 810 ----                                                      

Aparcamiento      915 911 200";"";"aparcamientos@emtmadrid.es";"/contenido/entidadesYorganismos/AparcamientosResidentes"; 
36270;"Aparcamiento mixto. Hernani";"";"";"";"";"Plazas: 115 públicas y 383 residentes  Información sobre accesibilidad:  No tiene escaleras adptadas Ascensor de salida a la calle Hernai, 68 1 aseo accesible en 1&amp;ordf; planta Plazas para minusválidos residentes. 3    Abierto 24 horas   Titularidad: Ayuntamiento de Madrid";"0";"http://www.madrid.es/sites/v/index.jsp?vgnextchannel=bfa48ab43d6bb410VgnVCM100000171f5a0aRCRD&vgnextoid=d0712c798651c010VgnVCM2000000c205a0aRCRD";"HERNANI";"CALLE";"V";"60";"";"";"";"";"MADRID";"MADRID";"28020";"CUATRO CAMINOS";"TETUAN";"440463";"4477972";"40.448394729978006";"-3.7033919552673127";"915 545 326";"";"";"/contenido/entidadesYorganismos/AparcamientosResidentes"; 
13459;"Aparcamiento mixto. Jacinto Benavente";"";"";"";"";"Plazas: 285 públicas y 110 para residentes.  Plazas motos: 7.  Información sobre accesibilidad:   No tiene escaleras adaptadas Ascensor con salida a la calle Jacinto benavente, s/n 1 aseo accesible Plaza para minusválidos residentes: 16  Abierto 24 horas  Titularidad:  Ayuntamiento de Madrid   Gestión: Empresa Municipal de Transportes (EMT) (más información)";"0";"http://www.madrid.es/sites/v/index.jsp?vgnextchannel=bfa48ab43d6bb410VgnVCM100000171f5a0aRCRD&vgnextoid=c48f15cbed51c010VgnVCM2000000c205a0aRCRD";"JACINTO BENAVENTE";"PLAZA";"V";"6";"";"";"";"";"MADRID";"MADRID";"28012";"CORTES";"CENTRO";"440329";"4473996";"40.41444016371457";"-3.70332112917586";"917 877 292 (grúa municipal)";"";"aparcamientos@madridmovilidad.es";"/contenido/entidadesYorganismos/AparcamientosResidentes"; 
13479;"Aparcamiento mixto. José Castán Tobeñas";"";"";"";"";"Plazas: 205 públicas y 43 para residentes  Información sobre accesibilidad:  No tiene escaleras adaptadas No disponde ascensor No disponde de aseos accesible Plazas para minusválidos residentes: 5    Abierto 24 horas   Titularidad: Ayuntamiento de Madrid";"0";"http://www.madrid.es/sites/v/index.jsp?vgnextchannel=bfa48ab43d6bb410VgnVCM100000171f5a0aRCRD&vgnextoid=35ce15cbed51c010VgnVCM2000000c205a0aRCRD";"CAPITAN HAYA";"CALLE";"V";"57";"";"";"";"";"MADRID";"MADRID";"28020";"CASTILLEJOS";"TETUAN";"441477";"4479747";"40.46451060463543";"-3.6916467875121377";"915 707 612";"";"aeuropeos@gmail.com";"/contenido/entidadesYorganismos/AparcamientosResidentes"; 
6143690;"Aparcamiento mixto. Marqués de Salamanca";"";"";"";"";"Plazas: 360 públicas y 70 para residentes  Información sobre accesibilidad:   No tiene escaleras adaptadas 1 ascensor en la salida a la plaza del Marqués de Salamanca 1 aseo accesible en 2&amp;ordf;  planta Plaza para minusválidos residentes: 14   Abierto 24 horas   Titularidad: Ayuntamiento de Madrid";"0";"http://www.madrid.es/sites/v/index.jsp?vgnextchannel=bfa48ab43d6bb410VgnVCM100000171f5a0aRCRD&vgnextoid=cb5b1b2bb5b61310VgnVCM2000000c205a0aRCRD";"MARQUES DE SALAMANCA";"PLAZA";"V";"8";"";"";"";"";"MADRID";"MADRID";"28006";"LISTA";"SALAMANCA";"442498";"4475966";"40.43046723981028";"-3.6792137901324056";"917 877 292 (grúa municipal)";"";"aparcamientos@madridmovilidad.es";"/contenido/entidadesYorganismos/AparcamientosResidentes"; 
182188;"Aparcamiento mixto. Miguel Yuste";"";"";"";"";"Plazas: 182  públicas y 68 para residentes Abierto: 24 horas Admite Tarjeta BonoRed  Titularidad: Ayuntamiento de Madrid";"0";"http://www.madrid.es/sites/v/index.jsp?vgnextchannel=bfa48ab43d6bb410VgnVCM100000171f5a0aRCRD&vgnextoid=1c15bdc85c01c010VgnVCM2000000c205a0aRCRD";"MIGUEL YUSTE";"CALLE";"V";"11";"";"";"";"";"MADRID";"MADRID";"28037";"SIMANCAS";"SAN BLAS-CANILLEJAS";"447100";"4477013";"40.4402052387976";"-3.625049272913964";"";"";"";"/contenido/entidadesYorganismos/AparcamientosResidentes"; 
13465;"Aparcamiento mixto. Montalbán";"";"";"";"";"Plazas:   145 Residenciales 130 Rotacionales    Abierto 24 horas    Titularidad:  Ayuntamiento de Madrid   Gestión: Empresa Municipal de Transportes (EMT) (más información)";"1";"http://www.madrid.es/sites/v/index.jsp?vgnextchannel=bfa48ab43d6bb410VgnVCM100000171f5a0aRCRD&vgnextoid=f0967339ae51c010VgnVCM2000000c205a0aRCRD";"MONTALBAN";"CALLE";"V";"4";"";"";"";"";"MADRID";"MADRID";"28014";"LOS JERONIMOS";"RETIRO";"441367";"4474386";"40.41802725000116";"-3.691123387515545";"";"";"";"/contenido/entidadesYorganismos/AparcamientosResidentes"; 
5517342;"Aparcamiento mixto. Orense";"";"";"";"";"Plazas: 128 públicas y 663 para residentes  Información sobre accesibilidad:  1 escalera adaptada No dispone de ascensor 1 aseo accesible Plaza para minusválidos residentes: 5    Abierto 24 horas   Titularidad: Ayuntamiento de Madrid  Gestión: Empresa Municipal de Transportes (EMT) (más información)";"0";"http://www.madrid.es/sites/v/index.jsp?vgnextchannel=bfa48ab43d6bb410VgnVCM100000171f5a0aRCRD&vgnextoid=eee35ed15bb95210VgnVCM2000000c205a0aRCRD";"SOR ANGELA DE LA CRUZ";"CALLE";"V";"27";"";"";"";"";"MADRID";"MADRID";"28020";"CASTILLEJOS";"TETUAN";"441080";"4479226";"40.45973534025835";"-3.6962330375922363";"";"";"aparcamientos@emtmadrid.es";"/contenido/entidadesYorganismos/AparcamientosResidentes"; 
52114;"Aparcamiento mixto. Pedro Zerolo 'antes denominado Vázquez de Mella'";"";"";"";"";"Plazas: 107 públicas y 261 para residentes.  Plazas motos: 6.  Información sobre accesibilidad:  No tiene escaleras adaptadas 1 ascensor con salida a la Plaza de Vazquez de Mella 1 aseo accesible Plaza para minusválidos residentes: 7    Abierto 24 horas   Titularidad: Ayuntamiento de Madrid  Gestión: Empresa Municipal de Transportes (EMT) (más información)  Teléfonos: Residentes - 91 522 50 29          Rotacional -  91 532 19 10";"0";"http://www.madrid.es/sites/v/index.jsp?vgnextchannel=bfa48ab43d6bb410VgnVCM100000171f5a0aRCRD&vgnextoid=e499946be351c010VgnVCM2000000c205a0aRCRD";"PEDRO ZEROLO";"PLAZA";"V";"1";"";"";"";"";"MADRID";"MADRID";"28004";"JUSTICIA";"CENTRO";"440626";"4474716";"40.4209564450911";"-3.699899832865304";"";"";"aparcamientos@emtmadrid.es";"/contenido/entidadesYorganismos/AparcamientosResidentes"; 
33440;"Aparcamiento mixto. Plaza de Oriente";"";"";"";"";"Plazas: 242 públicas rotacionales (30 plazas para autobuses) y 511 para residentes Abierto 24 horas Admite Tarjeta BonoRed Este PAR está adherido a la zona de APR  Titularidad: Ayuntamiento de Madrid";"0";"http://www.madrid.es/sites/v/index.jsp?vgnextchannel=bfa48ab43d6bb410VgnVCM100000171f5a0aRCRD&vgnextoid=7db12c798651c010VgnVCM2000000c205a0aRCRD";"ORIENTE";"PLAZA";"V";"1";"";"";"";"";"MADRID";"MADRID";"28013";"PALACIO";"CENTRO";"439736";"4474563";"40.417632509561116";"-3.7116407088004757";"";"";"";"/contenido/entidadesYorganismos/AparcamientosResidentes"; 
11544439;"Aparcamiento mixto. Plaza de Santo Domingo (cerrado)";"";"";"";"";"Plazas Totales: 320 plazas,  Plazas motos: 16.";"0";"http://www.madrid.es/sites/v/index.jsp?vgnextchannel=bfa48ab43d6bb410VgnVCM100000171f5a0aRCRD&vgnextoid=58ec252aa267d710VgnVCM1000001d4a900aRCRD";"SANTO DOMINGO";"PLAZA";"V";"1";"";"";"";"";"MADRID";"MADRID";"28013";"PALACIO";"CENTRO";"439889";"4474650";"40.420309392199975";"-3.7085594772486696";"";"";"";"/contenido/entidadesYorganismos/AparcamientosResidentes"; 
13466;"Aparcamiento mixto. Plaza Mayor";"";"";"";"";"Plazas: 694  279 Residenciales 415 Rotacionales  Abierto 24 horas  Titularidad : Ayuntamiento de Madrid    Gálibo: 1'85 m";"0";"http://www.madrid.es/sites/v/index.jsp?vgnextchannel=bfa48ab43d6bb410VgnVCM100000171f5a0aRCRD&vgnextoid=2b1981eb5f51c010VgnVCM2000000c205a0aRCRD";"FELIPE III";"CALLE";"V";"11";"";"";"";"";"MADRID";"MADRID";"28012";"SOL";"CENTRO";"440027";"4474156";"40.41586882022003";"-3.706895619414367";"";"";"";"/contenido/entidadesYorganismos/AparcamientosResidentes"; 
36271;"Aparcamiento mixto. Presidente Carmona";"";"De lunes a domingo servicio ininterrumpido";"";"";"Plazas: 379 públicas y 124 para residentes Abierto 24 horas  Titularidad: Ayuntamiento de Madrid  Teléfono: 91 556 62 26";"0";"http://www.madrid.es/sites/v/index.jsp?vgnextchannel=bfa48ab43d6bb410VgnVCM100000171f5a0aRCRD&vgnextoid=8a412c798651c010VgnVCM2000000c205a0aRCRD";"PRESIDENTE CARMONA";"AVENIDA";"V";"3";"";"";"";"";"MADRID";"MADRID";"28020";"CUATRO CAMINOS";"TETUAN";"440965";"4478549";"40.45362846199134";"-3.6975262417380064";"";"";"";"/contenido/entidadesYorganismos/AparcamientosResidentes"; 
13476;"Aparcamiento mixto. Recoletos (cerrado)";"";"";"";"";"Plazas: 102 públicas y 289 para residentes  Información sobre accesibilidad:   No tiene escaleras adaptadas 1 ascensor en la salida al Paseo de Recoletos 1 aseo accesible Plaza para minusválidos residentes: 10   Abierto 24 horas   Titularidad : Ayuntamiento de Madrid   Gestión: Empresa Municipal de Transportes (EMT) (más información)";"0";"http://www.madrid.es/sites/v/index.jsp?vgnextchannel=bfa48ab43d6bb410VgnVCM100000171f5a0aRCRD&vgnextoid=283f15cbed51c010VgnVCM2000000c205a0aRCRD";"RECOLETOS";"PASEO";"V";"4";"";"";"";"";"MADRID";"MADRID";"28001";"RECOLETOS";"SALAMANCA";"441297";"4474666";"40.42054469225109";"-3.691974283683488";"";"";"aparcamientos@emtmadrid.es";"/contenido/entidadesYorganismos/AparcamientosResidentes"; 
24193;"Aparcamiento mixto. República Dominicana";"";"";"";"";"Plazas: 203 públicas y 892 para residentes Abierto 24 horas  Titularidad: Ayuntamiento de Madrid";"0";"http://www.madrid.es/sites/v/index.jsp?vgnextchannel=bfa48ab43d6bb410VgnVCM100000171f5a0aRCRD&vgnextoid=aabe6545f951c010VgnVCM2000000c205a0aRCRD";"REPUBLICA DOMINICANA";"PLAZA";"V";"6";"";"";"";"";"MADRID";"MADRID";"28016";"NUEVA ESPAÑA";"CHAMARTIN";"442641";"4478909";"40.45887037458626";"-3.6765275895176677";"";"";"";"/contenido/entidadesYorganismos/AparcamientosResidentes"; 
81828;"Aparcamiento mixto. Reyes Magos";"";"";"";"";"Plazas: 356 públicas y 345 para residentes Abierto 24 horas  Titularidad: Ayuntamiento de Madrid";"0";"http://www.madrid.es/sites/v/index.jsp?vgnextchannel=bfa48ab43d6bb410VgnVCM100000171f5a0aRCRD&vgnextoid=0dfec2c6e051c010VgnVCM2000000c205a0aRCRD";"REYES MAGOS";"PLAZA";"V";"14";"";"";"";"";"MADRID";"MADRID";"28007";"NIÑO JESUS";"RETIRO";"442622";"4473340";"40.40870074627349";"-3.6762488802382896";"";"";"";"/contenido/entidadesYorganismos/AparcamientosResidentes"; 
167692;"Aparcamiento mixto. San Cayetano";"";"";"";"";"Plazas: 222 públicas y 261 para residentes Abierto 24 horas  Titularidad: Ayuntamiento de Madrid";"0";"http://www.madrid.es/sites/v/index.jsp?vgnextchannel=bfa48ab43d6bb410VgnVCM100000171f5a0aRCRD&vgnextoid=a284ff632081c010VgnVCM1000000b205a0aRCRD";"SAN CAYETANO";"PLAZA";"V";"1";"";"";"";"";"MADRID";"MADRID";"28028";"GUINDALERA";"SALAMANCA";"443276";"4476388";"40.43432235224971";"-3.6700799322371056";"";"";"";"/contenido/entidadesYorganismos/AparcamientosResidentes"; 
13515;"Aparcamiento mixto. San Germán II (antes General Yagüe)";"";"";"";"";"Plazas: 409 públicas y 717 residentes Abierto 24 horas  Titularidad: Ayuntamiento de Madrid";"0";"http://www.madrid.es/sites/v/index.jsp?vgnextchannel=bfa48ab43d6bb410VgnVCM100000171f5a0aRCRD&vgnextoid=ee9e15cbed51c010VgnVCM2000000c205a0aRCRD";"BRASIL";"AVENIDA";"V";"15";"";"";"";"";"MADRID";"MADRID";"28020";"CASTILLEJOS";"TETUAN";"441152";"4478685";"40.45673936450418";"-3.694067405537416";"";"";"";"/contenido/entidadesYorganismos/AparcamientosResidentes"; 
19053;"Aparcamiento mixto. Sánchez Bustillo";"";"";"";"";"Plazas: 132 públicas y 408 para residentes Abierto 24 horas  Titularidad: Ayuntamiento de Madrid";"0";"http://www.madrid.es/sites/v/index.jsp?vgnextchannel=bfa48ab43d6bb410VgnVCM100000171f5a0aRCRD&vgnextoid=27912c798651c010VgnVCM2000000c205a0aRCRD";"SANCHEZ BUSTILLO";"CALLE";"V";"1";"";"";"";"";"MADRID";"MADRID";"28012";"EMBAJADORES";"CENTRO";"441114";"4473405";"40.40917205238472";"-3.6940145592988043";"";"";"";"/contenido/entidadesYorganismos/AparcamientosResidentes"; 
7416748;"Aparcamiento mixto. Serrano I";"";"";"";"";"Plazas: 307 públicas y 831 para residentes Abierto 24 horas  Titularidad: Ayuntamiento de Madrid";"0";"http://www.madrid.es/sites/v/index.jsp?vgnextchannel=bfa48ab43d6bb410VgnVCM100000171f5a0aRCRD&vgnextoid=bd61f94ae1d15410VgnVCM2000000c205a0aRCRD";"JUAN BRAVO";"CALLE";"V";"4";"";"";"";"";"MADRID";"MADRID";"28006";"CASTELLANA";"SALAMANCA";"441944";"4476240";"40.43289700914247";"-3.6857697780390155";"";"";"";"/contenido/entidadesYorganismos/AparcamientosResidentes"; 
7417028;"Aparcamiento mixto. Serrano II";"";"";"";"";"Plazas: 379 públicas y 794 para residentes Abierto 24 horas  Titularidad: Ayuntamiento de Madrid";"0";"http://www.madrid.es/sites/v/index.jsp?vgnextchannel=bfa48ab43d6bb410VgnVCM100000171f5a0aRCRD&vgnextoid=bc096f1c35d15410VgnVCM2000000c205a0aRCRD";"JOSE ORTEGA Y GASSET";"CALLE";"V";"1";"";"";"";"";"MADRID";"MADRID";"28006";"CASTELLANA";"SALAMANCA";"441729";"4475986";"40.43059379257075";"-3.688281097618061";"";"";"";"/contenido/entidadesYorganismos/AparcamientosResidentes"; 
7417052;"Aparcamiento mixto. Serrano III";"";"";"";"";"Plazas: 261 públicas y 725 para residentes Abierto 24 horas  Titularidad: Ayuntamiento de Madrid";"0";"http://www.madrid.es/sites/v/index.jsp?vgnextchannel=bfa48ab43d6bb410VgnVCM100000171f5a0aRCRD&vgnextoid=9a1c6f1c35d15410VgnVCM2000000c205a0aRCRD";"JORGE JUAN";"CALLE";"V";"1";"";"";"";"";"MADRID";"MADRID";"28001";"RECOLETOS";"SALAMANCA";"441597";"4475307";"40.42446775888825";"-3.6897747066093993";"";"";"";"/contenido/entidadesYorganismos/AparcamientosResidentes"; 
13460;"Aparcamiento mixto. Sevilla";"";"";"";"";"Plazas: 649 públicas rotacionales y 74 para residentes Abierto 24 horas Admite Tarjeta BonoRed   Titularidad: Ayuntamiento de Madrid";"0";"http://www.madrid.es/sites/v/index.jsp?vgnextchannel=bfa48ab43d6bb410VgnVCM100000171f5a0aRCRD&vgnextoid=9dd67339ae51c010VgnVCM2000000c205a0aRCRD";"ALCALA";"CALLE";"V";"17";"";"";"";"";"MADRID";"MADRID";"28014";"SOL";"CENTRO";"440740";"4474574";"40.41780383567921";"-3.6998082261071747";"915 219 281";"";"";"/contenido/entidadesYorganismos/AparcamientosResidentes"; 
13458;"Aparcamiento mixto. Velázquez - Ayala";"";"";"";"";"Plazas: 464 públicas y 235 para residentes Abierto 24 horas Admite Tarjeta BonoRed  Titularidad: Ayuntamiento de Madrid";"0";"http://www.madrid.es/sites/v/index.jsp?vgnextchannel=bfa48ab43d6bb410VgnVCM100000171f5a0aRCRD&vgnextoid=8bee15cbed51c010VgnVCM2000000c205a0aRCRD";"VELAZQUEZ";"CALLE";"V";"47";"";"";"";"";"MADRID";"MADRID";"28001";"RECOLETOS";"SALAMANCA";"442075";"4475607";"40.427203787185476";"-3.6841676172873936";"";"";"";"/contenido/entidadesYorganismos/AparcamientosResidentes"; 
13457;"Aparcamiento mixto. Velázquez - Jorge Juan";"";"";"";"";"Plazas: 549 públicas y 395 para residentes Abierto 24 horas Admite Tarjeta BonoRed  Titularidad: Ayuntamiento de Madrid";"1";"http://www.madrid.es/sites/v/index.jsp?vgnextchannel=bfa48ab43d6bb410VgnVCM100000171f5a0aRCRD&vgnextoid=d11f15cbed51c010VgnVCM2000000c205a0aRCRD";"VELAZQUEZ";"CALLE";"V";"25";"";"";"";"";"MADRID";"MADRID";"28001";"RECOLETOS";"SALAMANCA";"442058";"4475292";"40.4243649253884";"-3.684339253399854";"";"";"";"/contenido/entidadesYorganismos/AparcamientosResidentes"; 
183607;"Aparcamiento mixto. Verdaguer y García";"";"";"";"";"Plazas: 83 públicas y 180 para residentes  Información sobre accesibilidad:  No tiene escaleras adaptadas 1 ascensor en la salida a la Calle Verdaguer y garcía 1 aseo accesible en la planta -1 Plaza para minusválidos residentes: 4    Abierto 24 horas   Titularidad: Ayuntamiento de Madrid";"0";"http://www.madrid.es/sites/v/index.jsp?vgnextchannel=bfa48ab43d6bb410VgnVCM100000171f5a0aRCRD&vgnextoid=6245bdc85c01c010VgnVCM2000000c205a0aRCRD";"VERDAGUER Y GARCIA";"CALLE";"V";"1";"";"";"";"";"MADRID";"MADRID";"28027";"SAN PASCUAL";"CIUDAD LINEAL";"444432";"4477001";"40.43992277144076";"-3.656505118007155";"913 531 050";"";"";"/contenido/entidadesYorganismos/AparcamientosResidentes"; 
8087180;"Aparcamiento para residentes del Centro Polivalente Barceló";"Plazas: 554 (541 para automóviles y 13 para motocicletas)  Plazas para movilidad reducida: 10  Abierto 24 horas   Titularidad: Ayuntamiento de Madrid  Gestión: Empresa Municipal de Transportes (EMT) (más información)";"";"";"";"";"0";"http://www.madrid.es/sites/v/index.jsp?vgnextchannel=bfa48ab43d6bb410VgnVCM100000171f5a0aRCRD&vgnextoid=9826774ac3cdd410VgnVCM2000000c205a0aRCRD";"BARCELO";"CALLE";"V";"0";"";"";"";"";"MADRID";"MADRID";"28004";"JUSTICIA";"CENTRO";"440638";"4475534";"40.42645376188213";"-3.7010885254757215";"";"";"";"/contenido/entidadesYorganismos/AparcamientosResidentes"; 
4829668;"Aparcamiento para residentes.  Ginzo de Limia";"";"";"";"";"Plazas: 97 Abierto 24 horas  Titularidad: Ayuntamiento de Madrid  Gestión: Empresa Municipal de Transportes (EMT) (más información)";"0";"http://www.madrid.es/sites/v/index.jsp?vgnextchannel=bfa48ab43d6bb410VgnVCM100000171f5a0aRCRD&vgnextoid=9c77780e5c0a8110VgnVCM1000000b205a0aRCRD";"VALENCIA DE DON JUAN";"CALLE";"V";"16";"";"";"";"";"MADRID";"MADRID";"28034";"LA PAZ";"FUENCARRAL-EL PARDO";"440664";"4482211";"40.48659572222757";"-3.701418983284407";"";"";"";"/contenido/entidadesYorganismos/AparcamientosResidentes"; 
24139;"Aparcamiento para residentes.  Valderromán";"";"";"";"";"Plazas: 424 Abierto 24 horas  Titularidad: Ayuntamiento de Madrid";"0";"http://www.madrid.es/sites/v/index.jsp?vgnextchannel=bfa48ab43d6bb410VgnVCM100000171f5a0aRCRD&vgnextoid=85026545f951c010VgnVCM2000000c205a0aRCRD";"VALDERROMAN";"CALLE";"V";"24-B";"";"";"";"";"MADRID";"MADRID";"28035";"VALDEZARZA";"MONCLOA-ARAVACA";"438952";"4480476";"40.47084197155435";"-3.7214386928759";"";"";"";"/contenido/entidadesYorganismos/AparcamientosResidentes"; 
67711;"Aparcamiento para residentes. Aguilar de Campóo";"";"";"";"";"Plazas: 203 Abierto 24 horas  Titularidad: Ayuntamiento de Madrid";"0";"http://www.madrid.es/sites/v/index.jsp?vgnextchannel=bfa48ab43d6bb410VgnVCM100000171f5a0aRCRD&vgnextoid=d60868540e41c010VgnVCM2000000c205a0aRCRD";"ANTONIO MACHADO";"CALLE";"V";"10";"";"";"";"entrada y salida por calle Antonio Machado";"MADRID";"MADRID";"28035";"VALDEZARZA";"MONCLOA-ARAVACA";"439091";"4479744";"40.46425800063576";"-3.71974049893289";"";"";"";"/contenido/entidadesYorganismos/AparcamientosResidentes"; 
13560;"Aparcamiento para residentes. Aguilón";"";"";"";"";"Plazas: 271 Abierto 24 horas  Titularidad: Ayuntamiento de Madrid";"0";"http://www.madrid.es/sites/v/index.jsp?vgnextchannel=bfa48ab43d6bb410VgnVCM100000171f5a0aRCRD&vgnextoid=bc5215cbed51c010VgnVCM2000000c205a0aRCRD";"CHOPERA";"PASEO";"V";"27";"";"";"";"";"MADRID";"MADRID";"28045";"CHOPERA";"ARGANZUELA";"440641";"4472102";"40.39551876450337";"-3.700743991187278";"";"";"";"/contenido/entidadesYorganismos/AparcamientosResidentes"; 
81690;"Aparcamiento para residentes. Agustín Lara";"";"";"";"";"Plazas: 343 Abierto 24 horas  Titularidad: Ayuntamiento de Madrid   La EMT oferta plazas de estacionamiento, en régimen de alquiler de larga duración, con abonos de 1, 3 y 5 años en este aparcamiento. Más información:  http://www.emtmadrid.es/aparcamiento_agustin_lara/index.html";"0";"http://www.madrid.es/sites/v/index.jsp?vgnextchannel=bfa48ab43d6bb410VgnVCM100000171f5a0aRCRD&vgnextoid=856bc2c6e051c010VgnVCM2000000c205a0aRCRD";"EMBAJADORES";"CALLE";"V";"58";"";"";"";"calle sombrerete esquina mesón de paredes";"MADRID";"MADRID";"28012";"EMBAJADORES";"CENTRO";"440359";"4473454";"40.40768707324583";"-3.7041936561722837";"";"";"";"/contenido/entidadesYorganismos/AparcamientosResidentes"; 
7439839;"Aparcamiento para residentes. Alameda (cerrado)";"";"";"";"";"Plazas: 171 Abierto 24 horas  Titularidad: Ayuntamiento de Madrid";"0";"http://www.madrid.es/sites/v/index.jsp?vgnextchannel=bfa48ab43d6bb410VgnVCM100000171f5a0aRCRD&vgnextoid=5690bf11ca045410VgnVCM1000000b205a0aRCRD";"ALAMEDA";"CALLE";"V";"11";"";"";"";"";"MADRID";"MADRID";"28014";"CORTES";"CENTRO";"441137";"4473671";"40.41157894870162";"-3.6937682064196955";"";"";"";"/contenido/entidadesYorganismos/AparcamientosResidentes"; 
24136;"Aparcamiento para residentes. Alcalde Sáinz de Baranda";"";"";"";"";"Plazas: 565 Abierto 24 horas  Titularidad: Ayuntamiento de Madrid";"0";"http://www.madrid.es/sites/v/index.jsp?vgnextchannel=bfa48ab43d6bb410VgnVCM100000171f5a0aRCRD&vgnextoid=80af6545f951c010VgnVCM2000000c205a0aRCRD";"ALCALDE SAINZ DE BARANDA";"CALLE";"V";"81";"";"";"";"";"MADRID";"MADRID";"28007";"ESTRELLA";"RETIRO";"443400";"4474470";"40.4170524678261";"-3.6684469760596947";"";"";"";"/contenido/entidadesYorganismos/AparcamientosResidentes"; 
11544480;"Aparcamiento para residentes. Alcántara";"";"";"";"";"Plazas: 343 Abierto 24 horas  Titularidad: Ayuntamiento de Madrid   La EMT oferta plazas de estacionamiento, en régimen de alquiler de larga duración, con abonos de 1, 3 y 5 años en este aparcamiento. Más información:  http://www.emtmadrid.es/aparcamiento_agustin_lara/index.html";"0";"http://www.madrid.es/sites/v/index.jsp?vgnextchannel=bfa48ab43d6bb410VgnVCM100000171f5a0aRCRD&vgnextoid=79df252aa267d710VgnVCM1000001d4a900aRCRD";"EMBAJADORES";"CALLE";"V";"58";"";"";"";"calle sombrerete esquina mesón de paredes";"MADRID";"MADRID";"28012";"EMBAJADORES";"CENTRO";"440359";"4473454";"40.40768707324583";"-3.7041936561722837";"";"";"";"/contenido/entidadesYorganismos/AparcamientosResidentes"; 
17790;"Aparcamiento para residentes. Alcazaba";"";"";"";"";"Plazas: 334 Abierto 24 horas  Titularidad: Ayuntamiento de Madrid";"0";"http://www.madrid.es/sites/v/index.jsp?vgnextchannel=bfa48ab43d6bb410VgnVCM100000171f5a0aRCRD&vgnextoid=f0ee6545f951c010VgnVCM2000000c205a0aRCRD";"SINESIO DELGADO";"CALLE";"V";"26";"";"";"";"Avenida de Asturias c/v Ribadavia. Frente a gasolinera";"MADRID";"MADRID";"28029";"EL PILAR";"FUENCARRAL-EL PARDO";"440508";"4480708";"40.47304495112221";"-3.7031182584981632";"";"";"";"/contenido/entidadesYorganismos/AparcamientosResidentes"; 
81696;"Aparcamiento para residentes. Alonso Cano";"";"";"";"";"Plazas: 433 Abierto 24 horas  Titularidad: Ayuntamiento de Madrid";"0";"http://www.madrid.es/sites/v/index.jsp?vgnextchannel=bfa48ab43d6bb410VgnVCM100000171f5a0aRCRD&vgnextoid=fa0dc2c6e051c010VgnVCM2000000c205a0aRCRD";"JOSE ABASCAL";"CALLE";"V";"21";"";"";"";"";"MADRID";"MADRID";"28003";"RIOS ROSAS";"CHAMBERI";"440764";"4476881";"40.438588067952956";"-3.699740715636031";"";"";"";"/contenido/entidadesYorganismos/AparcamientosResidentes"; 
13561;"Aparcamiento para residentes. Altos de Lillo";"";"";"";"";"Plazas: 167 Abierto 24 horas  Titularidad: Ayuntamiento de Madrid";"0";"http://www.madrid.es/sites/v/index.jsp?vgnextchannel=bfa48ab43d6bb410VgnVCM100000171f5a0aRCRD&vgnextoid=038215cbed51c010VgnVCM2000000c205a0aRCRD";"BUBIERCA";"CALLE";"V";"5";"";"";"";"c/v Altos de Lillo";"MADRID";"MADRID";"28031";"CASCO H.VALLECAS";"VILLA DE VALLECAS";"447579";"4469783";"40.375103173529624";"-3.6188048038957525";"";"";"";"/contenido/entidadesYorganismos/AparcamientosResidentes"; 
19060;"Aparcamiento para residentes. Aluche";"";"";"";"";"Plazas: 208 Abierto 24 horas  Titularidad: Ayuntamiento de Madrid";"0";"http://www.madrid.es/sites/v/index.jsp?vgnextchannel=bfa48ab43d6bb410VgnVCM100000171f5a0aRCRD&vgnextoid=1a022c798651c010VgnVCM2000000c205a0aRCRD";"ILLESCAS";"CALLE";"V";"151";"";"";"";"";"MADRID";"MADRID";"28047";"ALUCHE";"LATINA";"435710";"4471821";"40.392629719913494";"-3.7588147232323994";"";"";"";"/contenido/entidadesYorganismos/AparcamientosResidentes"; 
13494;"Aparcamiento para residentes. América Española";"";"";"";"";"Plazas: 282 Abierto 24 horas  Titularidad: Ayuntamiento de Madrid";"0";"http://www.madrid.es/sites/v/index.jsp?vgnextchannel=bfa48ab43d6bb410VgnVCM100000171f5a0aRCRD&vgnextoid=09b37339ae51c010VgnVCM2000000c205a0aRCRD";"SANCHO DAVILA";"CALLE";"V";"1";"";"";"";"";"MADRID";"MADRID";"28028";"FUENTE DEL BERRO";"SALAMANCA";"443951";"4475781";"40.428900028803746";"-3.662068474281374";"";"";"";"/contenido/entidadesYorganismos/AparcamientosResidentes"; 
13552;"Aparcamiento para residentes. Andévalo";"";"";"";"";"Plazas: 313 Abierto 24 horas  Titularidad: Ayuntamiento de Madrid";"0";"http://www.madrid.es/sites/v/index.jsp?vgnextchannel=bfa48ab43d6bb410VgnVCM100000171f5a0aRCRD&vgnextoid=59a215cbed51c010VgnVCM2000000c205a0aRCRD";"ANDEVALO";"CALLE";"V";"6";"";"";"";"ENTRE C/ ANDÉVALO Y C/ HORNACHOS";"MADRID";"MADRID";"28053";"ENTREVIAS";"PUENTE DE VALLECAS";"443382";"4469736";"40.374404666864585";"-3.668237382541929";"";"";"";"/contenido/entidadesYorganismos/AparcamientosResidentes"; 
5753573;"Aparcamiento para residentes. Andorra II";"";"";"";"";"Plazas: 280 Abierto 24 horas  Titularidad: Ayuntamiento de Madrid";"0";"http://www.madrid.es/sites/v/index.jsp?vgnextchannel=bfa48ab43d6bb410VgnVCM100000171f5a0aRCRD&vgnextoid=5fae964bd47a9210VgnVCM1000000b205a0aRCRD";"SILVANO";"CALLE";"V";"61";"";"";"";"";"MADRID";"MADRID";"28043";"CANILLAS";"HORTALEZA";"445583";"4479118";"40.45907010700822";"-3.6431161496299156";"";"";"";"/contenido/entidadesYorganismos/AparcamientosResidentes"; 
13514;"Aparcamiento para residentes. Angel Carbajo";"";"";"";"";"Plazas: 470 Abierto 24 horas  Titularidad: Ayuntamiento de Madrid";"0";"http://www.madrid.es/sites/v/index.jsp?vgnextchannel=bfa48ab43d6bb410VgnVCM100000171f5a0aRCRD&vgnextoid=5fd37339ae51c010VgnVCM2000000c205a0aRCRD";"ANGEL CARBAJO";"PLAZA";"V";"8";"";"";"";"";"MADRID";"MADRID";"28020";"CASTILLEJOS";"TETUAN";"441254";"4479482";"40.46205383839361";"-3.6942046665141532";"S/T";"";"";"/contenido/entidadesYorganismos/AparcamientosResidentes"; 
13548;"Aparcamiento para residentes. Antonio López";"";"";"";"";"Plazas: 1111 Abierto 24 horas  Titularidad: Ayuntamiento de Madrid";"0";"http://www.madrid.es/sites/v/index.jsp?vgnextchannel=bfa48ab43d6bb410VgnVCM100000171f5a0aRCRD&vgnextoid=afc215cbed51c010VgnVCM2000000c205a0aRCRD";"ANTONIO LOPEZ";"CALLE";"V";"15";"";"";"";"ENFRENTE DE LA CALLE BALEARES";"MADRID";"MADRID";"28019";"COMILLAS";"CARABANCHEL";"439540";"4472267";"40.39694383653292";"-3.71373239872531";"";"";"";"/contenido/entidadesYorganismos/AparcamientosResidentes"; 
13562;"Aparcamiento para residentes. Antonio Machado";"";"";"";"";"Plazas: 339 Abierto 24 horas  Titularidad: Ayuntamiento de Madrid";"0";"http://www.madrid.es/sites/v/index.jsp?vgnextchannel=bfa48ab43d6bb410VgnVCM100000171f5a0aRCRD&vgnextoid=f5f215cbed51c010VgnVCM2000000c205a0aRCRD";"ANTONIO MACHADO";"CALLE";"V";"19";"";"";"";"";"MADRID";"MADRID";"28035";"VALDEZARZA";"MONCLOA-ARAVACA";"439048";"4479847";"40.46518270295288";"-3.7202575723897997";"";"";"";"/contenido/entidadesYorganismos/AparcamientosResidentes"; 
13554;"Aparcamiento para residentes. Antonio Maura";"";"";"";"";"Plazas: 510 Abierto 24 horas  Titularidad: Ayuntamiento de Madrid";"0";"http://www.madrid.es/sites/v/index.jsp?vgnextchannel=bfa48ab43d6bb410VgnVCM100000171f5a0aRCRD&vgnextoid=4c1315cbed51c010VgnVCM2000000c205a0aRCRD";"ANTONIO MAURA";"CALLE";"V";"7";"";"";"";"";"MADRID";"MADRID";"28014";"LOS JERONIMOS";"RETIRO";"441507";"4474450";"40.41674114835766";"-3.6907566185159073";"";"";"";"/contenido/entidadesYorganismos/AparcamientosResidentes"; 
24093;"Aparcamiento para residentes. Antonio Mena";"";"";"";"";"Plazas: 315 Abierto 24 horas  Titularidad: Ayuntamiento de Madrid";"1";"http://www.madrid.es/sites/v/index.jsp?vgnextchannel=bfa48ab43d6bb410VgnVCM100000171f5a0aRCRD&vgnextoid=78726545f951c010VgnVCM2000000c205a0aRCRD";"DOCTOR GARCIA TAPIA";"AVENIDA";"V";"119";"";"";"";"";"MADRID";"MADRID";"28030";"MARROQUINA";"MORATALAZ";"445558";"4473506";"40.41039257241475";"-3.6416470825478937";"";"";"";"/contenido/entidadesYorganismos/AparcamientosResidentes"; 
24088;"Aparcamiento para residentes. Antonio Pirala";"";"";"";"";"Plazas: 508 Abierto 24 horas  Titularidad: Ayuntamiento de Madrid";"0";"http://www.madrid.es/sites/v/index.jsp?vgnextchannel=bfa48ab43d6bb410VgnVCM100000171f5a0aRCRD&vgnextoid=d6cf6545f951c010VgnVCM2000000c205a0aRCRD";"ANTONIO PIRALA";"CALLE";"V";"8";"";"";"";"";"MADRID";"MADRID";"28017";"VENTAS";"CIUDAD LINEAL";"444156";"4475752";"40.428652595625735";"-3.659649292346212";"";"";"";"/contenido/entidadesYorganismos/AparcamientosResidentes"; 
24095;"Aparcamiento para residentes. Arganda";"";"";"";"";"Plazas: 164 Abierto 24 horas  Titularidad: Ayuntamiento de Madrid";"0";"http://www.madrid.es/sites/v/index.jsp?vgnextchannel=bfa48ab43d6bb410VgnVCM100000171f5a0aRCRD&vgnextoid=2def6545f951c010VgnVCM2000000c205a0aRCRD";"ARGANDA";"CALLE";"V";"10 C";"";"";"";"";"MADRID";"MADRID";"28005";"ACACIAS";"ARGANZUELA";"440060";"4472608";"40.400053390124974";"-3.707637536688371";"";"";"";"/contenido/entidadesYorganismos/AparcamientosResidentes"; 
24096;"Aparcamiento para residentes. Arroyo del Olivar";"";"";"";"";"Plazas: 214 Abierto 24 horas  Titularidad: Ayuntamiento de Madrid";"0";"http://www.madrid.es/sites/v/index.jsp?vgnextchannel=bfa48ab43d6bb410VgnVCM100000171f5a0aRCRD&vgnextoid=73106545f951c010VgnVCM2000000c205a0aRCRD";"ARROYO DEL OLIVAR";"CALLE";"V";"51";"";"";"";"";"MADRID";"MADRID";"28018";"PALOMERAS BAJAS";"PUENTE DE VALLECAS";"444328";"4471498";"40.390341693089944";"-3.6572487652878456";"";"";"";"/contenido/entidadesYorganismos/AparcamientosResidentes"; 
13537;"Aparcamiento para residentes. Arroyo Fontarrón";"";"";"";"";"Plazas: 307 Abierto 24 horas  Titularidad: Ayuntamiento de Madrid";"0";"http://www.madrid.es/sites/v/index.jsp?vgnextchannel=bfa48ab43d6bb410VgnVCM100000171f5a0aRCRD&vgnextoid=e86315cbed51c010VgnVCM2000000c205a0aRCRD";"ARROYO FONTARRON";"CALLE";"V";"9";"";"";"";"";"MADRID";"MADRID";"28030";"FONTARRON";"MORATALAZ";"444931";"4473091";"40.4047325569571";"-3.6502824390198167";"";"";"";"/contenido/entidadesYorganismos/AparcamientosResidentes"; 
13536;"Aparcamiento para residentes. Arroyo Media Legua";"";"";"";"";"Plazas: 285 Abierto 24 horas  Titularidad: Ayuntamiento de Madrid";"0";"http://www.madrid.es/sites/v/index.jsp?vgnextchannel=bfa48ab43d6bb410VgnVCM100000171f5a0aRCRD&vgnextoid=924315cbed51c010VgnVCM2000000c205a0aRCRD";"CORREGIDOR DIEGO CABEZA DE VACA";"CALLE";"V";"4";"";"";"";"";"MADRID";"MADRID";"28030";"MEDIA LEGUA";"MORATALAZ";"444486";"4473652";"40.40975675657818";"-3.6555754577111452";"";"";"";"/contenido/entidadesYorganismos/AparcamientosResidentes"; 
13626;"Aparcamiento para residentes. Augusto González Besada";"";"";"";"";"Plazas: 278 Abierto 24 horas  Titularidad: Ayuntamiento de Madrid";"0";"http://www.madrid.es/sites/v/index.jsp?vgnextchannel=bfa48ab43d6bb410VgnVCM100000171f5a0aRCRD&vgnextoid=3f8315cbed51c010VgnVCM2000000c205a0aRCRD";"MORATALAZ";"AVENIDA";"V";"183";"";"";"";"";"MADRID";"MADRID";"28030";"MARROQUINA";"MORATALAZ";"445476";"4473541";"40.40882236801765";"-3.643898652734279";"";"";"";"/contenido/entidadesYorganismos/AparcamientosResidentes"; 
17449;"Aparcamiento para residentes. Avenida de las Águilas (antes General Fanjul)";"";"";"";"";"Plazas: 570 Abierto 24 horas  Titularidad: Ayuntamiento de Madrid";"0";"http://www.madrid.es/sites/v/index.jsp?vgnextchannel=bfa48ab43d6bb410VgnVCM100000171f5a0aRCRD&vgnextoid=470f6545f951c010VgnVCM2000000c205a0aRCRD";"LAS AGUILAS";"AVENIDA";"V";"144";"";"";"";"";"MADRID";"MADRID";"28044";"LAS AGUILAS";"LATINA";"433494";"4470268";"40.38035137723206";"-3.7834824879910847";"";"";"";"/contenido/entidadesYorganismos/AparcamientosResidentes"; 
170742;"Aparcamiento para residentes. Azuaga";"";"";"";"";"Plazas: 261 Abierto 24 horas  Titularidad: Ayuntamiento de Madrid";"1";"http://www.madrid.es/sites/v/index.jsp?vgnextchannel=bfa48ab43d6bb410VgnVCM100000171f5a0aRCRD&vgnextoid=f8a4ff632081c010VgnVCM1000000b205a0aRCRD";"SAN RESTITUTO";"CALLE";"V";"33";"";"";"";"";"MADRID";"MADRID";"28039";"VALDEZARZA";"MONCLOA-ARAVACA";"439779";"4479787";"40.464695605273214";"-3.711629983272826";"";"";"";"/contenido/entidadesYorganismos/AparcamientosResidentes"; 
13501;"Aparcamiento para residentes. Bañeza";"";"";"";"";"Plazas: 239 Abierto 24 horas  Titularidad: Ayuntamiento de Madrid";"0";"http://www.madrid.es/sites/v/index.jsp?vgnextchannel=bfa48ab43d6bb410VgnVCM100000171f5a0aRCRD&vgnextoid=ea0b7339ae51c010VgnVCM2000000c205a0aRCRD";"LA BA&amp;Ntilde;EZA";"CALLE";"V";"20";"";"";"";"";"MADRID";"MADRID";"28029";"EL PILAR";"FUENCARRAL-EL PARDO";"439622";"4481104";"40.476548210358075";"-3.7136073064656374";"";"";"";"/contenido/entidadesYorganismos/AparcamientosResidentes"; 
13633;"Aparcamiento para residentes. Baviera";"";"";"";"";"Plazas: 208 Abierto 24 horas  Titularidad: Ayuntamiento de Madrid";"1";"http://www.madrid.es/sites/v/index.jsp?vgnextchannel=bfa48ab43d6bb410VgnVCM100000171f5a0aRCRD&vgnextoid=f09015cbed51c010VgnVCM2000000c205a0aRCRD";"BRUSELAS";"AVENIDA";"V";"74 B";"";"";"";"";"MADRID";"MADRID";"28028";"GUINDALERA";"SALAMANCA";"443832";"4477295";"40.442530814084584";"-3.6636171675129683";"";"";"";"/contenido/entidadesYorganismos/AparcamientosResidentes"; 
81700;"Aparcamiento para residentes. Belianes";"";"";"";"";"Plazas: 161 Abierto 24 horas  Titularidad: Ayuntamiento de Madrid";"0";"http://www.madrid.es/sites/v/index.jsp?vgnextchannel=bfa48ab43d6bb410VgnVCM100000171f5a0aRCRD&vgnextoid=22bbc2c6e051c010VgnVCM2000000c205a0aRCRD";"AGUSTIN DE ITURBIDE";"CALLE";"V";"7";"";"";"";"";"MADRID";"MADRID";"28043";"PINAR DEL REY";"HORTALEZA";"445499";"4480322";"40.469910833486516";"-3.644210441293518";"";"";"";"/contenido/entidadesYorganismos/AparcamientosResidentes"; 
21182;"Aparcamiento para residentes. Blasco de Garay";"";"";"";"";"Plazas: 461 Abierto 24 horas  Titularidad: Ayuntamiento de Madrid";"0";"http://www.madrid.es/sites/v/index.jsp?vgnextchannel=bfa48ab43d6bb410VgnVCM100000171f5a0aRCRD&vgnextoid=c9306545f951c010VgnVCM2000000c205a0aRCRD";"BLASCO DE GARAY";"CALLE";"V";"31";"";"";"";"";"MADRID";"MADRID";"28015";"GAZTAMBIDE";"CHAMBERI";"439744";"4476292";"40.43320868688477";"-3.711710574902686";"";"";"";"/contenido/entidadesYorganismos/AparcamientosResidentes"; 
13532;"Aparcamiento para residentes. Bohemios";"";"";"";"";"Plazas: 340 Abierto 24 horas  Titularidad: Ayuntamiento de Madrid";"0";"http://www.madrid.es/sites/v/index.jsp?vgnextchannel=bfa48ab43d6bb410VgnVCM100000171f5a0aRCRD&vgnextoid=85b315cbed51c010VgnVCM2000000c205a0aRCRD";"PAN Y TOROS";"CALLE";"V";"56";"";"";"";"";"MADRID";"MADRID";"28041";"LOS ANGELES";"VILLAVERDE";"441126";"4467850";"40.35723045218769";"-3.6947064479324707";"";"";"";"/contenido/entidadesYorganismos/AparcamientosResidentes"; 
13495;"Aparcamiento para residentes. Boston";"";"";"";"";"Plazas: 353 Abierto 24 horas  Titularidad: Ayuntamiento de Madrid";"0";"http://www.madrid.es/sites/v/index.jsp?vgnextchannel=bfa48ab43d6bb410VgnVCM100000171f5a0aRCRD&vgnextoid=dbd315cbed51c010VgnVCM2000000c205a0aRCRD";"BOSTON";"CALLE";"V";"2";"";"";"";"";"MADRID";"MADRID";"28028";"GUINDALERA";"SALAMANCA";"443626";"4476745";"40.43756223469774";"-3.6659853858211267";"";"";"";"/contenido/entidadesYorganismos/AparcamientosResidentes"; 
13530;"Aparcamiento para residentes. Bravo Murillo";"";"";"";"";"Plazas: 629 Abierto 24 horas  Titularidad: Ayuntamiento de Madrid  Teléfono:   618 263 474";"0";"http://www.madrid.es/sites/v/index.jsp?vgnextchannel=bfa48ab43d6bb410VgnVCM100000171f5a0aRCRD&vgnextoid=220415cbed51c010VgnVCM2000000c205a0aRCRD";"BRAVO MURILLO";"CALLE";"V";"49";"";"";"";"";"MADRID";"MADRID";"28003";"VALLEHERMOSO";"CHAMBERI";"440370";"4476968";"40.43934359051524";"-3.7043941647283263";"";"";"";"/contenido/entidadesYorganismos/AparcamientosResidentes"; 
13563;"Aparcamiento para residentes. Brescia";"";"";"";"";"Plazas: 399 Abierto 24 horas  Titularidad: Ayuntamiento de Madrid";"0";"http://www.madrid.es/sites/v/index.jsp?vgnextchannel=bfa48ab43d6bb410VgnVCM100000171f5a0aRCRD&vgnextoid=782415cbed51c010VgnVCM2000000c205a0aRCRD";"BRESCIA";"CALLE";"V";"13";"";"";"";"";"MADRID";"MADRID";"28028";"GUINDALERA";"SALAMANCA";"443923";"4476747";"40.43760037141018";"-3.6624839501188746";"";"";"";"/contenido/entidadesYorganismos/AparcamientosResidentes"; 
13564;"Aparcamiento para residentes. Bristol";"";"";"";"";"Plazas: 317 Abierto 24 horas  Titularidad: Ayuntamiento de Madrid";"0";"http://www.madrid.es/sites/v/index.jsp?vgnextchannel=bfa48ab43d6bb410VgnVCM100000171f5a0aRCRD&vgnextoid=ce4415cbed51c010VgnVCM2000000c205a0aRCRD";"BRISTOL";"CALLE";"V";"4";"";"";"";"";"MADRID";"MADRID";"28028";"GUINDALERA";"SALAMANCA";"443957";"4476944";"40.43937734548181";"-3.662100501710677";"";"";"";"/contenido/entidadesYorganismos/AparcamientosResidentes"; 
13565;"Aparcamiento para residentes. Bruselas";"";"";"";"";"Plazas: 224 Abierto 24 horas  Titularidad: Ayuntamiento de Madrid";"0";"http://www.madrid.es/sites/v/index.jsp?vgnextchannel=bfa48ab43d6bb410VgnVCM100000171f5a0aRCRD&vgnextoid=47b015cbed51c010VgnVCM2000000c205a0aRCRD";"BRUSELAS";"AVENIDA";"V";"74";"";"";"";"";"MADRID";"MADRID";"28028";"GUINDALERA";"SALAMANCA";"443791";"4476734";"40.43935554500995";"-3.6627605793667137";"";"";"";"/contenido/entidadesYorganismos/AparcamientosResidentes"; 
81706;"Aparcamiento para residentes. Burgo de Osma";"";"";"";"";"Plazas: 160 Abierto 24 horas  Titularidad: Ayuntamiento de Madrid";"0";"http://www.madrid.es/sites/v/index.jsp?vgnextchannel=bfa48ab43d6bb410VgnVCM100000171f5a0aRCRD&vgnextoid=413dc2c6e051c010VgnVCM2000000c205a0aRCRD";"BURGO DE OSMA";"CALLE";"V";"4";"";"";"";"";"MADRID";"MADRID";"28033";"APOSTOL SANTIAGO";"HORTALEZA";"444006";"4480251";"40.469171734914404";"-3.661815011944474";"";"";"";"/contenido/entidadesYorganismos/AparcamientosResidentes"; 
183737;"Aparcamiento para residentes. Cabestreros";"";"";"";"";"Plazas: 360 Abierto 24 horas  Titularidad: Ayuntamiento de Madrid";"0";"http://www.madrid.es/sites/v/index.jsp?vgnextchannel=bfa48ab43d6bb410VgnVCM100000171f5a0aRCRD&vgnextoid=f106bdc85c01c010VgnVCM2000000c205a0aRCRD";"AMPARO";"CALLE";"V";"26";"";"";"";"";"MADRID";"MADRID";"28012";"EMBAJADORES";"CENTRO";"440428";"4473666";"40.40960189327877";"-3.7033886150712214";"";"";"";"/contenido/entidadesYorganismos/AparcamientosResidentes"; 
13566;"Aparcamiento para residentes. Calanda";"";"";"";"";"Plazas: 368 Abierto 24 horas  Titularidad: Ayuntamiento de Madrid";"0";"http://www.madrid.es/sites/v/index.jsp?vgnextchannel=bfa48ab43d6bb410VgnVCM100000171f5a0aRCRD&vgnextoid=157415cbed51c010VgnVCM2000000c205a0aRCRD";"CALANDA";"CALLE";"V";"30";"";"";"";"";"MADRID";"MADRID";"28043";"CANILLAS";"HORTALEZA";"445724";"4479492";"40.46244853281621";"-3.6414852788262566";"";"";"";"/contenido/entidadesYorganismos/AparcamientosResidentes"; 
13499;"Aparcamiento para residentes. Camarena";"";"";"";"";"Plazas: 192 Abierto 24 horas  Titularidad: Ayuntamiento de Madrid";"0";"http://www.madrid.es/sites/v/index.jsp?vgnextchannel=bfa48ab43d6bb410VgnVCM100000171f5a0aRCRD&vgnextoid=6b9415cbed51c010VgnVCM2000000c205a0aRCRD";"CAMARENA";"CALLE";"V";"10";"";"";"";"";"MADRID";"MADRID";"28047";"ALUCHE";"LATINA";"435898";"4472164";"40.395762528588946";"-3.756422538379352";"";"";"";"/contenido/entidadesYorganismos/AparcamientosResidentes"; 
13539;"Aparcamiento para residentes. Camino de los Vinateros I";"";"";"";"";"Plazas: 249 Abierto 24 horas  Titularidad: Ayuntamiento de Madrid";"0";"http://www.madrid.es/sites/v/index.jsp?vgnextchannel=bfa48ab43d6bb410VgnVCM100000171f5a0aRCRD&vgnextoid=b1c415cbed51c010VgnVCM2000000c205a0aRCRD";"CAMINO DE LOS VINATEROS";"CALLE";"V";"129";"";"";"";"";"MADRID";"MADRID";"28030";"VINATEROS";"MORATALAZ";"445599";"4473286";"40.4065332387703";"-3.642427258036616";"";"";"";"/contenido/entidadesYorganismos/AparcamientosResidentes"; 
13538;"Aparcamiento para residentes. Camino de los Vinateros II (El Torito)";"";"";"";"";"Plazas: 477 Abierto 24 horas  Titularidad: Ayuntamiento de Madrid";"0";"http://www.madrid.es/sites/v/index.jsp?vgnextchannel=bfa48ab43d6bb410VgnVCM100000171f5a0aRCRD&vgnextoid=08e415cbed51c010VgnVCM2000000c205a0aRCRD";"CAMINO DE LOS VINATEROS";"CALLE";"V";"118";"";"";"";"";"MADRID";"MADRID";"28030";"VINATEROS";"MORATALAZ";"445308";"4473346";"40.40705464955243";"-3.645861734428852";"";"";"";"/contenido/entidadesYorganismos/AparcamientosResidentes"; 
13632;"Aparcamiento para residentes. Camino Viejo de Leganés";"";"";"";"";"Plazas: 284 Abierto 24 horas  Titularidad: Ayuntamiento de Madrid";"0";"http://www.madrid.es/sites/v/index.jsp?vgnextchannel=bfa48ab43d6bb410VgnVCM100000171f5a0aRCRD&vgnextoid=5e0515cbed51c010VgnVCM2000000c205a0aRCRD";"CAMINO VIEJO DE LEGANES";"CALLE";"V";"179";"";"";"";"";"MADRID";"MADRID";"28025";"ABRANTES";"CARABANCHEL";"438014";"4470459";"40.380535147068926";"-3.7315364433760196";"";"";"";"/contenido/entidadesYorganismos/AparcamientosResidentes"; 
13518;"Aparcamiento para residentes. Campillo del Mundo Nuevo";"";"";"";"";"Plazas: 452 Abierto 24 horas  Titularidad: Ayuntamiento de Madrid";"0";"http://www.madrid.es/sites/v/index.jsp?vgnextchannel=bfa48ab43d6bb410VgnVCM100000171f5a0aRCRD&vgnextoid=a5047339ae51c010VgnVCM2000000c205a0aRCRD";"CAMPILLO DEL MUNDO NUEVO";"PLAZA";"V";"3";"";"";"";"";"MADRID";"MADRID";"28005";"EMBAJADORES";"CENTRO";"440036";"4473319";"40.40644768286364";"-3.707987344713689";"";"";"";"/contenido/entidadesYorganismos/AparcamientosResidentes"; 
81710;"Aparcamiento para residentes. Canal";"";"";"";"";"Plazas: 112 Abierto 24 horas  Titularidad: Ayuntamiento de Madrid  Teléfonos: 618 856 882                    604 288 125";"0";"http://www.madrid.es/sites/v/index.jsp?vgnextchannel=bfa48ab43d6bb410VgnVCM100000171f5a0aRCRD&vgnextoid=78dbc2c6e051c010VgnVCM2000000c205a0aRCRD";"CEA BERMUDEZ";"CALLE";"V";"1";"";"";"";"";"MADRID";"MADRID";"28003";"ARAPILES";"CHAMBERI";"440283";"4476887";"40.438607652682464";"-3.705412280852862";"";"";"";"/contenido/entidadesYorganismos/AparcamientosResidentes"; 
183580;"Aparcamiento para residentes. Cándido Mateos";"";"";"";"";"Plazas: 618 Abierto 24 horas  Titularidad: Ayuntamiento de Madrid";"0";"http://www.madrid.es/sites/v/index.jsp?vgnextchannel=bfa48ab43d6bb410VgnVCM100000171f5a0aRCRD&vgnextoid=b865bdc85c01c010VgnVCM2000000c205a0aRCRD";"VALLE DE MENA";"CALLE";"V";"0";"";"";"";"";"MADRID";"MADRID";"28035";"VALDEZARZA";"MONCLOA-ARAVACA";"439499";"4480401";"40.47020636480525";"-3.714991114871764";"";"";"";"/contenido/entidadesYorganismos/AparcamientosResidentes"; 
13624;"Aparcamiento para residentes. Cantabria";"";"";"";"";"Plazas: 211 Abierto 24 horas  Titularidad: Ayuntamiento de Madrid";"0";"http://www.madrid.es/sites/v/index.jsp?vgnextchannel=bfa48ab43d6bb410VgnVCM100000171f5a0aRCRD&vgnextoid=9dd015cbed51c010VgnVCM2000000c205a0aRCRD";"BERGANTIN";"CALLE";"V";"24";"";"";"";"";"MADRID";"MADRID";"28042";"ALAMEDA DE OSUNA";"BARAJAS";"450628";"4479129";"40.459484932285804";"-3.5836170692241147";"";"";"";"/contenido/entidadesYorganismos/AparcamientosResidentes"; 
13533;"Aparcamiento para residentes. Cañada";"";"";"";"";"Plazas: 288 Abierto 24 horas  Titularidad: Ayuntamiento de Madrid";"0";"http://www.madrid.es/sites/v/index.jsp?vgnextchannel=bfa48ab43d6bb410VgnVCM100000171f5a0aRCRD&vgnextoid=a43515cbed51c010VgnVCM2000000c205a0aRCRD";"CA&amp;Ntilde;ADA";"CALLE";"V";"2";"";"";"";"";"MADRID";"MADRID";"28030";"VINATEROS";"MORATALAZ";"445446";"4472982";"40.40378459227237";"-3.644204187484202";"";"";"";"/contenido/entidadesYorganismos/AparcamientosResidentes"; 
81733;"Aparcamiento para residentes. Castelló";"";"";"";"";"Plazas: 303 Abierto 24 horas  Titularidad: Ayuntamiento de Madrid";"0";"http://www.madrid.es/sites/v/index.jsp?vgnextchannel=bfa48ab43d6bb410VgnVCM100000171f5a0aRCRD&vgnextoid=cefbc2c6e051c010VgnVCM2000000c205a0aRCRD";"DIEGO DE LEON";"CALLE";"V";"42";"";"";"";"";"MADRID";"MADRID";"28006";"CASTELLANA";"SALAMANCA";"442414";"4476430";"40.434641357687326";"-3.6802461580883605";"";"";"";"/contenido/entidadesYorganismos/AparcamientosResidentes"; 
13567;"Aparcamiento para residentes. Castrillo de Aza";"";"";"";"";"Plazas: 297 Abierto 24 horas  Titularidad: Ayuntamiento de Madrid";"0";"http://www.madrid.es/sites/v/index.jsp?vgnextchannel=bfa48ab43d6bb410VgnVCM100000171f5a0aRCRD&vgnextoid=fa5515cbed51c010VgnVCM2000000c205a0aRCRD";"SANTA EUGENIA";"AVENIDA";"V";"1";"";"";"";"";"MADRID";"MADRID";"28031";"SANTA EUGENIA";"VILLA DE VALLECAS";"448453";"4471016";"40.38626552987357";"-3.6086097642961814";"";"";"";"/contenido/entidadesYorganismos/AparcamientosResidentes"; 
13636;"Aparcamiento para residentes. Chamberí";"";"";"";"";"Plazas: 690 Abierto 24 horas  Titularidad: Ayuntamiento de Madrid";"0";"http://www.madrid.es/sites/v/index.jsp?vgnextchannel=bfa48ab43d6bb410VgnVCM100000171f5a0aRCRD&vgnextoid=fb247339ae51c010VgnVCM2000000c205a0aRCRD";"SANTA ENGRACIA";"CALLE";"V";"40";"";"";"";"";"MADRID";"MADRID";"28010";"ALMAGRO";"CHAMBERI";"440934";"4476252";"40.43293386561711";"-3.697677837203558";"";"";"";"/contenido/entidadesYorganismos/AparcamientosResidentes"; 
81734;"Aparcamiento para residentes. Chaparral";"";"";"";"";"Plazas: 226 Abierto 24 horas  Titularidad: Ayuntamiento de Madrid";"0";"http://www.madrid.es/sites/v/index.jsp?vgnextchannel=bfa48ab43d6bb410VgnVCM100000171f5a0aRCRD&vgnextoid=152cc2c6e051c010VgnVCM2000000c205a0aRCRD";"CHAPARRAL";"CALLE";"V";"40";"";"";"";"";"MADRID";"MADRID";"28033";"PINAR DEL REY";"HORTALEZA";"446495";"4480404";"40.47071441606703";"-3.6324688931507403";"";"";"";"/contenido/entidadesYorganismos/AparcamientosResidentes"; 
13568;"Aparcamiento para residentes. Cidamón";"";"";"";"";"Plazas: 343 Abierto 24 horas  Titularidad: Ayuntamiento de Madrid";"0";"http://www.madrid.es/sites/v/index.jsp?vgnextchannel=bfa48ab43d6bb410VgnVCM100000171f5a0aRCRD&vgnextoid=418515cbed51c010VgnVCM2000000c205a0aRCRD";"NALDA";"PLAZA";"V";"1";"";"";"";"";"MADRID";"MADRID";"28043";"SAN JUAN BAUTISTA";"CIUDAD LINEAL";"444491";"4478134";"40.45013336925363";"-3.6559086956228524";"";"";"";"/contenido/entidadesYorganismos/AparcamientosResidentes"; 
13503;"Aparcamiento para residentes. Clara del Rey";"";"";"";"";"Plazas: 179 Abierto 24 horas  Titularidad: Ayuntamiento de Madrid";"0";"http://www.madrid.es/sites/v/index.jsp?vgnextchannel=bfa48ab43d6bb410VgnVCM100000171f5a0aRCRD&vgnextoid=97a515cbed51c010VgnVCM2000000c205a0aRCRD";"CLARA DEL REY";"CALLE";"V";"49";"";"";"";"";"MADRID";"MADRID";"28002";"PROSPERIDAD";"CHAMARTIN";"443397";"4477474";"40.444113845496815";"-3.668750355615286";"";"";"";"/contenido/entidadesYorganismos/AparcamientosResidentes"; 
24099;"Aparcamiento para residentes. Codorniz";"";"";"";"";"Plazas: 705 Abierto 24 horas  Titularidad: Ayuntamiento de Madrid";"0";"http://www.madrid.es/sites/v/index.jsp?vgnextchannel=bfa48ab43d6bb410VgnVCM100000171f5a0aRCRD&vgnextoid=10606545f951c010VgnVCM2000000c205a0aRCRD";"CODORNIZ";"CALLE";"";"";"";"";"";"";"MADRID";"MADRID";"28047";"VISTA ALEGRE";"DISTRITO";"436412";"4470537";"40.381116884137015";"-3.7504154605075706";"";"";"";"/contenido/entidadesYorganismos/AparcamientosResidentes"; 
13569;"Aparcamiento para residentes. Comandante Benítez";"";"";"";"";"Plazas: 166 Abierto 24 horas  Titularidad: Ayuntamiento de Madrid";"0";"http://www.madrid.es/sites/v/index.jsp?vgnextchannel=bfa48ab43d6bb410VgnVCM100000171f5a0aRCRD&vgnextoid=edc515cbed51c010VgnVCM2000000c205a0aRCRD";"COMANDANTE BENITEZ";"CALLE";"V";"16";"";"";"";"";"MADRID";"MADRID";"28045";"CHOPERA";"ARGANZUELA";"440843";"4472311";"40.39742495168458";"-3.698383469338622";"";"";"";"/contenido/entidadesYorganismos/AparcamientosResidentes"; 
13571;"Aparcamiento para residentes. Condado de Treviño";"";"";"";"";"Plazas: 195 Abierto 24 horas  Titularidad: Ayuntamiento de Madrid";"0";"http://www.madrid.es/sites/v/index.jsp?vgnextchannel=bfa48ab43d6bb410VgnVCM100000171f5a0aRCRD&vgnextoid=34f515cbed51c010VgnVCM2000000c205a0aRCRD";"CONDADO DE TREVI&amp;Ntilde;O";"CALLE";"V";"25";"";"";"";"";"MADRID";"MADRID";"28033";"COSTILLARES";"CIUDAD LINEAL";"443287";"4481468";"40.480086139201404";"-3.67040497840857";"";"";"";"/contenido/entidadesYorganismos/AparcamientosResidentes"; 
24101;"Aparcamiento para residentes. Conde de Casal / Mediterraneo";"";"";"";"";"Plazas: 1650 Abierto 24 horas  Titularidad: Ayuntamiento de Madrid";"0";"http://www.madrid.es/sites/v/index.jsp?vgnextchannel=bfa48ab43d6bb410VgnVCM100000171f5a0aRCRD&vgnextoid=549e6545f951c010VgnVCM2000000c205a0aRCRD";"CONDE DE CASAL";"PLAZA";"V";"";"";"";"";"";"MADRID";"MADRID";"28007";"NIÑO JESUS";"RETIRO";"443174";"4473363";"40.40706458224573";"-3.671011625643675";"";"";"";"/contenido/entidadesYorganismos/AparcamientosResidentes"; 
13504;"Aparcamiento para residentes. Corazón de María I";"";"";"";"";"Plazas: 166 Abierto 24 horas  Titularidad: Ayuntamiento de Madrid";"0";"http://www.madrid.es/sites/v/index.jsp?vgnextchannel=bfa48ab43d6bb410VgnVCM100000171f5a0aRCRD&vgnextoid=8a1615cbed51c010VgnVCM2000000c205a0aRCRD";"CORAZON DE MARIA";"CALLE";"NUM";"";"";"";"";"";"MADRID";"MADRID";"28002";"PROSPERIDAD";"DISTRITO";"443209";"4477055";"40.44032637305066";"-3.6709413376148086";"";"";"";"/contenido/entidadesYorganismos/AparcamientosResidentes"; 
24103;"Aparcamiento para residentes. Corazón de María II";"";"";"";"";"Plazas: 750 para residentes  Informacion sobre accesibilidad:  No tiene escalera adaptada No tiene ascensor de salida a calle 2 aseos accesibles (1&amp;ordf; planta)  Plazas para minusválidos residentes: 6    Abierto 24 horas   Titularidad: Ayuntamiento de Madrid";"0";"http://www.madrid.es/sites/v/index.jsp?vgnextchannel=bfa48ab43d6bb410VgnVCM100000171f5a0aRCRD&vgnextoid=b74e6545f951c010VgnVCM2000000c205a0aRCRD";"CORAZON DE MARIA";"CALLE";"V";"46";"";"";"";"";"MADRID";"MADRID";"28002";"PROSPERIDAD";"CHAMARTIN";"443445";"4477300";"40.444421820483264";"-3.666902094780133";"915 563 165 / 915 195 280";"";"aparcamientocorazondemaria@grupocogesa.es";"/contenido/entidadesYorganismos/AparcamientosResidentes"; 
13500;"Aparcamiento para residentes. Cuevas de Almanzora";"";"";"";"";"Plazas: 203 Abierto 24 horas  Titularidad: Ayuntamiento de Madrid";"0";"http://www.madrid.es/sites/v/index.jsp?vgnextchannel=bfa48ab43d6bb410VgnVCM100000171f5a0aRCRD&vgnextoid=276615cbed51c010VgnVCM2000000c205a0aRCRD";"MOJACAR";"CALLE";"V";"2";"";"";"";"";"MADRID";"MADRID";"28033";"APOSTOL SANTIAGO";"HORTALEZA";"444326";"4481385";"40.47940888739177";"-3.658140197005035";"";"";"";"/contenido/entidadesYorganismos/AparcamientosResidentes"; 
81737;"Aparcamiento para residentes. Cumare";"";"";"";"";"Plazas: 156 Abierto 24 horas  Titularidad: Ayuntamiento de Madrid";"0";"http://www.madrid.es/sites/v/index.jsp?vgnextchannel=bfa48ab43d6bb410VgnVCM100000171f5a0aRCRD&vgnextoid=975dc2c6e051c010VgnVCM2000000c205a0aRCRD";"NEVADO DEL RUIZ";"CALLE";"V";"2";"";"";"";"";"MADRID";"MADRID";"28033";"PINAR DEL REY";"HORTALEZA";"446252";"4480304";"40.469797844264434";"-3.6353267838656484";"";"";"";"/contenido/entidadesYorganismos/AparcamientosResidentes"; 
13535;"Aparcamiento para residentes. Darwin";"";"";"";"";"";"0";"http://www.madrid.es/sites/v/index.jsp?vgnextchannel=bfa48ab43d6bb410VgnVCM100000171f5a0aRCRD&vgnextoid=dca27339ae51c010VgnVCM2000000c205a0aRCRD";"MORATALAZ";"AVENIDA";"V";"172";"";"";"";"";"MADRID";"MADRID";"28030";"VINATEROS";"MORATALAZ";"445440";"4473485";"40.40831552325078";"-3.6443181005580043";"S/T";"";"";"/contenido/entidadesYorganismos/AparcamientosResidentes"; 
183760;"Aparcamiento para residentes. Doce de Octubre";"";"";"";"";"Plazas: 694 Abierto 24 horas  Titularidad: Ayuntamiento de Madrid";"1";"http://www.madrid.es/sites/v/index.jsp?vgnextchannel=bfa48ab43d6bb410VgnVCM100000171f5a0aRCRD&vgnextoid=4826bdc85c01c010VgnVCM2000000c205a0aRCRD";"NARVAEZ";"CALLE";"V";"57";"";"";"";"";"MADRID";"MADRID";"28009";"IBIZA";"RETIRO";"442751";"4474543";"40.41766561139149";"-3.67610289078337";"S/T";"";"";"/contenido/entidadesYorganismos/AparcamientosResidentes"; 
13630;"Aparcamiento para residentes. Doctor Cirajas";"";"";"";"";"Plazas: 324  Abierto 24 horas  Titularidad: Ayuntamiento de Madrid";"0";"http://www.madrid.es/sites/v/index.jsp?vgnextchannel=bfa48ab43d6bb410VgnVCM100000171f5a0aRCRD&vgnextoid=7d8615cbed51c010VgnVCM2000000c205a0aRCRD";"DOCTOR CIRAJAS";"CALLE";"V";"3";"";"";"";"";"MADRID";"MADRID";"28017";"PUEBLO NUEVO";"CIUDAD LINEAL";"446044";"4476500";"40.435515856536526";"-3.6374563613179753";"S/T";"";"";"/contenido/entidadesYorganismos/AparcamientosResidentes"; 
13551;"Aparcamiento para residentes. Doctor Laguna";"";"";"";"";"Plazas: 537 Abierto 24 horas  Titularidad: Ayuntamiento de Madrid";"0";"http://www.madrid.es/sites/v/index.jsp?vgnextchannel=bfa48ab43d6bb410VgnVCM100000171f5a0aRCRD&vgnextoid=b7f57339ae51c010VgnVCM2000000c205a0aRCRD";"DOCTOR LAGUNA";"PLAZA";"V";"12";"";"";"";"";"MADRID";"MADRID";"28009";"NIÑO JESUS";"RETIRO";"442970";"4474230";"40.41486100757735";"-3.673493543766057";"T/D";"";"";"/contenido/entidadesYorganismos/AparcamientosResidentes"; 
39871;"Aparcamiento para residentes. Doménico Scarlatti";"";"";"";"";"Plazas: 484  Abierto 24 horas  Titularidad: Ayuntamiento de Madrid";"0";"http://www.madrid.es/sites/v/index.jsp?vgnextchannel=bfa48ab43d6bb410VgnVCM100000171f5a0aRCRD&vgnextoid=81e9946be351c010VgnVCM2000000c205a0aRCRD";"DOMENICO SCARLATTI";"CALLE";"V";"1";"";"";"";"";"MADRID";"MADRID";"28003";"VALLEHERMOSO";"CHAMBERI";"439444";"4477254";"40.441852955825894";"-3.7153391363661976";"S/T";"";"";"/contenido/entidadesYorganismos/AparcamientosResidentes"; 
7410134;"Aparcamiento para residentes. El Greco";"";"";"";"";"Plazas: 225 Abierto 24 horas  Titularidad: Ayuntamiento de Madrid";"0";"http://www.madrid.es/sites/v/index.jsp?vgnextchannel=bfa48ab43d6bb410VgnVCM100000171f5a0aRCRD&vgnextoid=c0869f29bb305410VgnVCM1000000b205a0aRCRD";"El Greco";"CALLE";"V";"29";"";"";"";"";"MADRID";"MADRID";"";"";"LATINA";"439444";"4477254";"";"";"S/T";"";"";"/contenido/entidadesYorganismos/AparcamientosResidentes"; 
4831001;"Aparcamiento para residentes. Elvira";"";"";"";"";"Plazas: 194 Abierto 24 horas  Titularidad: Ayuntamiento de Madrid  Gestión: Empresa Municipal de Transportes (EMT) (más información)";"0";"http://www.madrid.es/sites/v/index.jsp?vgnextchannel=bfa48ab43d6bb410VgnVCM100000171f5a0aRCRD&vgnextoid=ca1cec05bd2a8110VgnVCM2000000c205a0aRCRD";"VICALVARO";"CALLE";"V";"13";"";"";"";"";"MADRID";"MADRID";"28028";"FUENTE DEL BERRO";"SALAMANCA";"443643";"4474900";"40.4209426634437";"-3.6656210687113555";"";"";"";"/contenido/entidadesYorganismos/AparcamientosResidentes"; 
24106;"Aparcamiento para residentes. Emigrantes";"";"";"";"";"Plazas: 281  Abierto 24 horas  Titularidad: Ayuntamiento de Madrid";"0";"http://www.madrid.es/sites/v/index.jsp?vgnextchannel=bfa48ab43d6bb410VgnVCM100000171f5a0aRCRD&vgnextoid=bca06545f951c010VgnVCM2000000c205a0aRCRD";"MINAYA";"CALLE";"V";"1";"";"";"";"";"MADRID";"MADRID";"28043";"CANILLAS";"HORTALEZA";"446179";"4480058";"40.46757701332538";"-3.63616695396661";"";"";"";"/contenido/entidadesYorganismos/AparcamientosResidentes"; 
13524;"Aparcamiento para residentes. Encomienda de Palacios";"";"";"";"";"Plazas: 320  Abierto 24 horas  Titularidad: Ayuntamiento de Madrid";"0";"http://www.madrid.es/sites/v/index.jsp?vgnextchannel=bfa48ab43d6bb410VgnVCM100000171f5a0aRCRD&vgnextoid=1ad615cbed51c010VgnVCM2000000c205a0aRCRD";"ENCOMIENDA DE PALACIOS";"CALLE";"V";"178";"";"";"";"";"MADRID";"MADRID";"28030";"FONTARRON";"MORATALAZ";"445530";"4472440";"40.39890743776529";"-3.6431678525654076";"";"";"";"/contenido/entidadesYorganismos/AparcamientosResidentes"; 
13550;"Aparcamiento para residentes. Esfinge";"";"";"";"";"Plazas: 777  Abierto 24 horas  Titularidad: Ayuntamiento de Madrid";"0";"http://www.madrid.es/sites/v/index.jsp?vgnextchannel=bfa48ab43d6bb410VgnVCM100000171f5a0aRCRD&vgnextoid=600715cbed51c010VgnVCM2000000c205a0aRCRD";"NECTAR";"CALLE";"V";"36";"";"";"";"";"MADRID";"MADRID";"28022";"CANILLEJAS";"SAN BLAS-CANILLEJAS";"448373";"4477360";"40.4434114032433";"-3.6100682055704136";"S/T";"";"";"/contenido/entidadesYorganismos/AparcamientosResidentes"; 
170634;"Aparcamiento para residentes. Espalter";"";"";"";"";"Plazas: 480  Abierto 24 horas  Titularidad: Ayuntamiento de Madrid";"0";"http://www.madrid.es/sites/v/index.jsp?vgnextchannel=bfa48ab43d6bb410VgnVCM100000171f5a0aRCRD&vgnextoid=4fc4ff632081c010VgnVCM1000000b205a0aRCRD";"ESPALTER";"CALLE";"V";"7";"";"";"";"";"MADRID";"MADRID";"28014";"LOS JERONIMOS";"RETIRO";"441521";"4474022";"40.412886496253456";"-3.690552192538091";"S/T";"";"";"/contenido/entidadesYorganismos/AparcamientosResidentes"; 
13558;"Aparcamiento para residentes. Esperanza";"";"";"";"";"Plazas: 986 Abierto 24 horas  Titularidad: Ayuntamiento de Madrid";"0";"http://www.madrid.es/sites/v/index.jsp?vgnextchannel=bfa48ab43d6bb410VgnVCM100000171f5a0aRCRD&vgnextoid=23d27339ae51c010VgnVCM2000000c205a0aRCRD";"GARGANTILLA";"CALLE";"V";"2";"";"";"";"";"MADRID";"MADRID";"28005";"ACACIAS";"ARGANZUELA";"440267";"4472279";"40.39897721292611";"-3.7038845466886112";"S/T";"";"";"/contenido/entidadesYorganismos/AparcamientosResidentes"; 
81743;"Aparcamiento para residentes. Espinillo";"";"";"";"";"Plazas: 155 Abierto 24 horas  Titularidad: Ayuntamiento de Madrid";"0";"http://www.madrid.es/sites/v/index.jsp?vgnextchannel=bfa48ab43d6bb410VgnVCM100000171f5a0aRCRD&vgnextoid=6b4cc2c6e051c010VgnVCM2000000c205a0aRCRD";"CIUDADANIA";"CALLE";"V";"10";"";"";"";"";"MADRID";"MADRID";"28041";"LOS ROSALES";"VILLAVERDE";"441379";"4467749";"40.356365890681325";"-3.6916474771097763";"";"";"";"/contenido/entidadesYorganismos/AparcamientosResidentes"; 
24108;"Aparcamiento para residentes. Esteban Villegas";"";"";"";"";"Plazas: 858 Abierto 24 horas  Titularidad: Ayuntamiento de Madrid";"0";"http://www.madrid.es/sites/v/index.jsp?vgnextchannel=bfa48ab43d6bb410VgnVCM100000171f5a0aRCRD&vgnextoid=e8b16545f951c010VgnVCM2000000c205a0aRCRD";"POETA ESTEBAN DE VILLEGAS";"CALLE";"V";"4";"";"";"";"";"MADRID";"MADRID";"28014";"LOS JERONIMOS";"RETIRO";"442149";"4473558";"40.40875051210095";"-3.683108580090566";"";"";"";"/contenido/entidadesYorganismos/AparcamientosResidentes"; 
13572;"Aparcamiento para residentes. Estrella Polar";"";"";"";"";"Plazas: 401 Abierto 24 horas  Titularidad: Ayuntamiento de Madrid";"0";"http://www.madrid.es/sites/v/index.jsp?vgnextchannel=bfa48ab43d6bb410VgnVCM100000171f5a0aRCRD&vgnextoid=b62715cbed51c010VgnVCM2000000c205a0aRCRD";"ESTRELLA POLAR";"CALLE";"V";"6-B";"";"";"";"";"MADRID";"MADRID";"28007";"ESTRELLA";"RETIRO";"443514";"4473741";"40.41049299906421";"-3.6670384786113055";"";"";"";"/contenido/entidadesYorganismos/AparcamientosResidentes"; 
24111;"Aparcamiento para residentes. Eugenia de Montijo";"";"";"";"";"Plazas: 387 Abierto 24 horas  Titularidad: Ayuntamiento de Madrid";"0";"http://www.madrid.es/sites/v/index.jsp?vgnextchannel=bfa48ab43d6bb410VgnVCM100000171f5a0aRCRD&vgnextoid=db226545f951c010VgnVCM2000000c205a0aRCRD";"EUGENIA DE MONTIJO";"CALLE";"V";"20";"";"";"";"";"MADRID";"MADRID";"28025";"VISTA ALEGRE";"CARABANCHEL";"437160";"4470670";"40.38237185259869";"-3.741617241001304";"";"";"";"/contenido/entidadesYorganismos/AparcamientosResidentes"; 
13573;"Aparcamiento para residentes. Ferrol";"";"";"";"";"Plazas: 350 Abierto 24 horas  Titularidad: Ayuntamiento de Madrid";"0";"http://www.madrid.es/sites/v/index.jsp?vgnextchannel=bfa48ab43d6bb410VgnVCM100000171f5a0aRCRD&vgnextoid=e30115cbed51c010VgnVCM2000000c205a0aRCRD";"EL FERROL";"AVENIDA";"V";"28";"";"";"";"";"MADRID";"MADRID";"28029";"EL PILAR";"FUENCARRAL-EL PARDO";"440224";"4480919";"40.47492529017092";"-3.706488256379613";"";"";"";"/contenido/entidadesYorganismos/AparcamientosResidentes"; 
13498;"Aparcamiento para residentes. Finisterre";"";"";"";"";"Plazas: 305 Abierto 24 horas  Titularidad: Ayuntamiento de Madrid";"0";"http://www.madrid.es/sites/v/index.jsp?vgnextchannel=bfa48ab43d6bb410VgnVCM100000171f5a0aRCRD&vgnextoid=0d4715cbed51c010VgnVCM2000000c205a0aRCRD";"FINISTERRE";"CALLE";"V";"23";"";"";"";"";"MADRID";"MADRID";"28029";"LA PAZ";"FUENCARRAL-EL PARDO";"440551";"4481355";"40.47887645814122";"-3.7026717892482286";"";"";"";"/contenido/entidadesYorganismos/AparcamientosResidentes"; 
81745;"Aparcamiento para residentes. Fonsagrada";"";"";"";"";"Plazas: 253 Abierto 24 horas  Titularidad: Ayuntamiento de Madrid";"0";"http://www.madrid.es/sites/v/index.jsp?vgnextchannel=bfa48ab43d6bb410VgnVCM100000171f5a0aRCRD&vgnextoid=ed7dc2c6e051c010VgnVCM2000000c205a0aRCRD";"ARTEIJO";"PLAZA";"V";"10-B";"";"";"";"";"MADRID";"MADRID";"28029";"EL PILAR";"FUENCARRAL-EL PARDO";"440181";"4481217";"40.47760668331372";"-3.7070236600943316";"";"";"";"/contenido/entidadesYorganismos/AparcamientosResidentes"; 
4831271;"Aparcamiento para residentes. Francisco Altimiras";"";"";"";"";"Plazas: 63 Abierto 24 horas  Titularidad: Ayuntamiento de Madrid  Gestión: Empresa Municipal de Transportes (EMT) (más información)";"0";"http://www.madrid.es/sites/v/index.jsp?vgnextchannel=bfa48ab43d6bb410VgnVCM100000171f5a0aRCRD&vgnextoid=c0055b87103a8110VgnVCM2000000c205a0aRCRD";"FRANCISCO ALTIMIRAS";"CALLE";"V";"2";"";"";"";"SEMIESQUINA CON LA AV. DE LOS TOREROS";"MADRID";"MADRID";"28028";"GUINDALERA";"SALAMANCA";"443816";"4476359";"40.43409783062514";"-3.6637111034337244";"";"";"";"/contenido/entidadesYorganismos/AparcamientosResidentes"; 
13635;"Aparcamiento para residentes. Francisco Rioja";"";"";"";"";"Plazas: 392 Abierto 24 horas  Titularidad: Ayuntamiento de Madrid";"1";"http://www.madrid.es/sites/v/index.jsp?vgnextchannel=bfa48ab43d6bb410VgnVCM100000171f5a0aRCRD&vgnextoid=537715cbed51c010VgnVCM2000000c205a0aRCRD";"LUIS RUIZ";"CALLE";"V";"29";"";"";"";"";"MADRID";"MADRID";"28017";"PUEBLO NUEVO";"CIUDAD LINEAL";"445982";"4475973";"40.430764308966516";"-3.6381424369676703";"";"";"";"/contenido/entidadesYorganismos/AparcamientosResidentes"; 
13634;"Aparcamiento para residentes. Francos Rodríguez";"";"";"";"";"Plazas: 294 Abierto 24 horas  Titularidad: Ayuntamiento de Madrid";"1";"http://www.madrid.es/sites/v/index.jsp?vgnextchannel=bfa48ab43d6bb410VgnVCM100000171f5a0aRCRD&vgnextoid=a99715cbed51c010VgnVCM2000000c205a0aRCRD";"NUMANCIA";"CALLE";"V";"61";"";"";"";"";"MADRID";"MADRID";"28039";"BELLAS VISTAS";"TETUAN";"439894";"4478902";"40.45673152306274";"-3.7101896436542843";"";"";"";"/contenido/entidadesYorganismos/AparcamientosResidentes"; 
24119;"Aparcamiento para residentes. Galileo";"";"";"";"";"Plazas: 527 Abierto 24 horas  Titularidad: Ayuntamiento de Madrid";"0";"http://www.madrid.es/sites/v/index.jsp?vgnextchannel=bfa48ab43d6bb410VgnVCM100000171f5a0aRCRD&vgnextoid=03d06545f951c010VgnVCM2000000c205a0aRCRD";"BLASCO DE GARAY";"CALLE";"V";"38";"";"";"";"";"MADRID";"MADRID";"28015";"ARAPILES";"CHAMBERI";"439761";"4476285";"40.43314686152789";"-3.7115094961765007";"";"";"";"/contenido/entidadesYorganismos/AparcamientosResidentes"; 
13525;"Aparcamiento para residentes. García Escámez";"";"";"";"";"Plazas: 260 Abierto 24 horas  Titularidad: Ayuntamiento de Madrid";"0";"http://www.madrid.es/sites/v/index.jsp?vgnextchannel=bfa48ab43d6bb410VgnVCM100000171f5a0aRCRD&vgnextoid=46e715cbed51c010VgnVCM2000000c205a0aRCRD";"ANSELMO LORENZO";"CALLE";"V";"13";"";"";"";"";"MADRID";"MADRID";"28044";"LAS AGUILAS";"LATINA";"434687";"4470445";"40.38204129625019";"-3.7694486642074865";"";"";"";"/contenido/entidadesYorganismos/AparcamientosResidentes"; 
13534;"Aparcamiento para residentes. García Tapia";"";"";"";"";"Plazas: 252 Abierto 24 horas  Titularidad: Ayuntamiento de Madrid";"0";"http://www.madrid.es/sites/v/index.jsp?vgnextchannel=bfa48ab43d6bb410VgnVCM100000171f5a0aRCRD&vgnextoid=663215cbed51c010VgnVCM2000000c205a0aRCRD";"DOCTOR GARCIA TAPIA";"AVENIDA";"V";"51";"";"";"";"";"MADRID";"MADRID";"28030";"MARROQUINA";"MORATALAZ";"445286";"4473883";"40.411890813674326";"-3.6461672639418037";"";"";"";"/contenido/entidadesYorganismos/AparcamientosResidentes"; 
13527;"Aparcamiento para residentes. Garrovillas";"";"";"";"";"Plazas: 324 Abierto 24 horas  Titularidad: Ayuntamiento de Madrid";"0";"http://www.madrid.es/sites/v/index.jsp?vgnextchannel=bfa48ab43d6bb410VgnVCM100000171f5a0aRCRD&vgnextoid=ffb715cbed51c010VgnVCM2000000c205a0aRCRD";"GARROVILLAS";"CALLE";"V";"11";"";"";"";"";"MADRID";"MADRID";"28044";"LAS AGUILAS";"LATINA";"434025";"4470458";"40.380219332370885";"-3.778525698149745";"";"";"";"/contenido/entidadesYorganismos/AparcamientosResidentes"; 
81746;"Aparcamiento para residentes. General Gallegos";"";"";"";"";"Plazas: 101 Abierto 24 horas  Titularidad: Ayuntamiento de Madrid";"0";"http://www.madrid.es/sites/v/index.jsp?vgnextchannel=bfa48ab43d6bb410VgnVCM100000171f5a0aRCRD&vgnextoid=34adc2c6e051c010VgnVCM2000000c205a0aRCRD";"PADRE DAMIAN";"CALLE";"V";"39";"";"";"";"";"MADRID";"MADRID";"28036";"NUEVA ESPAÑA";"CHAMARTIN";"441939";"4479399";"40.4612407669708";"-3.6855271656753406";"";"";"";"/contenido/entidadesYorganismos/AparcamientosResidentes"; 
24120;"Aparcamiento para residentes. General Lacy";"";"";"";"";"Plazas: 663 Abierto 24 horas   Titularidad: Ayuntamiento de madrid";"0";"http://www.madrid.es/sites/v/index.jsp?vgnextchannel=bfa48ab43d6bb410VgnVCM100000171f5a0aRCRD&vgnextoid=59f06545f951c010VgnVCM2000000c205a0aRCRD";"GENERAL LACY";"CALLE";"V";"11";"";"";"";"ENTRE C/ ÁNCORA Y C/ MÉNDEZ ÁLVARO";"MADRID";"MADRID";"28045";"PALOS DE MOGUER";"ARGANZUELA";"441511";"4472934";"40.40308453317466";"-3.690569861061406";"";"";"";"/contenido/entidadesYorganismos/AparcamientosResidentes"; 
13520;"Aparcamiento para residentes. Gerardo Cordón";"";"";"";"";"Plazas: 200 Abierto 24 horas  Titularidad: Ayuntamiento de Madrid";"0";"http://www.madrid.es/sites/v/index.jsp?vgnextchannel=bfa48ab43d6bb410VgnVCM100000171f5a0aRCRD&vgnextoid=ac087339ae51c010VgnVCM2000000c205a0aRCRD";"GERARDO CORDON";"CALLE";"V";"63";"";"";"";"";"MADRID";"MADRID";"28017";"VENTAS";"CIUDAD LINEAL";"444721";"4475602";"40.427339125243876";"-3.652975774084388";"";"";"";"/contenido/entidadesYorganismos/AparcamientosResidentes"; 
13574;"Aparcamiento para residentes. Germán Pérez Carrasco";"";"";"";"";"Plazas: 321 Abierto 24 horas  Titularidad: Ayuntamiento de Madrid";"0";"http://www.madrid.es/sites/v/index.jsp?vgnextchannel=bfa48ab43d6bb410VgnVCM100000171f5a0aRCRD&vgnextoid=f2387339ae51c010VgnVCM2000000c205a0aRCRD";"VIRGEN DEL SAGRARIO";"CALLE";"V";"6";"";"";"";"ESQUINA C/ GERMÁN PÉREZ CARRASCO";"MADRID";"MADRID";"28027";"QUINTANA";"CIUDAD LINEAL";"445193";"4476339";"40.434009722018914";"-3.647475422428178";"";"";"";"/contenido/entidadesYorganismos/AparcamientosResidentes"; 
13615;"Aparcamiento para residentes. Gómez Ulla";"";"";"";"";"Plazas: 191 Abierto 24 horas  Titularidad: Ayuntamiento de Madrid";"0";"http://www.madrid.es/sites/v/index.jsp?vgnextchannel=bfa48ab43d6bb410VgnVCM100000171f5a0aRCRD&vgnextoid=c3b615cbed51c010VgnVCM2000000c205a0aRCRD";"DOCTOR GOMEZ ULLA";"CALLE";"V";"11";"";"";"";"LATERAL PARQUE EVA DUARTE DE PERÓN";"MADRID";"MADRID";"28028";"GUINDALERA";"SALAMANCA";"443461";"4475927";"40.43018204828575";"-3.667857812017234";"";"";"";"/contenido/entidadesYorganismos/AparcamientosResidentes"; 
13522;"Aparcamiento para residentes. Goya I";"";"";"";"";"Plazas: 668 Abierto 24 horas  Titularidad: Ayuntamiento de Madrid";"0";"http://www.madrid.es/sites/v/index.jsp?vgnextchannel=bfa48ab43d6bb410VgnVCM100000171f5a0aRCRD&vgnextoid=49587339ae51c010VgnVCM2000000c205a0aRCRD";"GOYA";"CALLE";"NUM";"100";"";"";"";"";"MADRID";"MADRID";"28009";"GOYA";"DISTRITO";"443350";"4475276";"40.42430993482302";"-3.6691082296156163";"";"";"";"/contenido/entidadesYorganismos/AparcamientosResidentes"; 
24121;"Aparcamiento para residentes. Guadalete";"";"";"";"";"Plazas: 290 Abierto 24 horas  Titularidad: Ayuntamiento de Madrid";"0";"http://www.madrid.es/sites/v/index.jsp?vgnextchannel=bfa48ab43d6bb410VgnVCM100000171f5a0aRCRD&vgnextoid=af116545f951c010VgnVCM2000000c205a0aRCRD";"GUADALETE";"CALLE";"NUM";"132";"";"";"";"POSTERIOR";"MADRID";"MADRID";"28019";"COMILLAS";"DISTRITO";"439403";"4471394";"40.38906044446887";"-3.715263318539688";"";"";"";"/contenido/entidadesYorganismos/AparcamientosResidentes"; 
5421792;"Aparcamiento para residentes. Ilíada";"";"";"";"";"Plazas : 333 Abierto 24 Horas  Titularidad: Ayuntamiento de Madrid";"0";"http://www.madrid.es/sites/v/index.jsp?vgnextchannel=bfa48ab43d6bb410VgnVCM100000171f5a0aRCRD&vgnextoid=a89fa6b5ebbd3210VgnVCM1000000b205a0aRCRD";"LA ILIADA";"CALLE";"V";"25";"";"";"";"";"MADRID";"MADRID";"28022";"CANILLEJAS";"SAN BLAS-CANILLEJAS";"448463";"4476499";"40.43566058828252";"-3.608937018595295";"";"";"";"/contenido/entidadesYorganismos/AparcamientosResidentes"; 
13627;"Aparcamiento para residentes. Illescas";"";"";"";"";"Plazas: 261 Abierto 24 horas   Titularidad: Ayuntamiento de Madrid";"0";"http://www.madrid.es/sites/v/index.jsp?vgnextchannel=bfa48ab43d6bb410VgnVCM100000171f5a0aRCRD&vgnextoid=9f787339ae51c010VgnVCM2000000c205a0aRCRD";"ILLESCAS";"CALLE";"V";"3";"";"";"";"";"MADRID";"MADRID";"28024";"ALUCHE";"LATINA";"435137";"4472345";"40.39730561114474";"-3.7656191852299834";"";"";"";"/contenido/entidadesYorganismos/AparcamientosResidentes"; 
183559;"Aparcamiento para residentes. Ilustración";"";"";"";"";"Plazas: 142   Abierto 24 horas  Titularidad: Ayuntamiento de Madrid";"0";"http://www.madrid.es/sites/v/index.jsp?vgnextchannel=bfa48ab43d6bb410VgnVCM100000171f5a0aRCRD&vgnextoid=abd5bdc85c01c010VgnVCM2000000c205a0aRCRD";"ISLA DE AROSA";"CALLE";"V";"2";"";"";"";"";"MADRID";"MADRID";"28035";"PEÑA GRANDE";"FUENCARRAL-EL PARDO";"439358";"4481318";"40.48033843092407";"-3.7154761411305794";"";"";"";"/contenido/entidadesYorganismos/AparcamientosResidentes"; 
13502;"Aparcamiento para residentes. Isla de Arosa";"";"";"";"";"Plazas: 189 Abierto 24 horas  Titularidad: Ayuntamiento de Madrid";"0";"http://www.madrid.es/sites/v/index.jsp?vgnextchannel=bfa48ab43d6bb410VgnVCM100000171f5a0aRCRD&vgnextoid=e5a87339ae51c010VgnVCM2000000c205a0aRCRD";"ISLA DE AROSA";"CALLE";"V";"2";"";"";"";"";"MADRID";"MADRID";"28035";"PEÑA GRANDE";"FUENCARRAL-EL PARDO";"439501";"4481503";"40.480133721268786";"-3.715072834653354";"S/T";"";"";"/contenido/entidadesYorganismos/AparcamientosResidentes"; 
13575;"Aparcamiento para residentes. Isla de Ons";"";"";"";"";"Plazas: 667 Abierto 24 horas  Titularidad: Ayuntamiento de Madrid";"0";"http://www.madrid.es/sites/v/index.jsp?vgnextchannel=bfa48ab43d6bb410VgnVCM100000171f5a0aRCRD&vgnextoid=3cc87339ae51c010VgnVCM2000000c205a0aRCRD";"ISLA DE ONS";"CALLE";"V";"5";"";"";"";"";"MADRID";"MADRID";"28035";"PEÑA GRANDE";"FUENCARRAL-EL PARDO";"438938";"4481487";"40.47994830334666";"-3.72171314015025";"";"";"";"/contenido/entidadesYorganismos/AparcamientosResidentes"; 
13576;"Aparcamiento para residentes. Isla de Tavira";"";"";"";"";"Plazas: 326 Abierto 24 horas  Titularidad: Ayuntamiento de Madrid";"0";"http://www.madrid.es/sites/v/index.jsp?vgnextchannel=bfa48ab43d6bb410VgnVCM100000171f5a0aRCRD&vgnextoid=82f87339ae51c010VgnVCM2000000c205a0aRCRD";"ISLA DE TAVIRA";"CALLE";"V";"20";"";"";"";"";"MADRID";"MADRID";"28035";"PEÑA GRANDE";"FUENCARRAL-EL PARDO";"439206";"4481659";"40.48151743803618";"-3.7185680084021824";"";"";"";"/contenido/entidadesYorganismos/AparcamientosResidentes"; 
81748;"Aparcamiento para residentes. Islas Filipinas";"";"";"";"";"Plazas: 397. Abierto 24 horas.  Titularidad: Ayuntamiento de Madrid.";"0";"http://www.madrid.es/sites/v/index.jsp?vgnextchannel=bfa48ab43d6bb410VgnVCM100000171f5a0aRCRD&vgnextoid=5ebcc2c6e051c010VgnVCM2000000c205a0aRCRD";"CEA BERMUDEZ";"CALLE";"V";"51";"";"";"";"";"MADRID";"MADRID";"28003";"GAZTAMBIDE";"CHAMBERI";"439515";"4476924";"40.43888535658937";"-3.714470532658899";"";"";"";"/contenido/entidadesYorganismos/AparcamientosResidentes"; 
13577;"Aparcamiento para residentes. Iván de Vargas";"";"";"";"";"Plazas: 199 Abierto 24 horas  Titularidad: Ayuntamiento de Madrid.";"0";"http://www.madrid.es/sites/v/index.jsp?vgnextchannel=bfa48ab43d6bb410VgnVCM100000171f5a0aRCRD&vgnextoid=d8197339ae51c010VgnVCM2000000c205a0aRCRD";"ERMITA DEL SANTO";"PASEO";"V";"71";"";"";"";"";"MADRID";"MADRID";"28019";"SAN ISIDRO";"CARABANCHEL";"438635";"4472958";"40.403093358788674";"-3.7244623800315098";"";"";"";"/contenido/entidadesYorganismos/AparcamientosResidentes"; 
13546;"Aparcamiento para residentes. Jacinto Verdaguer";"";"";"";"";"Plazas: 545 Abierto 24 horas  Titularidad: Ayuntamiento de Madrid";"0";"http://www.madrid.es/sites/v/index.jsp?vgnextchannel=bfa48ab43d6bb410VgnVCM100000171f5a0aRCRD&vgnextoid=2f397339ae51c010VgnVCM2000000c205a0aRCRD";"JACINTO VERDAGUER";"CALLE";"V";"25-B";"";"";"";"";"MADRID";"MADRID";"28019";"OPAÑEL";"CARABANCHEL";"439151";"4472077";"40.395194834650084";"-3.7182975916582137";"";"";"";"/contenido/entidadesYorganismos/AparcamientosResidentes"; 
13529;"Aparcamiento para residentes. Joaquín María López";"";"";"";"";"Plazas: 464 Abierto 24 horas  Titularidad: Ayuntamiento de Madrid";"0";"http://www.madrid.es/sites/v/index.jsp?vgnextchannel=bfa48ab43d6bb410VgnVCM100000171f5a0aRCRD&vgnextoid=75697339ae51c010VgnVCM2000000c205a0aRCRD";"JOAQUIN MARIA LOPEZ";"CALLE";"V";"39";"";"";"";"";"MADRID";"MADRID";"28015";"GAZTAMBIDE";"CHAMBERI";"439504";"4476783";"40.43761436823094";"-3.7145867743039878";"";"";"";"/contenido/entidadesYorganismos/AparcamientosResidentes"; 
7471768;"Aparcamiento para residentes. José Abascal";"";"";"";"";"Plazas: 126 Abierto 24 horas  Titularidad: Ayuntamiento de Madrid";"0";"http://www.madrid.es/sites/v/index.jsp?vgnextchannel=bfa48ab43d6bb410VgnVCM100000171f5a0aRCRD&vgnextoid=7ea46cd2546d5410VgnVCM2000000c205a0aRCRD";"JOSE ABASCAL";"CALLE";"V";"54";"";"";"";"";"MADRID";"MADRID";"28003";"ALMAGRO";"CHAMBERI";"441395";"4476807";"40.43796630480829";"-3.6922825693729613";"";"";"";"/contenido/entidadesYorganismos/AparcamientosResidentes"; 
13526;"Aparcamiento para residentes. José Cadalso";"";"";"";"";"Plazas: 259 Abierto 24 horas  Titularidad: Ayuntamiento de Madrid";"0";"http://www.madrid.es/sites/v/index.jsp?vgnextchannel=bfa48ab43d6bb410VgnVCM100000171f5a0aRCRD&vgnextoid=cb897339ae51c010VgnVCM2000000c205a0aRCRD";"JOSE DE CADALSO";"CALLE";"V";"67";"";"";"";"";"MADRID";"MADRID";"28044";"LAS AGUILAS";"LATINA";"434959";"4470054";"40.376653486409225";"-3.767482193237478";"";"";"";"/contenido/entidadesYorganismos/AparcamientosResidentes"; 
13556;"Aparcamiento para residentes. José del Hierro";"";"";"";"";"Plazas: 648 Abierto 24 horas  Titularidad: Ayuntamiento de Madrid";"0";"http://www.madrid.es/sites/v/index.jsp?vgnextchannel=bfa48ab43d6bb410VgnVCM100000171f5a0aRCRD&vgnextoid=12b97339ae51c010VgnVCM2000000c205a0aRCRD";"HERMANOS DE PABLO";"CALLE";"V";"46";"";"";"";"";"MADRID";"MADRID";"28027";"CONCEPCION";"CIUDAD LINEAL";"445256";"4476829";"40.43842806737558";"-3.646774990120219";"";"";"";"/contenido/entidadesYorganismos/AparcamientosResidentes"; 
13578;"Aparcamiento para residentes. José Luis Arrese";"";"";"";"";"Plazas: 380 Abierto 24 horas  Titularidad: Ayuntamiento de Madrid";"0";"http://www.madrid.es/sites/v/index.jsp?vgnextchannel=bfa48ab43d6bb410VgnVCM100000171f5a0aRCRD&vgnextoid=68d97339ae51c010VgnVCM2000000c205a0aRCRD";"JOSE LUIS DE ARRESE";"CALLE";"V";"22";"";"";"";"";"MADRID";"MADRID";"28017";"VENTAS";"CIUDAD LINEAL";"444505";"4474916";"40.421144850524335";"-3.655462029294998";"";"";"";"/contenido/entidadesYorganismos/AparcamientosResidentes"; 
63334;"Aparcamiento para residentes. Josep Pla";"";"";"";"";"Plazas: 239 Abierto 24 horas  Titularidad: Ayuntamiento de Madrid";"0";"http://www.madrid.es/sites/v/index.jsp?vgnextchannel=bfa48ab43d6bb410VgnVCM100000171f5a0aRCRD&vgnextoid=d70a946be351c010VgnVCM2000000c205a0aRCRD";"LOPEZ DE HOYOS";"CALLE";"V";"57";"";"";"";"";"MADRID";"MADRID";"28002";"CIUDAD JARDIN";"CHAMARTIN";"442659";"4477251";"40.4420542860285";"-3.677431988836071";"";"";"";"/contenido/entidadesYorganismos/AparcamientosResidentes"; 
13579;"Aparcamiento para residentes. Juan de Vera";"";"";"";"";"Plazas: 512 Abierto 24 horas  Titularidad: Ayuntamiento de Madrid";"0";"http://www.madrid.es/sites/v/index.jsp?vgnextchannel=bfa48ab43d6bb410VgnVCM100000171f5a0aRCRD&vgnextoid=4eba7339ae51c010VgnVCM2000000c205a0aRCRD";"JUAN DE VERA";"CALLE";"V";"15";"";"";"";"";"MADRID";"MADRID";"28045";"DELICIAS";"ARGANZUELA";"441337";"4472168";"40.39617174301425";"-3.6925495357594427";"";"";"";"/contenido/entidadesYorganismos/AparcamientosResidentes"; 
7432674;"Aparcamiento para residentes. Juan Esplandiú";"";"";"";"";"Plazas: 249 Abierto 24 horas  Titularidad: Ayuntamiento de Madrid";"0";"http://www.madrid.es/sites/v/index.jsp?vgnextchannel=bfa48ab43d6bb410VgnVCM100000171f5a0aRCRD&vgnextoid=865c3d02e3b35410VgnVCM1000000b205a0aRCRD";"JUAN ESPLANDIU";"CALLE";"V";"1";"";"";"";"";"MADRID";"MADRID";"28007";"ESTRELLA";"RETIRO";"443575";"4474295";"40.415487879730144";"-3.6663688108783856";"";"";"";"/contenido/entidadesYorganismos/AparcamientosResidentes"; 
13541;"Aparcamiento para residentes. Juan Francisco Luján I";"";"";"";"";"Plazas: 198 Abierto 24 horas  Titularidad: Ayuntamiento de Madrid";"0";"http://www.madrid.es/sites/v/index.jsp?vgnextchannel=bfa48ab43d6bb410VgnVCM100000171f5a0aRCRD&vgnextoid=d04615cbed51c010VgnVCM2000000c205a0aRCRD";"CORREGIDOR JUAN FRANCISCO DE LUJAN";"CALLE";"V";"1";"";"";"";"";"MADRID";"MADRID";"28030";"FONTARRON";"MORATALAZ";"444901";"4472967";"40.403613502988044";"-3.6506252104762997";"";"";"";"/contenido/entidadesYorganismos/AparcamientosResidentes"; 
17452;"Aparcamiento para residentes. Juan Francisco Luján II";"";"";"";"";"Plazas: 297 Abierto 24 horas  Titularidad: Ayuntamiento de Madrid";"0";"http://www.madrid.es/sites/v/index.jsp?vgnextchannel=bfa48ab43d6bb410VgnVCM100000171f5a0aRCRD&vgnextoid=66806545f951c010VgnVCM2000000c205a0aRCRD";"CORREGIDOR JUAN FRANCISCO DE LUJAN";"CALLE";"V";"60";"";"";"";"";"MADRID";"MADRID";"28030";"FONTARRON";"MORATALAZ";"445147";"4472787";"40.40200823124863";"-3.6477107911706854";"";"";"";"/contenido/entidadesYorganismos/AparcamientosResidentes"; 
13505;"Aparcamiento para residentes. Juan Hurtado de Mendoza";"";"";"";"";"Plazas: 269 Abierto 24 horas  Titularidad: Ayuntamiento de Madrid";"0";"http://www.madrid.es/sites/v/index.jsp?vgnextchannel=bfa48ab43d6bb410VgnVCM100000171f5a0aRCRD&vgnextoid=94ea7339ae51c010VgnVCM2000000c205a0aRCRD";"JUAN HURTADO DE MENDOZA";"CALLE";"V";"8";"";"";"";"";"MADRID";"MADRID";"28036";"NUEVA ESPAÑA";"CHAMARTIN";"441764";"4479071";"40.46026860745542";"-3.686865997453804";"";"";"";"/contenido/entidadesYorganismos/AparcamientosResidentes"; 
5556588;"Aparcamiento para residentes. Juan Ramón Jiménez";"";"";"";"";"Plazas: 401 Abierto 24 horas  Titularidad: Ayuntamiento de Madrid";"0";"http://www.madrid.es/sites/v/index.jsp?vgnextchannel=bfa48ab43d6bb410VgnVCM100000171f5a0aRCRD&vgnextoid=055a0cc0caf66210VgnVCM1000000b205a0aRCRD";"JUAN HURTADO DE MENDOZA";"CALLE";"V";"8";"";"";"";"";"MADRID";"MADRID";"28036";"NUEVA ESPAÑA";"CHAMARTIN";"441874";"4479278";"40.4603086651127";"-3.68774686493202";"";"";"";"/contenido/entidadesYorganismos/AparcamientosResidentes"; 
81768;"Aparcamiento para residentes. Lagasca";"";"";"";"";"Plazas: 327 Abierto 24 horas  Titularidad: Ayuntamiento de Madrid";"0";"http://www.madrid.es/sites/v/index.jsp?vgnextchannel=bfa48ab43d6bb410VgnVCM100000171f5a0aRCRD&vgnextoid=089cc2c6e051c010VgnVCM2000000c205a0aRCRD";"DIEGO DE LEON";"CALLE";"V";"11";"";"";"";"";"MADRID";"MADRID";"28006";"CASTELLANA";"SALAMANCA";"442082";"4476487";"40.43513174338273";"-3.684165438137451";"";"";"";"/contenido/entidadesYorganismos/AparcamientosResidentes"; 
13580;"Aparcamiento para residentes. Lardero";"";"";"";"";"Plazas: 382 Abierto 24 horas  Titularidad: Ayuntamiento de Madrid";"0";"http://www.madrid.es/sites/v/index.jsp?vgnextchannel=bfa48ab43d6bb410VgnVCM100000171f5a0aRCRD&vgnextoid=313b7339ae51c010VgnVCM2000000c205a0aRCRD";"LARDERO";"CALLE";"V";"3-B";"";"";"";"";"MADRID";"MADRID";"28032";"AMBROZ";"VICALVARO";"448283";"4473667";"40.4101369517756";"-3.610828352314449";"";"";"";"/contenido/entidadesYorganismos/AparcamientosResidentes"; 
13581;"Aparcamiento para residentes. Maldonado";"";"";"";"";"Plazas: 721 Abierto 24 horas";"0";"http://www.madrid.es/sites/v/index.jsp?vgnextchannel=bfa48ab43d6bb410VgnVCM100000171f5a0aRCRD&vgnextoid=875b7339ae51c010VgnVCM2000000c205a0aRCRD";"MALDONADO";"CALLE";"V";"63";"";"";"";"";"MADRID";"MADRID";"28006";"LISTA";"SALAMANCA";"442683";"4476318";"40.43365102378919";"-3.6770646901575432";"";"";"";"/contenido/entidadesYorganismos/AparcamientosResidentes"; 
13582;"Aparcamiento para residentes. Manizales";"";"";"";"";"Plazas: 401 Abierto 24 horas";"0";"http://www.madrid.es/sites/v/index.jsp?vgnextchannel=bfa48ab43d6bb410VgnVCM100000171f5a0aRCRD&vgnextoid=dd7b7339ae51c010VgnVCM2000000c205a0aRCRD";"GALAPA";"CALLE";"V";"10";"";"";"";"ESQUINA C/ ARATACA Y C/ MANIZALES";"MADRID";"MADRID";"28033";"PINAR DEL REY";"HORTALEZA";"446083";"4480773";"40.47401185962897";"-3.63736019255502";"";"";"";"/contenido/entidadesYorganismos/AparcamientosResidentes"; 
24122;"Aparcamiento para residentes. Manuel Noya";"";"";"";"";"Plazas: 492 Abierto 24 horas";"0";"http://www.madrid.es/sites/v/index.jsp?vgnextchannel=bfa48ab43d6bb410VgnVCM100000171f5a0aRCRD&vgnextoid=f5416545f951c010VgnVCM2000000c205a0aRCRD";"MANUEL NOYA";"CALLE";"NUM";"2";"";"";"";"(JARDINES)";"MADRID";"MADRID";"28026";"MOSCARDO";"DISTRITO";"439631";"4471383";"40.388977935330644";"-3.712576124964454";"";"";"";"/contenido/entidadesYorganismos/AparcamientosResidentes"; 
13583;"Aparcamiento para residentes. Marcos de Orueta";"";"";"";"";"Plazas: 196 Abierto 24 horas";"0";"http://www.madrid.es/sites/v/index.jsp?vgnextchannel=bfa48ab43d6bb410VgnVCM100000171f5a0aRCRD&vgnextoid=24ab7339ae51c010VgnVCM2000000c205a0aRCRD";"ANGEL MUGICA";"CALLE";"V";"6";"";"";"";"";"MADRID";"MADRID";"28034";"VALVERDE";"FUENCARRAL-EL PARDO";"442002";"4482086";"40.485564403816525";"-3.6856211959935283";"";"";"";"/contenido/entidadesYorganismos/AparcamientosResidentes"; 
13585;"Aparcamiento para residentes. Marqués de Corbera I";"";"";"";"";"Plazas: 287 Abierto 24 horas";"0";"http://www.madrid.es/sites/v/index.jsp?vgnextchannel=bfa48ab43d6bb410VgnVCM100000171f5a0aRCRD&vgnextoid=3a2115cbed51c010VgnVCM2000000c205a0aRCRD";"MARQUES DE CORBERA";"AVENIDA";"V";"2";"";"";"";"ESQUINA C/ JOSÉ LUIS ARRESE";"MADRID";"MADRID";"28017";"VENTAS";"CIUDAD LINEAL";"444375";"4474989";"40.42179377723586";"-3.657000749062221";"";"";"";"/contenido/entidadesYorganismos/AparcamientosResidentes"; 
13584;"Aparcamiento para residentes. Marqués de Corbera II";"";"";"";"";"Plazas: 287 Abierto 24 horas  Titularidad: Ayuntamiento de Madrid";"0";"http://www.madrid.es/sites/v/index.jsp?vgnextchannel=bfa48ab43d6bb410VgnVCM100000171f5a0aRCRD&vgnextoid=805115cbed51c010VgnVCM2000000c205a0aRCRD";"MARQUES DE CORBERA";"AVENIDA";"V";"64";"";"";"";"CONFLUENCIA CON PASO ELEVADO AV. DAROCA";"MADRID";"MADRID";"28017";"VENTAS";"CIUDAD LINEAL";"445024";"4475617";"40.42749437245121";"-3.6494052531918317";"S/T";"";"";"/contenido/entidadesYorganismos/AparcamientosResidentes"; 
4831164;"Aparcamiento para residentes. Marqués de Samaranch";"";"";"";"";"Plazas: 233 Abierto 24 horas.  Titularidad: Ayuntamiento de Madrid  Gestión: Empresa Municipal de Transportes (EMT) (más información)";"0";"http://www.madrid.es/sites/v/index.jsp?vgnextchannel=bfa48ab43d6bb410VgnVCM100000171f5a0aRCRD&vgnextoid=09a455750f2a8110VgnVCM2000000c205a0aRCRD";"IMPERIAL";"PASEO";"V";"18";"";"";"";"Polideportivo municipal";"MADRID";"MADRID";"28005";"IMPERIAL";"ARGANZUELA";"439240";"4473455";"40.40761501410649";"-3.7173807221939192";"";"";"";"/contenido/entidadesYorganismos/AparcamientosResidentes"; 
36275;"Aparcamiento para residentes. Marqués de Suances";"";"";"";"";"Plazas: 339 Abierto 24 horas";"0";"http://www.madrid.es/sites/v/index.jsp?vgnextchannel=bfa48ab43d6bb410VgnVCM100000171f5a0aRCRD&vgnextoid=60322c798651c010VgnVCM2000000c205a0aRCRD";"ENSIDESA";"PLAZA";"V";"6";"";"";"";"";"MADRID";"MADRID";"28027";"EL SALVADOR";"SAN BLAS-CANILLEJAS";"447242";"4477406";"40.44375465057725";"-3.623407728129046";"";"";"";"/contenido/entidadesYorganismos/AparcamientosResidentes"; 
13490;"Aparcamiento para residentes. Marqués de Zafra";"";"";"";"";"Plazas: 192 Abierto 24 horas";"0";"http://www.madrid.es/sites/v/index.jsp?vgnextchannel=bfa48ab43d6bb410VgnVCM100000171f5a0aRCRD&vgnextoid=7acb7339ae51c010VgnVCM2000000c205a0aRCRD";"MARQUES DE ZAFRA";"PASEO";"V";"63";"";"";"";"ESQUINA C/ SANCHO DÁVILA";"MADRID";"MADRID";"28028";"FUENTE DEL BERRO";"SALAMANCA";"444007";"4475360";"40.425111214332105";"-3.6613711705578993";"";"";"";"/contenido/entidadesYorganismos/AparcamientosResidentes"; 
13521;"Aparcamiento para residentes. Marroquina";"";"";"";"";"Plazas: 683 Abierto 24 horas";"0";"http://www.madrid.es/sites/v/index.jsp?vgnextchannel=bfa48ab43d6bb410VgnVCM100000171f5a0aRCRD&vgnextoid=c0fb7339ae51c010VgnVCM2000000c205a0aRCRD";"CAMINO DE LOS VINATEROS";"CALLE";"V";"107";"";"";"";"";"MADRID";"MADRID";"28030";"MARROQUINA";"MORATALAZ";"445215";"4473542";"40.408814206064434";"-3.646974615049872";"";"";"";"/contenido/entidadesYorganismos/AparcamientosResidentes"; 
24125;"Aparcamiento para residentes. Martín de Alzaga";"";"";"";"";"Plazas: 206 Abierto 24 horas";"0";"http://www.madrid.es/sites/v/index.jsp?vgnextchannel=bfa48ab43d6bb410VgnVCM100000171f5a0aRCRD&vgnextoid=3a7f6545f951c010VgnVCM2000000c205a0aRCRD";"ALCALDE MARTIN DE ALZAGA";"CALLE";"V";"21";"";"";"";"";"MADRID";"MADRID";"28039";"VALDEZARZA";"MONCLOA-ARAVACA";"439391";"4479624";"40.46319897466814";"-3.716190674909368";"";"";"";"/contenido/entidadesYorganismos/AparcamientosResidentes"; 
24127;"Aparcamiento para residentes. Matilde Gayo";"";"";"";"";"Plazas: 232 Abierto 24 horas";"0";"http://www.madrid.es/sites/v/index.jsp?vgnextchannel=bfa48ab43d6bb410VgnVCM100000171f5a0aRCRD&vgnextoid=4c616545f951c010VgnVCM2000000c205a0aRCRD";"MATILDE GAYO";"CALLE";"V";"6";"";"";"";"CONFLUENCIA CON C/ MONEDEROS";"MADRID";"MADRID";"28026";"MOSCARDO";"USERA";"440428";"4471458";"40.38971105596928";"-3.7031934079632545";"S/T";"";"";"/contenido/entidadesYorganismos/AparcamientosResidentes"; 
46136;"Aparcamiento para residentes. Melchor Fernández Almagro";"";"";"";"";"Plazas: 255 Abierto 24 horas  Titularidad: Ayuntamiento de Madrid";"0";"http://www.madrid.es/sites/v/index.jsp?vgnextchannel=bfa48ab43d6bb410VgnVCM100000171f5a0aRCRD&vgnextoid=3bb9946be351c010VgnVCM2000000c205a0aRCRD";"GINZO DE LIMIA";"CALLE";"V";"7";"";"";"";"";"MADRID";"MADRID";"28029";"EL PILAR";"FUENCARRAL-EL PARDO";"440455";"4480980";"40.475491425888734";"-3.7037690319053382";"";"";"";"/contenido/entidadesYorganismos/AparcamientosResidentes"; 
13531;"Aparcamiento para residentes. Menasalbas";"";"";"";"";"Plazas: 220 Abierto 24 horas  Titularidad: Ayuntamiento de Madrid";"0";"http://www.madrid.es/sites/v/index.jsp?vgnextchannel=bfa48ab43d6bb410VgnVCM100000171f5a0aRCRD&vgnextoid=171c7339ae51c010VgnVCM2000000c205a0aRCRD";"AHORRO";"PLAZA";"V";"6";"";"";"";"";"MADRID";"MADRID";"28041";"LOS ANGELES";"VILLAVERDE";"441012";"4468344";"40.36221164246223";"-3.6963475368076857";"";"";"";"/contenido/entidadesYorganismos/AparcamientosResidentes"; 
183550;"Aparcamiento para residentes. Menorca";"";"";"";"";"Plazas: 862 Abierto: 24 horas  Titularidad: Ayuntamiento de Madrid";"1";"http://www.madrid.es/sites/v/index.jsp?vgnextchannel=bfa48ab43d6bb410VgnVCM100000171f5a0aRCRD&vgnextoid=9e46bdc85c01c010VgnVCM2000000c205a0aRCRD";"NARVAEZ";"CALLE";"V";"54";"";"";"";"";"MADRID";"MADRID";"28009";"IBIZA";"RETIRO";"442728";"4474706";"40.419132414660844";"-3.6763886844447997";"";"";"";"/contenido/entidadesYorganismos/AparcamientosResidentes"; 
13586;"Aparcamiento para residentes. Mercedes Arteaga";"";"";"";"";"Plazas: 217 Abierto: 24 horas  Titularidad: Ayuntamiento de Madrid";"0";"http://www.madrid.es/sites/v/index.jsp?vgnextchannel=bfa48ab43d6bb410VgnVCM100000171f5a0aRCRD&vgnextoid=6d3c7339ae51c010VgnVCM2000000c205a0aRCRD";"MERCEDES ARTEAGA";"CALLE";"V";"27";"";"";"";"";"MADRID";"MADRID";"28019";"OPAÑEL";"CARABANCHEL";"438798";"4471716";"40.39191686458105";"-3.722422024464285";"";"";"";"/contenido/entidadesYorganismos/AparcamientosResidentes"; 
81792;"Aparcamiento para residentes. Miguel Angel";"";"";"";"";"Plazas: 87 Abierto: 24 horas  Titularidad: Ayuntamiento de Madrid";"0";"http://www.madrid.es/sites/v/index.jsp?vgnextchannel=bfa48ab43d6bb410VgnVCM100000171f5a0aRCRD&vgnextoid=8acdc2c6e051c010VgnVCM2000000c205a0aRCRD";"MIGUEL ANGEL";"CALLE";"V";"30";"";"";"";"";"MADRID";"MADRID";"28010";"ALMAGRO";"CHAMBERI";"441490";"4476662";"40.43666670909019";"-3.691160938098677";"";"";"";"/contenido/entidadesYorganismos/AparcamientosResidentes"; 
13508;"Aparcamiento para residentes. Mirabel";"";"";"";"";"Plazas: 617 Abierto: 24 horas  Titularidad: Ayuntamiento de Madrid";"0";"http://www.madrid.es/sites/v/index.jsp?vgnextchannel=bfa48ab43d6bb410VgnVCM100000171f5a0aRCRD&vgnextoid=b36c7339ae51c010VgnVCM2000000c205a0aRCRD";"MIRABEL";"CALLE";"V";"13";"";"";"";"";"MADRID";"MADRID";"28044";"LAS AGUILAS";"LATINA";"433818";"4470219";"40.37804988929718";"-3.7809392216852453";"";"";"";"/contenido/entidadesYorganismos/AparcamientosResidentes"; 
13587;"Aparcamiento para residentes. Misterios";"";"";"";"";"Plazas: 183 Abierto: 24 horas  Titularidad: Ayuntamiento de Madrid";"0";"http://www.madrid.es/sites/v/index.jsp?vgnextchannel=bfa48ab43d6bb410VgnVCM100000171f5a0aRCRD&vgnextoid=0a8c7339ae51c010VgnVCM2000000c205a0aRCRD";"MISTERIOS";"CALLE";"V";"1";"";"";"";"";"MADRID";"MADRID";"28027";"QUINTANA";"CIUDAD LINEAL";"445907";"4476795";"40.43816446397422";"-3.6390967056081855";"";"";"";"/contenido/entidadesYorganismos/AparcamientosResidentes"; 
13588;"Aparcamiento para residentes. Mondariz";"";"";"";"";"Plazas: 282 Abierto 24 horas  Titularidad: Ayuntamiento de Madrid";"0";"http://www.madrid.es/sites/v/index.jsp?vgnextchannel=bfa48ab43d6bb410VgnVCM100000171f5a0aRCRD&vgnextoid=98747339ae51c010VgnVCM2000000c205a0aRCRD";"MONDARIZ";"PLAZA";"V";"14-B";"";"";"";"";"MADRID";"MADRID";"28029";"EL PILAR";"FUENCARRAL-EL PARDO";"440290";"4481296";"40.47832620355215";"-3.7057452570234384";"";"";"";"/contenido/entidadesYorganismos/AparcamientosResidentes"; 
13589;"Aparcamiento para residentes. Montevideo";"";"";"";"";"Plazas: 290 Abierto 24 horas  Titularidad: Ayuntamiento de Madrid";"0";"http://www.madrid.es/sites/v/index.jsp?vgnextchannel=bfa48ab43d6bb410VgnVCM100000171f5a0aRCRD&vgnextoid=50bc7339ae51c010VgnVCM2000000c205a0aRCRD";"GENERAL MOSCARDO";"CALLE";"V";"24";"";"";"";"";"MADRID";"MADRID";"28020";"CUATRO CAMINOS";"TETUAN";"441039";"4478160";"40.450129445324265";"-3.6966173957684987";"";"";"";"/contenido/entidadesYorganismos/AparcamientosResidentes"; 
81770;"Aparcamiento para residentes. Moralzarzal";"";"";"";"";"Plazas: 224 Abierto 24 horas  Titularidad: Ayuntamiento de Madrid";"0";"http://www.madrid.es/sites/v/index.jsp?vgnextchannel=bfa48ab43d6bb410VgnVCM100000171f5a0aRCRD&vgnextoid=d0fdc2c6e051c010VgnVCM2000000c205a0aRCRD";"MORALZARZAL";"CALLE";"V";"86";"";"";"";"";"MADRID";"MADRID";"28034";"MIRASIERRA";"FUENCARRAL-EL PARDO";"439741";"4483030";"40.49390694682075";"-3.7123869254984436";"";"";"";"/contenido/entidadesYorganismos/AparcamientosResidentes"; 
13540;"Aparcamiento para residentes. Moratalaz";"";"";"";"";"Plazas: 379 Abierto 24 horas  Titularidad: Ayuntamiento de Madrid";"0";"http://www.madrid.es/sites/v/index.jsp?vgnextchannel=bfa48ab43d6bb410VgnVCM100000171f5a0aRCRD&vgnextoid=d67115cbed51c010VgnVCM2000000c205a0aRCRD";"MORATALAZ";"AVENIDA";"V";"194";"";"";"";"";"MADRID";"MADRID";"28030";"VINATEROS";"MORATALAZ";"445637";"4473592";"40.40929235748528";"-3.642005637795663";"";"";"";"/contenido/entidadesYorganismos/AparcamientosResidentes"; 
13516;"Aparcamiento para residentes. Müller";"";"";"";"";"Plazas: 139 Abierto 24 horas  Titularidad: Ayuntamiento de Madrid";"0";"http://www.madrid.es/sites/v/index.jsp?vgnextchannel=bfa48ab43d6bb410VgnVCM100000171f5a0aRCRD&vgnextoid=a6dc7339ae51c010VgnVCM2000000c205a0aRCRD";"REMONTA";"PASAJE";"V";"6";"";"";"";"";"MADRID";"MADRID";"28039";"VALDEACEDERAS";"TETUAN";"441017";"4479698";"40.463982833786666";"-3.697019991313314";"";"";"";"/contenido/entidadesYorganismos/AparcamientosResidentes"; 
13497;"Aparcamiento para residentes. Narváez";"";"";"";"";"Plazas: 523 Abierto 24 horas  Titularidad: Ayuntamiento de Madrid";"0";"http://www.madrid.es/sites/v/index.jsp?vgnextchannel=bfa48ab43d6bb410VgnVCM100000171f5a0aRCRD&vgnextoid=fcfc7339ae51c010VgnVCM2000000c205a0aRCRD";"NARVAEZ";"CALLE";"V";"26";"";"";"";"";"MADRID";"MADRID";"28009";"GOYA";"SALAMANCA";"442748";"4474999";"40.42177328929485";"-3.676179378123513";"";"";"";"/contenido/entidadesYorganismos/AparcamientosResidentes"; 
81793;"Aparcamiento para residentes. Navalmoral de la Mata";"";"";"";"";"Plazas: 204 Abierto 24 horas  Titularidad: Ayuntamiento de Madrid";"0";"http://www.madrid.es/sites/v/index.jsp?vgnextchannel=bfa48ab43d6bb410VgnVCM100000171f5a0aRCRD&vgnextoid=271ec2c6e051c010VgnVCM2000000c205a0aRCRD";"NAVALMORAL DE LA MATA";"CALLE";"V";"64-B";"";"";"";"";"MADRID";"MADRID";"28044";"LAS AGUILAS";"LATINA";"434178";"4470175";"40.37768208008626";"-3.776694134591487";"";"";"";"/contenido/entidadesYorganismos/AparcamientosResidentes"; 
13590;"Aparcamiento para residentes. Niño Jesús";"";"";"";"";"Plazas: 405 Abierto 24 horas.  Titularidad: Ayuntamiento de Madrid";"0";"http://www.madrid.es/sites/v/index.jsp?vgnextchannel=bfa48ab43d6bb410VgnVCM100000171f5a0aRCRD&vgnextoid=ee947339ae51c010VgnVCM2000000c205a0aRCRD";"NI&amp;Ntilde;O JESUS";"PLAZA";"V";"4";"";"";"";"";"MADRID";"MADRID";"28009";"NIÑO JESUS";"RETIRO";"442813";"4473788";"40.410868443000226";"-3.6753041315851216";"";"";"";"/contenido/entidadesYorganismos/AparcamientosResidentes"; 
13519;"Aparcamiento para residentes. Nuestra Señora de Gracia";"";"";"";"";"Plazas: 580 Titularidad: Ayuntamiento de Madrid  Abierto 24 horas.";"0";"http://www.madrid.es/sites/v/index.jsp?vgnextchannel=bfa48ab43d6bb410VgnVCM100000171f5a0aRCRD&vgnextoid=b7ff15cbed51c010VgnVCM2000000c205a0aRCRD";"HACIENDA DE PAVONES";"CALLE";"V";"202";"";"";"";"";"MADRID";"MADRID";"28030";"FONTARRON";"MORATALAZ";"445769";"4472799";"40.40215716063388";"-3.640382300925949";"";"";"";"/contenido/entidadesYorganismos/AparcamientosResidentes"; 
13640;"Aparcamiento para residentes. Ofelia Nieto";"";"";"";"";"";"0";"http://www.madrid.es/sites/v/index.jsp?vgnextchannel=bfa48ab43d6bb410VgnVCM100000171f5a0aRCRD&vgnextoid=432d7339ae51c010VgnVCM2000000c205a0aRCRD";"OFELIA NIETO";"CALLE";"V";"61 - B";"";"";"";"";"MADRID";"MADRID";"28039";"VALDEZARZA";"MONCLOA-ARAVACA";"439972";"4479426";"40.461457569752326";"-3.7093194218803034";"";"";"";"/contenido/entidadesYorganismos/AparcamientosResidentes"; 
24129;"Aparcamiento para residentes. Oporto";"";"";"";"";"Plazas: 456Abierto 24 horas  Titularidad: Ayuntamiento de Madrid";"0";"http://www.madrid.es/sites/v/index.jsp?vgnextchannel=bfa48ab43d6bb410VgnVCM100000171f5a0aRCRD&vgnextoid=9d2f6545f951c010VgnVCM2000000c205a0aRCRD";"ARG&amp;Uuml;ESO";"CALLE";"V";"25";"";"";"";"";"MADRID";"MADRID";"28025";"ABRANTES";"CARABANCHEL";"438339";"4470624";"40.38392839445374";"-3.7264423170696275";"";"";"";"/contenido/entidadesYorganismos/AparcamientosResidentes"; 
13543;"Aparcamiento para residentes. Ortega y Gasset I";"";"";"";"";"Plazas: 741 Abierto 24 horas  Titularidad: Ayuntamiento de Madrid";"0";"http://www.madrid.es/sites/v/index.jsp?vgnextchannel=bfa48ab43d6bb410VgnVCM100000171f5a0aRCRD&vgnextoid=bef97339ae51c010VgnVCM2000000c205a0aRCRD";"JOSE ORTEGA Y GASSET";"CALLE";"V";"86";"";"";"";"";"MADRID";"MADRID";"28006";"LISTA";"SALAMANCA";"442949";"4475658";"40.42961229235515";"-3.6725895592150812";"";"";"";"/contenido/entidadesYorganismos/AparcamientosResidentes"; 
13544;"Aparcamiento para residentes. Ortega y Gasset II";"";"";"";"";"Plazas: 549Abierto 24 horas   Titularidad: Ayuntamiento de Madrid";"0";"http://www.madrid.es/sites/v/index.jsp?vgnextchannel=bfa48ab43d6bb410VgnVCM100000171f5a0aRCRD&vgnextoid=052a7339ae51c010VgnVCM2000000c205a0aRCRD";"JOSE ORTEGA Y GASSET";"CALLE";"V";"44";"";"";"";"";"MADRID";"MADRID";"28006";"LISTA";"SALAMANCA";"442597";"4475900";"40.42987952977711";"-3.6780407406414577";"";"";"";"/contenido/entidadesYorganismos/AparcamientosResidentes"; 
13549;"Aparcamiento para residentes. Ortega y Gasset III";"";"";"";"";"Plazas: 402 Abierto 24 horas  Titularidad: Ayuntamiento de Madrid";"0";"http://www.madrid.es/sites/v/index.jsp?vgnextchannel=bfa48ab43d6bb410VgnVCM100000171f5a0aRCRD&vgnextoid=5b4a7339ae51c010VgnVCM2000000c205a0aRCRD";"JOSE ORTEGA Y GASSET";"CALLE";"V";"35";"";"";"";"";"MADRID";"MADRID";"28006";"CASTELLANA";"SALAMANCA";"442379";"4475948";"40.43029683639009";"-3.6806150060871925";"";"";"";"/contenido/entidadesYorganismos/AparcamientosResidentes"; 
13553;"Aparcamiento para residentes. Ortega y Gasset IV";"";"";"";"";"Plazas: 369 Abierto 24 horas  Titularidad: Ayuntamiento de Madrid";"0";"http://www.madrid.es/sites/v/index.jsp?vgnextchannel=bfa48ab43d6bb410VgnVCM100000171f5a0aRCRD&vgnextoid=a17a7339ae51c010VgnVCM2000000c205a0aRCRD";"JOSE ORTEGA Y GASSET";"CALLE";"V";"25 -B";"";"";"";"";"MADRID";"MADRID";"28006";"CASTELLANA";"SALAMANCA";"442064";"4475960";"40.43038301657138";"-3.684329518611805";"";"";"";"/contenido/entidadesYorganismos/AparcamientosResidentes"; 
167691;"Aparcamiento para residentes. Ortiz Campos";"";"";"";"";"Plazas: 151 Abierto 24 horas  Titularidad: Ayuntamiento de Madrid";"0";"http://www.madrid.es/sites/v/index.jsp?vgnextchannel=bfa48ab43d6bb410VgnVCM100000171f5a0aRCRD&vgnextoid=5c54ff632081c010VgnVCM1000000b205a0aRCRD";"ORTIZ CAMPOS";"CALLE";"V";"12";"";"";"";"";"MADRID";"MADRID";"28026";"PRADOLONGO";"USERA";"440079";"4470964";"40.385235846277794";"-3.7072468134338923";"";"";"";"/contenido/entidadesYorganismos/AparcamientosResidentes"; 
13510;"Aparcamiento para residentes. Osa de la Vega";"";"";"";"";"Plazas: 294 Abierto 24 horas  Titularidad: Ayuntamiento de Madrid";"0";"http://www.madrid.es/sites/v/index.jsp?vgnextchannel=bfa48ab43d6bb410VgnVCM100000171f5a0aRCRD&vgnextoid=ef6d7339ae51c010VgnVCM2000000c205a0aRCRD";"OSA DE LA VEGA";"CALLE";"V";"6";"";"";"";"";"MADRID";"MADRID";"28044";"LAS AGUILAS";"LATINA";"434423";"4469891";"40.375143122825484";"-3.7737671808919457";"";"";"";"/contenido/entidadesYorganismos/AparcamientosResidentes"; 
13628;"Aparcamiento para residentes. Pablo Casals";"";"";"";"";"Plazas: 152 Abierto 24 horas  Titularidad: Ayuntamiento de Madrid";"0";"http://www.madrid.es/sites/v/index.jsp?vgnextchannel=bfa48ab43d6bb410VgnVCM100000171f5a0aRCRD&vgnextoid=369d7339ae51c010VgnVCM2000000c205a0aRCRD";"PABLO CASALS";"ROTONDA";"";"1";"";"";"";"";"MADRID";"MADRID";"";"PUERTA DEL ANGEL";"LATINA";"438693";"4473970";"40.41221418658154";"-3.7238765894181416";"";"";"";"/contenido/entidadesYorganismos/AparcamientosResidentes"; 
13591;"Aparcamiento para residentes. Pablo Iglesias I";"";"";"";"";"Plazas: 180 Abierto 24 horas  Titularidad: Ayuntamiento de Madrid";"0";"http://www.madrid.es/sites/v/index.jsp?vgnextchannel=bfa48ab43d6bb410VgnVCM100000171f5a0aRCRD&vgnextoid=2d9115cbed51c010VgnVCM2000000c205a0aRCRD";"PABLO IGLESIAS";"AVENIDA";"V";"16";"";"";"";"";"MADRID";"MADRID";"28003";"VALLEHERMOSO";"CHAMBERI";"440211";"4477617";"40.44517862138331";"-3.7063299914141563";"";"";"";"/contenido/entidadesYorganismos/AparcamientosResidentes"; 
13517;"Aparcamiento para residentes. Pablo Iglesias II";"";"";"";"";"Plazas: 504 Abierto 24 horas  Titularidad: Ayuntamiento de Madrid";"0";"http://www.madrid.es/sites/v/index.jsp?vgnextchannel=bfa48ab43d6bb410VgnVCM100000171f5a0aRCRD&vgnextoid=73c115cbed51c010VgnVCM2000000c205a0aRCRD";"PABLO IGLESIAS";"AVENIDA";"V";"40";"";"";"";"";"MADRID";"MADRID";"28039";"BELLAS VISTAS";"TETUAN";"439968";"4478025";"40.448836583456306";"-3.709222086628092";"";"";"";"/contenido/entidadesYorganismos/AparcamientosResidentes"; 
13557;"Aparcamiento para residentes. Pan y Toros";"";"";"";"";"Plazas: 226  Abierto 24 horas   Titularidad: Ayuntamiento de Madrid";"0";"http://www.madrid.es/sites/v/index.jsp?vgnextchannel=bfa48ab43d6bb410VgnVCM100000171f5a0aRCRD&vgnextoid=8cbd7339ae51c010VgnVCM2000000c205a0aRCRD";"PAN Y TOROS";"CALLE";"V";"6 - b";"";"";"";"";"MADRID";"MADRID";"28041";"LOS ANGELES";"VILLAVERDE";"441102";"4468192";"40.36033692617683";"-3.6949856545050537";"";"";"";"/contenido/entidadesYorganismos/AparcamientosResidentes"; 
81799;"Aparcamiento para residentes. Panamá";"";"";"";"";"Plazas: 435 Abierto 24 horas   Titularidad: Ayuntamiento de Madrid";"0";"http://www.madrid.es/sites/v/index.jsp?vgnextchannel=bfa48ab43d6bb410VgnVCM100000171f5a0aRCRD&vgnextoid=7d3ec2c6e051c010VgnVCM2000000c205a0aRCRD";"DOCTOR FLEMING";"CALLE";"V";"13";"";"";"";"";"MADRID";"MADRID";"28036";"HISPANOAMERICA";"CHAMARTIN";"441743";"4478972";"40.457494031619916";"-3.688390425258081";"";"";"";"/contenido/entidadesYorganismos/AparcamientosResidentes"; 
63333;"Aparcamiento para residentes. Parque de Santa María";"";"";"";"";"Plazas: 459 Abierto 24 horas  Titularidad: Ayuntamiento de Madrid";"0";"http://www.madrid.es/sites/v/index.jsp?vgnextchannel=bfa48ab43d6bb410VgnVCM100000171f5a0aRCRD&vgnextoid=2e2a946be351c010VgnVCM2000000c205a0aRCRD";"SANTA VIRGILIA";"CALLE";"V";"19";"";"";"";"";"MADRID";"MADRID";"28033";"PINAR DEL REY";"HORTALEZA";"445809";"4481136";"40.47725506619179";"-3.6406233923237314";"";"";"";"/contenido/entidadesYorganismos/AparcamientosResidentes"; 
13619;"Aparcamiento para residentes. Paseo de Pintor Rosales I";"";"";"";"";"Plazas: 315 Abierto 24 horas  Titularidad: Ayuntamiento de Madrid";"0";"http://www.madrid.es/sites/v/index.jsp?vgnextchannel=bfa48ab43d6bb410VgnVCM100000171f5a0aRCRD&vgnextoid=79f27339ae51c010VgnVCM2000000c205a0aRCRD";"PINTOR ROSALES";"PASEO";"V";"40";"";"";"";"c/v Marqués de Urquijo";"MADRID";"MADRID";"28008";"ARGUELLES";"MONCLOA-ARAVACA";"438981";"4475734";"40.42812626338584";"-3.720651954392569";"";"";"";"/contenido/entidadesYorganismos/AparcamientosResidentes"; 
13620;"Aparcamiento para residentes. Paseo de Pintor Rosales II";"";"";"";"";"Plazas: 696 Abierto 24 horas  Titularidad: Ayuntamiento de Madrid";"0";"http://www.madrid.es/sites/v/index.jsp?vgnextchannel=bfa48ab43d6bb410VgnVCM100000171f5a0aRCRD&vgnextoid=cf137339ae51c010VgnVCM2000000c205a0aRCRD";"PINTOR ROSALES";"PASEO";"V";"3";"";"";"";"c/v Romero Robledo";"MADRID";"MADRID";"28008";"CASA DE CAMPO";"MONCLOA-ARAVACA";"438781";"4475957";"40.430092287929895";"-3.7232076356651316";"";"";"";"/contenido/entidadesYorganismos/AparcamientosResidentes"; 
13637;"Aparcamiento para residentes. Paseo de Pintor Rosales III";"";"";"";"";"Plazas: 733 Abierto 24 horas  Titularidad: Ayuntamiento de Madrid";"0";"http://www.madrid.es/sites/v/index.jsp?vgnextchannel=bfa48ab43d6bb410VgnVCM100000171f5a0aRCRD&vgnextoid=16437339ae51c010VgnVCM2000000c205a0aRCRD";"PINTOR ROSALES";"PASEO";"V";"1";"";"";"";"c/v Rey Francisco";"MADRID";"MADRID";"28008";"CASA DE CAMPO";"MONCLOA-ARAVACA";"438894";"4475714";"40.427939697492924";"-3.721675597515291";"";"";"";"/contenido/entidadesYorganismos/AparcamientosResidentes"; 
13592;"Aparcamiento para residentes. Pedro Yagüe";"";"";"";"";"Plazas: 198 Abierto 24 horas  Titularidad: Ayuntamiento de Madrid";"0";"http://www.madrid.es/sites/v/index.jsp?vgnextchannel=bfa48ab43d6bb410VgnVCM100000171f5a0aRCRD&vgnextoid=d2ed7339ae51c010VgnVCM2000000c205a0aRCRD";"PEDRO YAG&amp;Uuml;E";"CALLE";"V";"3";"";"";"";"c/v Paseo de Santa María de la Cabeza, 112";"MADRID";"MADRID";"28019";"COMILLAS";"CARABANCHEL";"440041";"4471796";"40.39272811310567";"-3.707784721668437";"";"";"";"/contenido/entidadesYorganismos/AparcamientosResidentes"; 
24131;"Aparcamiento para residentes. Peñuelas";"";"";"";"";"Plazas: 239 Abierto 24 horas  Titularidad: Ayuntamiento de Madrid";"0";"http://www.madrid.es/sites/v/index.jsp?vgnextchannel=bfa48ab43d6bb410VgnVCM100000171f5a0aRCRD&vgnextoid=92916545f951c010VgnVCM2000000c205a0aRCRD";"ESPERANZA";"PASEO";"V";"13";"";"";"";"";"MADRID";"MADRID";"28005";"ACACIAS";"ARGANZUELA";"440255";"4472885";"40.40255377348087";"-3.705365746147262";"";"";"";"/contenido/entidadesYorganismos/AparcamientosResidentes"; 
13617;"Aparcamiento para residentes. Pérez Pillado";"";"";"";"";"Plazas: 531 Abierto 24 horas  Titularidad: Ayuntamiento de Madrid";"0";"http://www.madrid.es/sites/v/index.jsp?vgnextchannel=bfa48ab43d6bb410VgnVCM100000171f5a0aRCRD&vgnextoid=1ba57339ae51c010VgnVCM2000000c205a0aRCRD";"TENIENTE DE ALCALDE PEREZ PILLADO";"PLAZA";"V";"1-B";"";"";"";"";"MADRID";"MADRID";"28003";"VALLEHERMOSO";"CHAMBERI";"440139";"4476989";"40.43951614014729";"-3.7071196707992047";"";"";"";"/contenido/entidadesYorganismos/AparcamientosResidentes"; 
13545;"Aparcamiento para residentes. Pez Volador";"";"";"";"";"Plazas: 657 Abierto 24 horas  Titularidad: Ayuntamiento de Madrid";"0";"http://www.madrid.es/sites/v/index.jsp?vgnextchannel=bfa48ab43d6bb410VgnVCM100000171f5a0aRCRD&vgnextoid=290e7339ae51c010VgnVCM2000000c205a0aRCRD";"PEZ VOLADOR";"CALLE";"V";"21";"";"";"";"";"MADRID";"MADRID";"28007";"ESTRELLA";"RETIRO";"443673";"4474162";"40.414296394398114";"-3.6652019753895515";"";"";"";"/contenido/entidadesYorganismos/AparcamientosResidentes"; 
13542;"Aparcamiento para residentes. Pico de los Artilleros";"";"";"";"";"Plazas: 195 Abierto 24 horas  Titularidad: Ayuntamiento de Madrid";"0";"http://www.madrid.es/sites/v/index.jsp?vgnextchannel=bfa48ab43d6bb410VgnVCM100000171f5a0aRCRD&vgnextoid=7f2e7339ae51c010VgnVCM2000000c205a0aRCRD";"PICO DE LOS ARTILLEROS";"CALLE";"V";"19";"";"";"";"";"MADRID";"MADRID";"28030";"MARROQUINA";"MORATALAZ";"445850";"4473359";"40.40720726405869";"-3.6394755525698588";"";"";"";"/contenido/entidadesYorganismos/AparcamientosResidentes"; 
81802;"Aparcamiento para residentes. Pilar de Zaragoza";"";"";"";"";"Plazas: 180 Abierto 24 horas  Titularidad: Ayuntamiento de Madrid";"0";"http://www.madrid.es/sites/v/index.jsp?vgnextchannel=bfa48ab43d6bb410VgnVCM100000171f5a0aRCRD&vgnextoid=1a8ec2c6e051c010VgnVCM2000000c205a0aRCRD";"PILAR DE ZARAGOZA";"CALLE";"V";"54";"";"";"";"";"MADRID";"MADRID";"28028";"GUINDALERA";"SALAMANCA";"443188";"4476532";"40.43561355880132";"-3.6711302937521397";"";"";"";"/contenido/entidadesYorganismos/AparcamientosResidentes"; 
13593;"Aparcamiento para residentes. Pío Baroja I";"";"";"";"";"Plazas: 495 Abierto 24 horas  Titularidad: Ayuntamiento de Madrid";"0";"http://www.madrid.es/sites/v/index.jsp?vgnextchannel=bfa48ab43d6bb410VgnVCM100000171f5a0aRCRD&vgnextoid=c55e7339ae51c010VgnVCM2000000c205a0aRCRD";"PIO BAROJA";"CALLE";"V";"8";"";"";"";"";"MADRID";"MADRID";"28009";"NIÑO JESUS";"RETIRO";"442768";"4473862";"40.413417443948205";"-3.6745551353834545";"";"";"";"/contenido/entidadesYorganismos/AparcamientosResidentes"; 
13594;"Aparcamiento para residentes. Pío Baroja II";"";"";"";"";"Plazas: 268 Abierto 24 horas  Titularidad: Ayuntamiento de Madrid";"0";"http://www.madrid.es/sites/v/index.jsp?vgnextchannel=bfa48ab43d6bb410VgnVCM100000171f5a0aRCRD&vgnextoid=0e1015cbed51c010VgnVCM2000000c205a0aRCRD";"LUIS DE HOYOS SAINZ";"CALLE";"V";"82";"";"";"";"";"MADRID";"MADRID";"28030";"VINATEROS";"MORATALAZ";"445997";"4472927";"40.403325112237404";"-3.6377064713535683";"";"";"";"/contenido/entidadesYorganismos/AparcamientosResidentes"; 
13595;"Aparcamiento para residentes. Platón";"";"";"";"";"Plazas: 218 Abierto 24 horas  Titularidad: Ayuntamiento de Madrid";"0";"http://www.madrid.es/sites/v/index.jsp?vgnextchannel=bfa48ab43d6bb410VgnVCM100000171f5a0aRCRD&vgnextoid=35c47339ae51c010VgnVCM2000000c205a0aRCRD";"PLATON";"PLAZA";"V";"3";"";"";"";"";"MADRID";"MADRID";"28027";"SAN PASCUAL";"CIUDAD LINEAL";"444801";"4477266";"40.44233465735811";"-3.652177539229519";"";"";"";"/contenido/entidadesYorganismos/AparcamientosResidentes"; 
5298038;"Aparcamiento para residentes. Poeta Leopoldo de Luis";"";"";"";"";"Plazas: 314 Abierto 24 horas  Titularidad: Ayuntamiento de Madrid";"0";"http://www.madrid.es/sites/v/index.jsp?vgnextchannel=bfa48ab43d6bb410VgnVCM100000171f5a0aRCRD&vgnextoid=a94e8235c3580210VgnVCM1000000b205a0aRCRD";"CASTILLA";"CALLE";"V";"16";"";"";"";"";"MADRID";"MADRID";"28039";"BELLAS VISTAS";"TETUAN";"440362";"4478516";"40.45328805539019";"-3.704634105906319";"";"";"";"/contenido/entidadesYorganismos/AparcamientosResidentes"; 
13488;"Aparcamiento para residentes. Pradillo";"";"";"";"";"Plazas: 143 Abierto 24 horas  Titularidad: Ayuntamiento de Madrid";"0";"http://www.madrid.es/sites/v/index.jsp?vgnextchannel=bfa48ab43d6bb410VgnVCM100000171f5a0aRCRD&vgnextoid=1c7e7339ae51c010VgnVCM2000000c205a0aRCRD";"PRADILLO";"CALLE";"V";"31";"";"";"";"";"MADRID";"MADRID";"28002";"CIUDAD JARDIN";"CHAMARTIN";"443158";"4478030";"40.44910622626739";"-3.671618277009419";"";"";"";"/contenido/entidadesYorganismos/AparcamientosResidentes"; 
7401268;"Aparcamiento para residentes. Pradillo II";"";"";"";"";"Plazas: 68 Abierto 24 horas  Titularidad: Ayuntamiento de Madrid  Gestión: Empresa Municipal de Transportes (EMT) (más información)";"0";"http://www.madrid.es/sites/v/index.jsp?vgnextchannel=bfa48ab43d6bb410VgnVCM100000171f5a0aRCRD&vgnextoid=e84b78a52ffd4410VgnVCM1000000b205a0aRCRD";"PRADILLO";"CALLE";"V";"39";"";"";"";"";"MADRID";"MADRID";"28002";"CIUDAD JARDIN";"CHAMARTIN";"443199";"4478037";"40.44918185512993";"-3.6710058129264764";"";"";"";"/contenido/entidadesYorganismos/AparcamientosResidentes"; 
13596;"Aparcamiento para residentes. Puerto Monasterio";"";"";"";"";"Plazas: 244 Abierto 24 horas  Titularidad: Ayuntamiento de Madrid";"0";"http://www.madrid.es/sites/v/index.jsp?vgnextchannel=bfa48ab43d6bb410VgnVCM100000171f5a0aRCRD&vgnextoid=62ae7339ae51c010VgnVCM2000000c205a0aRCRD";"PUERTO DEL MONASTERIO";"CALLE";"V";"17";"";"";"";"";"MADRID";"MADRID";"28053";"SAN DIEGO";"PUENTE DE VALLECAS";"443771";"4471960";"40.39446617270601";"-3.663852045873069";"";"";"";"/contenido/entidadesYorganismos/AparcamientosResidentes"; 
13509;"Aparcamiento para residentes. Rafael Finat";"";"";"";"";"Plazas: 311 Abierto 24 horas  Titularidad: Ayuntamiento de Madrid  Teléfono: 91 705 91 23";"0";"http://www.madrid.es/sites/v/index.jsp?vgnextchannel=bfa48ab43d6bb410VgnVCM100000171f5a0aRCRD&vgnextoid=b8ce7339ae51c010VgnVCM2000000c205a0aRCRD";"RAFAEL FINAT";"CALLE";"V";"65";"";"";"";"";"MADRID";"MADRID";"28044";"LAS AGUILAS";"LATINA";"435237";"4470835";"40.38371073816265";"-3.7642871215174827";"";"";"";"/contenido/entidadesYorganismos/AparcamientosResidentes"; 
13506;"Aparcamiento para residentes. Rafael Salgado";"";"";"";"";"Plazas: 372 Abierto 24 horas  Titularidad: Ayuntamiento de Madrid";"0";"http://www.madrid.es/sites/v/index.jsp?vgnextchannel=bfa48ab43d6bb410VgnVCM100000171f5a0aRCRD&vgnextoid=0fee7339ae51c010VgnVCM2000000c205a0aRCRD";"RAFAEL SALGADO";"CALLE";"V";"13-B";"";"";"";"";"MADRID";"MADRID";"28036";"HISPANOAMERICA";"CHAMARTIN";"441785";"4478609";"40.45423592494194";"-3.6878618457591212";"";"";"";"/contenido/entidadesYorganismos/AparcamientosResidentes"; 
24132;"Aparcamiento para residentes. Rafaela Ybarra";"";"";"";"";"Plazas: 257 Abierto 24 horas  Titularidad: Ayuntamiento de Madrid";"0";"http://www.madrid.es/sites/v/index.jsp?vgnextchannel=bfa48ab43d6bb410VgnVCM100000171f5a0aRCRD&vgnextoid=e35f6545f951c010VgnVCM2000000c205a0aRCRD";"RAFAELA YBARRA";"AVENIDA";"V";"51";"";"";"";"FRENTE C/ ANTONIO PRIETO";"MADRID";"MADRID";"28026";"PRADOLONGO";"USERA";"439743";"4470456";"40.38063517341089";"-3.7111687792815276";"";"";"";"/contenido/entidadesYorganismos/AparcamientosResidentes"; 
183557;"Aparcamiento para residentes. Ramales";"";"";"";"";"Plazas: 455 Abierto 24 horas  Titularidad: Ayuntamiento de Madrid";"0";"http://www.madrid.es/sites/v/index.jsp?vgnextchannel=bfa48ab43d6bb410VgnVCM100000171f5a0aRCRD&vgnextoid=ca57bdc85c01c010VgnVCM2000000c205a0aRCRD";"REQUENA";"CALLE";"V";"7";"";"";"";"";"MADRID";"MADRID";"28013";"PALACIO";"CENTRO";"439621";"4474504";"40.417092659885896";"-3.7129905271195467";"";"";"";"/contenido/entidadesYorganismos/AparcamientosResidentes"; 
13597;"Aparcamiento para residentes. Ramón Gómez de la Serna";"";"";"";"";"Plazas: 597 Abierto 24 horas  Titularidad: Ayuntamiento de Madrid";"0";"http://www.madrid.es/sites/v/index.jsp?vgnextchannel=bfa48ab43d6bb410VgnVCM100000171f5a0aRCRD&vgnextoid=551f7339ae51c010VgnVCM2000000c205a0aRCRD";"RAMON GOMEZ DE LA SERNA";"CALLE";"V";"143-B";"";"";"";"";"MADRID";"MADRID";"28035";"PEÑA GRANDE";"FUENCARRAL-EL PARDO";"438713";"4481862";"40.48330982107021";"-3.7244038246970588";"";"";"";"/contenido/entidadesYorganismos/AparcamientosResidentes"; 
13599;"Aparcamiento para residentes. Ramos Carrión";"";"";"";"";"Plazas: 579 Abierto 24 horas  Titularidad: Ayuntamiento de Madrid";"0";"http://www.madrid.es/sites/v/index.jsp?vgnextchannel=bfa48ab43d6bb410VgnVCM100000171f5a0aRCRD&vgnextoid=ab3f7339ae51c010VgnVCM2000000c205a0aRCRD";"CLARA DEL REY";"CALLE";"V";"61";"";"";"";"";"MADRID";"MADRID";"28002";"PROSPERIDAD";"CHAMARTIN";"443437";"4477691";"40.44607141622334";"-3.668298074072127";"";"";"";"/contenido/entidadesYorganismos/AparcamientosResidentes"; 
13598;"Aparcamiento para residentes. Redondela";"";"";"";"";"Plazas: 661 Abierto 24 horas  Titularidad: Ayuntamiento de Madrid";"0";"http://www.madrid.es/sites/v/index.jsp?vgnextchannel=bfa48ab43d6bb410VgnVCM100000171f5a0aRCRD&vgnextoid=8be47339ae51c010VgnVCM2000000c205a0aRCRD";"VERIN";"PLAZA";"V";"3-B";"";"";"";"";"MADRID";"MADRID";"28029";"EL PILAR";"FUENCARRAL-EL PARDO";"440018";"4481228";"40.47769399639783";"-3.708947586113176";"";"";"";"/contenido/entidadesYorganismos/AparcamientosResidentes"; 
81827;"Aparcamiento para residentes. Reina Victoria";"";"";"";"";"Plazas: 382 Abierto 24 horas  Titularidad: Ayuntamiento de Madrid";"0";"http://www.madrid.es/sites/v/index.jsp?vgnextchannel=bfa48ab43d6bb410VgnVCM100000171f5a0aRCRD&vgnextoid=a4ecc2c6e051c010VgnVCM2000000c205a0aRCRD";"REINA VICTORIA";"AVENIDA";"V";"34";"";"";"";"";"MADRID";"MADRID";"28003";"CIUDAD UNIVERSITARIA";"MONCLOA-ARAVACA";"439876";"4477832";"40.447091226852045";"-3.710300419035648";"";"";"";"/contenido/entidadesYorganismos/AparcamientosResidentes"; 
13618;"Aparcamiento para residentes. Ribadavia";"";"";"";"";"Plazas: 448 Abierto 24 horas  Titularidad: Ayuntamiento de Madrid";"0";"http://www.madrid.es/sites/v/index.jsp?vgnextchannel=bfa48ab43d6bb410VgnVCM100000171f5a0aRCRD&vgnextoid=f16f7339ae51c010VgnVCM2000000c205a0aRCRD";"RIBADAVIA";"CALLE";"V";"47";"";"";"";"";"MADRID";"MADRID";"28029";"EL PILAR";"FUENCARRAL-EL PARDO";"440332";"4480687";"40.4728431267083";"-3.7051923830735447";"";"";"";"/contenido/entidadesYorganismos/AparcamientosResidentes"; 
13491;"Aparcamiento para residentes. Ribadeo";"";"";"";"";"Plazas: 221 Abierto 24 horas  Titularidad: Ayuntamiento de Madrid";"0";"http://www.madrid.es/sites/v/index.jsp?vgnextchannel=bfa48ab43d6bb410VgnVCM100000171f5a0aRCRD&vgnextoid=d1157339ae51c010VgnVCM2000000c205a0aRCRD";"RIBADEO";"PLAZA";"V";"2-B";"";"";"";"";"MADRID";"MADRID";"28029";"EL PILAR";"FUENCARRAL-EL PARDO";"439901";"4481195";"40.47738824582847";"-3.710324683665145";"";"";"";"/contenido/entidadesYorganismos/AparcamientosResidentes"; 
81829;"Aparcamiento para residentes. Ríos Rosas";"";"";"";"";"Plazas: 248 Abierto 24 horas  Titularidad: Ayuntamiento de Madrid";"0";"http://www.madrid.es/sites/v/index.jsp?vgnextchannel=bfa48ab43d6bb410VgnVCM100000171f5a0aRCRD&vgnextoid=60bec2c6e051c010VgnVCM2000000c205a0aRCRD";"RIOS ROSAS";"CALLE";"V";"20";"";"";"";"";"MADRID";"MADRID";"28003";"RIOS ROSAS";"CHAMBERI";"440571";"4477246";"40.441862351880786";"-3.7020503958373716";"";"";"";"/contenido/entidadesYorganismos/AparcamientosResidentes"; 
13484;"Aparcamiento para residentes. Rutilio Gacís";"";"";"";"";"Plazas: 605 Abierto 24 horas  Titularidad: Ayuntamiento de Madrid";"0";"http://www.madrid.es/sites/v/index.jsp?vgnextchannel=bfa48ab43d6bb410VgnVCM100000171f5a0aRCRD&vgnextoid=488f7339ae51c010VgnVCM2000000c205a0aRCRD";"GUILLERMO DE OSMA";"CALLE";"V";"3";"";"";"";"";"MADRID";"MADRID";"28045";"CHOPERA";"ARGANZUELA";"441080";"4471921";"40.39392846187197";"-3.6955547777769118";"";"";"";"/contenido/entidadesYorganismos/AparcamientosResidentes"; 
13600;"Aparcamiento para residentes. San Amaro";"";"";"";"";"Plazas: 220 Abierto 24 horas  Titularidad: Ayuntamiento de Madrid";"0";"http://www.madrid.es/sites/v/index.jsp?vgnextchannel=bfa48ab43d6bb410VgnVCM100000171f5a0aRCRD&vgnextoid=28357339ae51c010VgnVCM2000000c205a0aRCRD";"PRESIDENTE CARMONA";"AVENIDA";"V";"4-B";"";"";"";"";"MADRID";"MADRID";"28020";"CUATRO CAMINOS";"TETUAN";"441006";"4478545";"40.45359534488958";"-3.697042370060708";"";"";"";"/contenido/entidadesYorganismos/AparcamientosResidentes"; 
13638;"Aparcamiento para residentes. San Antonio de la Florida";"";"";"";"";"Plazas: 183 Abierto 24 horas  Titularidad: Ayuntamiento de Madrid";"0";"http://www.madrid.es/sites/v/index.jsp?vgnextchannel=bfa48ab43d6bb410VgnVCM100000171f5a0aRCRD&vgnextoid=86827339ae51c010VgnVCM2000000c205a0aRCRD";"SAN ANTONIO DE LA FLORIDA";"GLORIETA";"V";"2-B";"";"";"";"";"MADRID";"MADRID";"28008";"CASA DE CAMPO";"MONCLOA-ARAVACA";"438465";"4475432";"40.42536764645908";"-3.7267053522879783";"";"";"";"/contenido/entidadesYorganismos/AparcamientosResidentes"; 
13601;"Aparcamiento para residentes. San Aureliano";"";"";"";"";"Plazas: 194 Abierto 24 horas  Titularidad: Ayuntamiento de Madrid";"0";"http://www.madrid.es/sites/v/index.jsp?vgnextchannel=bfa48ab43d6bb410VgnVCM100000171f5a0aRCRD&vgnextoid=9eaf7339ae51c010VgnVCM2000000c205a0aRCRD";"SAN AURELIANO";"CALLE";"V";"9";"";"";"";"";"MADRID";"MADRID";"28021";"SAN ANDRES";"VILLAVERDE";"439323";"4466255";"40.34275979067738";"-3.7157159732461307";"";"";"";"/contenido/entidadesYorganismos/AparcamientosResidentes"; 
81830;"Aparcamiento para residentes. San Cipriano";"";"";"";"";"Plazas: 149 Abierto 24 horas  Titularidad: Ayuntamiento de Madrid  Teléfonos: 91 032 73 18                    654 651 152";"0";"http://www.madrid.es/sites/v/index.jsp?vgnextchannel=bfa48ab43d6bb410VgnVCM100000171f5a0aRCRD&vgnextoid=e476bdc85c01c010VgnVCM2000000c205a0aRCRD";"SAN CIPRIANO";"CALLE";"V";"53";"";"";"";"";"MADRID";"MADRID";"28032";"CASCO H.VICALVARO";"VICALVARO";"449055";"4472982";"40.40401372127027";"-3.601675154549265";"";"";"";"/contenido/entidadesYorganismos/AparcamientosResidentes"; 
13602;"Aparcamiento para residentes. San Francisco de Sales I";"";"";"";"";"Plazas: 284 Abierto 24 horas  Titularidad: Ayuntamiento de Madrid";"0";"http://www.madrid.es/sites/v/index.jsp?vgnextchannel=bfa48ab43d6bb410VgnVCM100000171f5a0aRCRD&vgnextoid=6c637339ae51c010VgnVCM2000000c205a0aRCRD";"ANDRES MELLADO";"CALLE";"V";"116";"";"";"";"";"MADRID";"MADRID";"28003";"VALLEHERMOSO";"CHAMBERI";"439565";"4477206";"40.4414293715104";"-3.713907903523528";"";"";"";"/contenido/entidadesYorganismos/AparcamientosResidentes"; 
81831;"Aparcamiento para residentes. San Francisco de Sales II";"";"";"";"";"Plazas: 447 Abierto 24 horas  Titularidad: Ayuntamiento de Madrid";"0";"http://www.madrid.es/sites/v/index.jsp?vgnextchannel=bfa48ab43d6bb410VgnVCM100000171f5a0aRCRD&vgnextoid=7437bdc85c01c010VgnVCM2000000c205a0aRCRD";"SAN FRANCISCO DE SALES";"PASEO";"V";"27";"";"";"";"";"MADRID";"MADRID";"28003";"VALLEHERMOSO";"CHAMBERI";"439548";"4477255";"40.44186954568839";"-3.7141130129979443";"";"";"";"/contenido/entidadesYorganismos/AparcamientosResidentes"; 
13603;"Aparcamiento para residentes. San Germán";"";"";"";"";"Plazas: 243 Abierto 24 horas  Titularidad: Ayuntamiento de Madrid";"0";"http://www.madrid.es/sites/v/index.jsp?vgnextchannel=bfa48ab43d6bb410VgnVCM100000171f5a0aRCRD&vgnextoid=7e557339ae51c010VgnVCM2000000c205a0aRCRD";"INFANTA MERCEDES";"CALLE";"V";"40";"";"";"";"";"MADRID";"MADRID";"28020";"CASTILLEJOS";"TETUAN";"440973";"4479012";"40.45779993088596";"-3.69747502964215";"";"";"";"/contenido/entidadesYorganismos/AparcamientosResidentes"; 
13621;"Aparcamiento para residentes. San Juan de la Cruz";"";"";"";"";"Plazas: 249 Abierto 24 horas  Titularidad: Ayuntamiento de Madrid";"0";"http://www.madrid.es/sites/v/index.jsp?vgnextchannel=bfa48ab43d6bb410VgnVCM100000171f5a0aRCRD&vgnextoid=c4857339ae51c010VgnVCM2000000c205a0aRCRD";"SAN JUAN DE LA CRUZ";"PLAZA";"V";"3-B";"";"";"";"";"MADRID";"MADRID";"28003";"RIOS ROSAS";"CHAMBERI";"441261";"4477161";"40.44114575525758";"-3.693906999649197";"";"";"";"/contenido/entidadesYorganismos/AparcamientosResidentes"; 
81833;"Aparcamiento para residentes. San Juan de la Salle";"";"";"";"";"Plazas: 254 Abierto 24 horas  Titularidad: Ayuntamiento de Madrid";"0";"http://www.madrid.es/sites/v/index.jsp?vgnextchannel=bfa48ab43d6bb410VgnVCM100000171f5a0aRCRD&vgnextoid=3b96bdc85c01c010VgnVCM2000000c205a0aRCRD";"SAN JUAN DE LA SALLE";"CALLE";"V";"2";"";"";"";"";"MADRID";"MADRID";"28036";"EL VISO";"CHAMARTIN";"441669";"4478235";"40.45084961018325";"-3.6891952944971687";"";"";"";"/contenido/entidadesYorganismos/AparcamientosResidentes"; 
13604;"Aparcamiento para residentes. San Lamberto";"";"";"";"";"Plazas: 225 Abierto 24 horas  Titularidad: Ayuntamiento de Madrid";"0";"http://www.madrid.es/sites/v/index.jsp?vgnextchannel=bfa48ab43d6bb410VgnVCM100000171f5a0aRCRD&vgnextoid=e4df7339ae51c010VgnVCM2000000c205a0aRCRD";"SANTA GENOVEVA";"CALLE";"V";"9-B";"";"";"";"";"MADRID";"MADRID";"28017";"VENTAS";"CIUDAD LINEAL";"444916";"4475031";"40.422208199253056";"-3.6506275116219804";"";"";"";"/contenido/entidadesYorganismos/AparcamientosResidentes"; 
13622;"Aparcamiento para residentes. Sancho de Córdoba";"";"";"";"";"Plazas: 472 Abierto 24 horas  Titularidad: Ayuntamiento de Madrid";"0";"http://www.madrid.es/sites/v/index.jsp?vgnextchannel=bfa48ab43d6bb410VgnVCM100000171f5a0aRCRD&vgnextoid=42547339ae51c010VgnVCM2000000c205a0aRCRD";"CORREGIDOR SANCHO DE CORDOBA";"PLAZA";"V";"10";"";"";"";"";"MADRID";"MADRID";"28030";"MEDIA LEGUA";"MORATALAZ";"444704";"4473407";"40.4075187512468";"-3.653055244559577";"";"";"";"/contenido/entidadesYorganismos/AparcamientosResidentes"; 
81836;"Aparcamiento para residentes. Santa Cruz";"";"";"";"";"Plazas: 152 Abierto 24 horas  Titularidad: Ayuntamiento de Madrid";"0";"http://www.madrid.es/sites/v/index.jsp?vgnextchannel=bfa48ab43d6bb410VgnVCM100000171f5a0aRCRD&vgnextoid=1187bdc85c01c010VgnVCM2000000c205a0aRCRD";"ATOCHA";"CALLE";"V";"3-B";"";"";"";"";"MADRID";"MADRID";"28012";"SOL";"CENTRO";"440283";"4474232";"40.41468120182588";"-3.705162347755471";"";"";"";"/contenido/entidadesYorganismos/AparcamientosResidentes"; 
13555;"Aparcamiento para residentes. Santa Eugenia";"";"";"";"";"Plazas: 530 Abierto 24 horas  Titularidad: Ayuntamiento de Madrid";"0";"http://www.madrid.es/sites/v/index.jsp?vgnextchannel=bfa48ab43d6bb410VgnVCM100000171f5a0aRCRD&vgnextoid=c9e115cbed51c010VgnVCM2000000c205a0aRCRD";"ZAZUAR";"CALLE";"V";"12";"";"";"";"";"MADRID";"MADRID";"28031";"SANTA EUGENIA";"VILLA DE VALLECAS";"448462";"4470466";"40.38131130575197";"-3.608459149580722";"";"";"";"/contenido/entidadesYorganismos/AparcamientosResidentes"; 
13496;"Aparcamiento para residentes. Santa Susana";"";"";"";"";"Plazas: 329 Abierto 24 horas  Titularidad: Ayuntamiento de Madrid";"0";"http://www.madrid.es/sites/v/index.jsp?vgnextchannel=bfa48ab43d6bb410VgnVCM100000171f5a0aRCRD&vgnextoid=3bff7339ae51c010VgnVCM2000000c205a0aRCRD";"SANTA SUSANA";"CALLE";"V";"55";"";"";"";"";"MADRID";"MADRID";"28033";"PINAR DEL REY";"HORTALEZA";"445192";"4481464";"40.48017828214144";"-3.6479305874314982";"S/T";"";"";"/contenido/entidadesYorganismos/AparcamientosResidentes"; 
13605;"Aparcamiento para residentes. Santa Virgilia";"";"";"";"";"Plazas: 330 Abierto 24 horas  Titularidad: Ayuntamiento de Madrid";"0";"http://www.madrid.es/sites/v/index.jsp?vgnextchannel=bfa48ab43d6bb410VgnVCM100000171f5a0aRCRD&vgnextoid=81207339ae51c010VgnVCM2000000c205a0aRCRD";"SANTA VIRGILIA";"CALLE";"V";"12-B";"";"";"";"";"MADRID";"MADRID";"28033";"PINAR DEL REY";"HORTALEZA";"445605";"4481034";"40.47633184455615";"-3.6430212857319466";"";"";"";"/contenido/entidadesYorganismos/AparcamientosResidentes"; 
81838;"Aparcamiento para residentes. Santander";"";"";"";"";"Plazas: 221 Abierto 24 horas  Titularidad: Ayuntamiento de Madrid";"0";"http://www.madrid.es/sites/v/index.jsp?vgnextchannel=bfa48ab43d6bb410VgnVCM100000171f5a0aRCRD&vgnextoid=81c6bdc85c01c010VgnVCM2000000c205a0aRCRD";"SAN FRANCISCO DE SALES";"PASEO";"V";"39";"";"";"";"";"MADRID";"MADRID";"28003";"VALLEHERMOSO";"CHAMBERI";"439910";"4477551";"40.444172355989295";"-3.7102932755491707";"";"";"";"/contenido/entidadesYorganismos/AparcamientosResidentes"; 
13507;"Aparcamiento para residentes. Santo Domingo de Silos";"";"";"";"";"Plazas: 252 Abierto 24 horas  Titularidad: Ayuntamiento de Madrid";"0";"http://www.madrid.es/sites/v/index.jsp?vgnextchannel=bfa48ab43d6bb410VgnVCM100000171f5a0aRCRD&vgnextoid=d7407339ae51c010VgnVCM2000000c205a0aRCRD";"SANTO DOMINGO DE SILOS";"CALLE";"V";"2-B";"";"";"";"";"MADRID";"MADRID";"28036";"EL VISO";"CHAMARTIN";"441797";"4478225";"40.45076858535646";"-3.6876731819953954";"";"";"";"/contenido/entidadesYorganismos/AparcamientosResidentes"; 
24138;"Aparcamiento para residentes. Sarriá";"";"";"";"";"Plazas: 517 Abierto 24 horas  Titularidad: Ayuntamiento de Madrid";"0";"http://www.madrid.es/sites/v/index.jsp?vgnextchannel=bfa48ab43d6bb410VgnVCM100000171f5a0aRCRD&vgnextoid=3fd16545f951c010VgnVCM2000000c205a0aRCRD";"SARRIA";"CALLE";"V";"67";"";"";"";"";"MADRID";"MADRID";"28029";"EL PILAR";"FUENCARRAL-EL PARDO";"439520";"4481018";"40.475766056159074";"-3.7148023465954534";"";"";"";"/contenido/entidadesYorganismos/AparcamientosResidentes"; 
81841;"Aparcamiento para residentes. Somontín";"";"";"";"";"Plazas: 282 Abierto 24 horas  Titularidad: Ayuntamiento de Madrid";"0";"http://www.madrid.es/sites/v/index.jsp?vgnextchannel=bfa48ab43d6bb410VgnVCM100000171f5a0aRCRD&vgnextoid=d7e6bdc85c01c010VgnVCM2000000c205a0aRCRD";"SOMONTIN";"CALLE";"V";"98-B";"";"";"";"";"MADRID";"MADRID";"28033";"APOSTOL SANTIAGO";"HORTALEZA";"444249";"4481135";"40.477151596340875";"-3.6590265639800315";"";"";"";"/contenido/entidadesYorganismos/AparcamientosResidentes"; 
13492;"Aparcamiento para residentes. Sor Ángela de la Cruz";"";"";"";"";"Plazas: 250 Abierto 24 horas  Titularidad: Ayuntamiento de Madrid";"0";"http://www.madrid.es/sites/v/index.jsp?vgnextchannel=bfa48ab43d6bb410VgnVCM100000171f5a0aRCRD&vgnextoid=2e607339ae51c010VgnVCM2000000c205a0aRCRD";"SOR ANGELA DE LA CRUZ";"CALLE";"V";"24";"";"";"";"";"MADRID";"MADRID";"28020";"CASTILLEJOS";"TETUAN";"441130";"4479250";"40.459955092735676";"-3.6956455808859126";"";"";"";"/contenido/entidadesYorganismos/AparcamientosResidentes"; 
13511;"Aparcamiento para residentes. Tembleque";"";"";"";"";"Plazas: 562 Abierto 24 horas  Titularidad: Ayuntamiento de Madrid";"0";"http://www.madrid.es/sites/v/index.jsp?vgnextchannel=bfa48ab43d6bb410VgnVCM100000171f5a0aRCRD&vgnextoid=74907339ae51c010VgnVCM2000000c205a0aRCRD";"TEMBLEQUE";"CALLE";"V";"146";"";"";"";"";"MADRID";"MADRID";"28024";"ALUCHE";"LATINA";"435190";"4471695";"40.39145429571687";"-3.764928439225643";"";"";"";"/contenido/entidadesYorganismos/AparcamientosResidentes"; 
13547;"Aparcamiento para residentes. Tomelloso";"";"";"";"";"Plazas: 213 Abierto 24 horas  Titularidad: Ayuntamiento de Madrid";"0";"http://www.madrid.es/sites/v/index.jsp?vgnextchannel=bfa48ab43d6bb410VgnVCM100000171f5a0aRCRD&vgnextoid=cab07339ae51c010VgnVCM2000000c205a0aRCRD";"TOMELLOSO";"CALLE";"V";"1-B";"";"";"";"";"MADRID";"MADRID";"28026";"ALMENDRALES";"USERA";"440868";"4470601";"40.38202222447678";"-3.6979180724386005";"";"";"";"/contenido/entidadesYorganismos/AparcamientosResidentes"; 
13489;"Aparcamiento para residentes. Uruguay";"";"";"";"";"Plazas: 246 Abierto 24 horas  Titularidad: Ayuntamiento de Madrid";"0";"http://www.madrid.es/sites/v/index.jsp?vgnextchannel=bfa48ab43d6bb410VgnVCM100000171f5a0aRCRD&vgnextoid=11e07339ae51c010VgnVCM2000000c205a0aRCRD";"URUGUAY";"CALLE";"V";"12";"";"";"";"";"MADRID";"MADRID";"28016";"HISPANOAMERICA";"CHAMARTIN";"442998";"4478645";"40.45463546024847";"-3.6735603027224646";"";"";"";"/contenido/entidadesYorganismos/AparcamientosResidentes"; 
13559;"Aparcamiento para residentes. Valladolid";"";"";"";"";"Plazas: 421 Abierto 24 horas  Titularidad: Ayuntamiento de Madrid";"0";"http://www.madrid.es/sites/v/index.jsp?vgnextchannel=bfa48ab43d6bb410VgnVCM100000171f5a0aRCRD&vgnextoid=101215cbed51c010VgnVCM2000000c205a0aRCRD";"VALLADOLID";"AVENIDA";"V";"55";"";"";"";"";"MADRID";"MADRID";"28008";"CASA DE CAMPO";"MONCLOA-ARAVACA";"438078";"4475979";"40.430266476138364";"-3.731320544485255";"";"";"";"/contenido/entidadesYorganismos/AparcamientosResidentes"; 
24141;"Aparcamiento para residentes. Valle de Suchil";"";"";"";"";"Plazas: 1.126 Abierto 24 horas  Titularidad: Ayuntamiento de Madrid";"0";"http://www.madrid.es/sites/v/index.jsp?vgnextchannel=bfa48ab43d6bb410VgnVCM100000171f5a0aRCRD&vgnextoid=22526545f951c010VgnVCM2000000c205a0aRCRD";"ARAPILES";"CALLE";"";"17";"";"";"";"";"MADRID";"MADRID";"28015";"ARAPILES";"CHAMBERI";"440085";"4476223";"40.43261178393764";"-3.707683985900638";"";"";"";"/contenido/entidadesYorganismos/AparcamientosResidentes"; 
13523;"Aparcamiento para residentes. Valparaíso";"";"";"";"";"Plazas: 582 Abierto 24 horas  Titularidad: Ayuntamiento de Madrid";"0";"http://www.madrid.es/sites/v/index.jsp?vgnextchannel=bfa48ab43d6bb410VgnVCM100000171f5a0aRCRD&vgnextoid=61d57339ae51c010VgnVCM2000000c205a0aRCRD";"VALPARAISO";"PLAZA";"V";"5";"";"";"";"";"MADRID";"MADRID";"28016";"HISPANOAMERICA";"CHAMARTIN";"442403";"4478685";"40.45521747089742";"-3.6803238974977317";"";"";"";"/contenido/entidadesYorganismos/AparcamientosResidentes"; 
13623;"Aparcamiento para residentes. Vasconcelos";"";"";"";"";"Plazas: 300 Abierto 24 horas  Titularidad: Ayuntamiento de Madrid";"0";"http://www.madrid.es/sites/v/index.jsp?vgnextchannel=bfa48ab43d6bb410VgnVCM100000171f5a0aRCRD&vgnextoid=f79a7339ae51c010VgnVCM2000000c205a0aRCRD";"JOSE VASCONCELOS";"CALLE";"V";"4";"";"";"";"";"MADRID";"MADRID";"28046";"CASTILLA";"CHAMARTIN";"441897";"4480467";"40.47097243608375";"-3.686711391241331";"";"";"";"/contenido/entidadesYorganismos/AparcamientosResidentes"; 
61831;"Aparcamiento para residentes. Vía Carpetana";"";"";"";"";"Plazas: 309 Abierto 24 horas  Titularidad: Ayuntamietno de Madrid";"0";"http://www.madrid.es/sites/v/index.jsp?vgnextchannel=bfa48ab43d6bb410VgnVCM100000171f5a0aRCRD&vgnextoid=b6dec2c6e051c010VgnVCM2000000c205a0aRCRD";"VIA CARPETANA";"CALLE";"V";"205";"";"";"";"";"MADRID";"MADRID";"28047";"VISTA ALEGRE";"CARABANCHEL";"436932";"4471345";"40.3884352927236";"-3.7443700438845036";"";"";"";"/contenido/entidadesYorganismos/AparcamientosResidentes"; 
13513;"Aparcamiento para residentes. Vicente Gaceo";"";"";"";"";"Plazas: 268 Abierto 24 horas  Titularidad: Ayuntamiento de Madrid";"0";"http://www.madrid.es/sites/v/index.jsp?vgnextchannel=bfa48ab43d6bb410VgnVCM100000171f5a0aRCRD&vgnextoid=67017339ae51c010VgnVCM2000000c205a0aRCRD";"VICENTE GACEO";"CALLE";"V";"19-B";"";"";"";"";"MADRID";"MADRID";"28029";"ALMENARA";"TETUAN";"441772";"4480742";"40.4734409803006";"-3.688211148150712";"";"";"";"/contenido/entidadesYorganismos/AparcamientosResidentes"; 
13606;"Aparcamiento para residentes. Villa Rosa";"";"";"";"";"Plazas: 205 Abierto 24 horas  Titularidad: Ayuntamiento de Madrid";"0";"http://www.madrid.es/sites/v/index.jsp?vgnextchannel=bfa48ab43d6bb410VgnVCM100000171f5a0aRCRD&vgnextoid=544015cbed51c010VgnVCM2000000c205a0aRCRD";"LAS PEDRO&amp;Ntilde;ERAS";"CALLE";"V";"44";"";"";"";"";"MADRID";"MADRID";"28043";"CANILLAS";"HORTALEZA";"446622";"4480019";"40.46725432234968";"-3.6309383657037775";"";"";"";"/contenido/entidadesYorganismos/AparcamientosResidentes"; 
13607;"Aparcamiento para residentes. Villacarlos";"";"";"";"";"Plazas: 316 Abierto 24 horas  Titularidad: Ayuntamiento de Madrid";"0";"http://www.madrid.es/sites/v/index.jsp?vgnextchannel=bfa48ab43d6bb410VgnVCM100000171f5a0aRCRD&vgnextoid=bd217339ae51c010VgnVCM2000000c205a0aRCRD";"VILLACARLOS";"CALLE";"V";"10";"";"";"";"";"MADRID";"MADRID";"28032";"CASCO H.VICALVARO";"VICALVARO";"448621";"4473204";"40.405986918268454";"-3.60680746518132";"";"";"";"/contenido/entidadesYorganismos/AparcamientosResidentes"; 
13608;"Aparcamiento para residentes. Villaescusa";"";"";"";"";"Plazas: 228 Abierto 24 horas  Titularidad: Ayuntamiento de Madrid";"0";"http://www.madrid.es/sites/v/index.jsp?vgnextchannel=bfa48ab43d6bb410VgnVCM100000171f5a0aRCRD&vgnextoid=04517339ae51c010VgnVCM2000000c205a0aRCRD";"MATAMOROSA";"CALLE";"V";"2";"";"";"";"";"MADRID";"MADRID";"28017";"PUEBLO NUEVO";"CIUDAD LINEAL";"446659";"4474754";"40.41982661310281";"-3.630058923275035";"";"";"";"/contenido/entidadesYorganismos/AparcamientosResidentes"; 
13609;"Aparcamiento para residentes. Villamanín I";"";"";"";"";"Plazas: 195 Abierto 24 horas  Titularidad: Ayuntamiento de Madrid";"0";"http://www.madrid.es/sites/v/index.jsp?vgnextchannel=bfa48ab43d6bb410VgnVCM100000171f5a0aRCRD&vgnextoid=5a717339ae51c010VgnVCM2000000c205a0aRCRD";"VILLAMANIN";"CALLE";"V";"37";"";"";"";"";"MADRID";"MADRID";"28011";"LUCERO";"LATINA";"436197";"4473352";"40.40645909050053";"-3.753230652462212";"";"";"";"/contenido/entidadesYorganismos/AparcamientosResidentes"; 
13528;"Aparcamiento para residentes. Villamanín II";"";"";"";"";"Plazas: 307 Abierto 24 horas  Titularidad: Ayuntamiento de Madrid";"0";"http://www.madrid.es/sites/v/index.jsp?vgnextchannel=bfa48ab43d6bb410VgnVCM100000171f5a0aRCRD&vgnextoid=a0a17339ae51c010VgnVCM2000000c205a0aRCRD";"VILLAMANIN";"CALLE";"V";"50";"";"";"";"";"MADRID";"MADRID";"28011";"LUCERO";"LATINA";"436091";"4473291";"40.405892426151894";"-3.7544735496324453";"";"";"";"/contenido/entidadesYorganismos/AparcamientosResidentes"; 
81866;"Aparcamiento para residentes. Virgen de Aránzazu";"";"";"";"";"Plazas: 238 Abierto 24 horas  Titularidad: Ayuntamiento de Madrid";"0";"http://www.madrid.es/sites/v/index.jsp?vgnextchannel=bfa48ab43d6bb410VgnVCM100000171f5a0aRCRD&vgnextoid=2e07bdc85c01c010VgnVCM2000000c205a0aRCRD";"VIRGEN DE ARANZAZU";"CALLE";"V";"23";"";"";"";"";"MADRID";"MADRID";"28034";"VALVERDE";"FUENCARRAL-EL PARDO";"441650";"4482193";"40.48651259805486";"-3.689784149213909";"";"";"";"/contenido/entidadesYorganismos/AparcamientosResidentes"; 
13610;"Aparcamiento para residentes. Virgen de La Alegría";"";"";"";"";"Plazas: 138 Abierto 24 horas  Titularidad: Ayuntamiento de Madrid";"0";"http://www.madrid.es/sites/v/index.jsp?vgnextchannel=bfa48ab43d6bb410VgnVCM100000171f5a0aRCRD&vgnextoid=f6c17339ae51c010VgnVCM2000000c205a0aRCRD";"VIRGEN DE LA ALEGRIA";"CALLE";"V";"19";"";"";"";"";"MADRID";"MADRID";"28027";"CONCEPCION";"CIUDAD LINEAL";"444360";"4476329";"40.433864217378236";"-3.657295067306364";"";"";"";"/contenido/entidadesYorganismos/AparcamientosResidentes"; 
13612;"Aparcamiento para residentes. Virgen de La Roca I";"";"";"";"";"Plazas: 172 Abierto 24 horas  Titularidad: Ayuntamiento de Madrid";"0";"http://www.madrid.es/sites/v/index.jsp?vgnextchannel=bfa48ab43d6bb410VgnVCM100000171f5a0aRCRD&vgnextoid=4de17339ae51c010VgnVCM2000000c205a0aRCRD";"VIRGEN DE LA ROCA";"CALLE";"V";"18";"";"";"";"";"MADRID";"MADRID";"28027";"CONCEPCION";"CIUDAD LINEAL";"444326";"4476469";"40.43512313182771";"-3.657708192601482";"";"";"";"/contenido/entidadesYorganismos/AparcamientosResidentes"; 
13613;"Aparcamiento para residentes. Virgen de La Roca II";"";"";"";"";"Plazas: 203 Abierto 24 horas  Titularidad: Ayuntamiento de Madrid";"0";"http://www.madrid.es/sites/v/index.jsp?vgnextchannel=bfa48ab43d6bb410VgnVCM100000171f5a0aRCRD&vgnextoid=93127339ae51c010VgnVCM2000000c205a0aRCRD";"VIRGEN DE LA ROCA";"CALLE";"V";"20";"";"";"";"";"MADRID";"MADRID";"28027";"CONCEPCION";"CIUDAD LINEAL";"444329";"4476490";"40.435312512147966";"-3.657674667298404";"";"";"";"/contenido/entidadesYorganismos/AparcamientosResidentes"; 
13639;"Aparcamiento para residentes. Virgen de Lourdes";"";"";"";"";"Plazas: 296 Abierto 24 horas  Titularidad: Ayuntamiento de Madrid";"0";"http://www.madrid.es/sites/v/index.jsp?vgnextchannel=bfa48ab43d6bb410VgnVCM100000171f5a0aRCRD&vgnextoid=e9327339ae51c010VgnVCM2000000c205a0aRCRD";"VIRGEN DE LOURDES";"CALLE";"NUM";"40";"";"";"";"";"MADRID";"MADRID";"28027";"CONCEPCION";"CIUDAD LINEAL";"444314";"4476556";"40.43590606878259";"-3.6578573055759387";"";"";"";"/contenido/entidadesYorganismos/AparcamientosResidentes"; 
13611;"Aparcamiento para residentes. Virgen del Puerto";"";"";"";"";"Plazas: 793 Abierto 24 horas  Titularidad: Ayuntamiento de Madrid";"0";"http://www.madrid.es/sites/v/index.jsp?vgnextchannel=bfa48ab43d6bb410VgnVCM100000171f5a0aRCRD&vgnextoid=b2937339ae51c010VgnVCM2000000c205a0aRCRD";"VIRGEN DEL PUERTO";"PASEO";"V";"7";"";"";"";"";"MADRID";"MADRID";"28005";"IMPERIAL";"ARGANZUELA";"438940";"4474102";"40.413421489994384";"-3.7209782941840133";"";"";"";"/contenido/entidadesYorganismos/AparcamientosResidentes"; 
7397971;"Aparcamiento para Residentes. Virgen del Romero";"";"";"";"";"Plazas: 404 Abierto 24 horas  Titularidad: Ayuntamiento de Madrid";"0";"http://www.madrid.es/sites/v/index.jsp?vgnextchannel=bfa48ab43d6bb410VgnVCM100000171f5a0aRCRD&vgnextoid=bc0259c4f79d4410VgnVCM1000000b205a0aRCRD";"VIRGEN DEL ROMERO";"PLAZA";"V";"9";"";"";"";"";"MADRID";"MADRID";"28027";"CONCEPCION";"CIUDAD LINEAL";"444874";"4476868";"40.438754114417975";"-3.6512822080388543";"";"";"";"/contenido/entidadesYorganismos/AparcamientosResidentes"; 
13614;"Aparcamiento para residentes. Vista Alegre";"";"";"";"";"Plazas: 402 Abierto 24 horas  Titularidad: Ayuntamiento de Madrid";"0";"http://www.madrid.es/sites/v/index.jsp?vgnextchannel=bfa48ab43d6bb410VgnVCM100000171f5a0aRCRD&vgnextoid=aa6015cbed51c010VgnVCM2000000c205a0aRCRD";"MATILDE HERNANDEZ";"CALLE";"V";"101";"";"";"";"";"MADRID";"MADRID";"28025";"VISTA ALEGRE";"CARABANCHEL";"437489";"4471080";"40.386090109968336";"-3.7377818777393292";"";"";"";"/contenido/entidadesYorganismos/AparcamientosResidentes"; 
13493;"Aparcamiento para residentes. Vital Aza";"";"";"";"";"Plazas: 202 Abierto 24 horas  Titularidad: Ayuntamiento de Madrid";"0";"http://www.madrid.es/sites/v/index.jsp?vgnextchannel=bfa48ab43d6bb410VgnVCM100000171f5a0aRCRD&vgnextoid=30627339ae51c010VgnVCM2000000c205a0aRCRD";"VITAL AZA";"CALLE";"V";"10";"";"";"";"";"MADRID";"MADRID";"28017";"PUEBLO NUEVO";"CIUDAD LINEAL";"445329";"4475779";"40.43085729658349";"-3.6445415699752335";"";"";"";"/contenido/entidadesYorganismos/AparcamientosResidentes"; 
13463;"Aparcamiento público. Plaza de España";"";"";"";"";"Plazas: 800 (hasta 535 abonados) Abierto 24 horas    Titularidad: Ayuntamiento de Madrid  Gestión: Empresa Municipal de Transportes (EMT) (más información)";"0";"http://www.madrid.es/sites/v/index.jsp?vgnextchannel=bfa48ab43d6bb410VgnVCM100000171f5a0aRCRD&vgnextoid=fb977339ae51c010VgnVCM2000000c205a0aRCRD";"ESPA&amp;Ntilde;A";"PLAZA";"V";"20";"";"";"";"";"MADRID";"MADRID";"28008";"ARGUELLES";"MONCLOA-ARAVACA";"439631";"4475032";"40.42372251184839";"-3.7116577340508523";"";"";"";"/contenido/entidadesYorganismos/AparcamientosResidentes";